,3yo or older Source,Recent Source,"Type (Current Crisis, General)",Latitude,Longitude,Name,City,State,Country,Address,MachineMatchAddress,Phone,Email,Twitter,Website,Owner_Type,Owner_Contact,Sources,Notes,
Vera LOP Contractor but also represents unaccompanied minors,"2011-08-02 Behind the Walls of an Immigration Detention Center in Florence, Arizona",https://www.texastribune.org/2018/06/18/heres-list-organizations-are-mobilizing-help-separated-immigrant-child/?utm_campaign=trib-social-buttons&utm_source=twitter&utm_medium=social,Current Crisis,33.466172,-112.071344,The Florence Immigrant & Refugee Rights Project (FIRRP),Phoenix,Arizona,United States,"202 E McDowell Rd # 250, Phoenix, AZ 85004",,(520) 868-0191,firrp@firrp.org,https://twitter.com/FlorenceProject,https://firrp.org/,,,,"Serves Eloy Detention Center, Central Arizona Detention Facility, Florence Correctional Center, and Florence Service Processing Center",
,https://www.americanbar.org/content/dam/aba/administrative/immigration/ijp/ijp_fje_annual_report2011.authcheckdam.pdf,https://www.vera.org/projects/legal-orientation-program/legal-orientation-program-lop-facilities,"Current Crisis, General",,,ABA Immigration Justice Project of San Diego,San Diego,California,United States,,,(619) 255-8813,harper.otawka@abaijp.org,,https://www.americanbar.org/groups/public_services/immigration/projects_initiatives/immigration_justice_project_ijp_of_san_diego.html,,,,"Serves Otay Mesa Detention Center, San Diego  ",
,,Vera LOP Contractor,"Current Crisis, General",41.879201,-87.632432,National Immigrant Justice Center,Chicago,Illinois,United States,"208 S. LaSalle St., Suite 1300, Chicago, IL 60604",,(312) 660-1370; (312) 660-1317 (referrals),nijcfip@heartlandalliance.org,https://twitter.com/nijc,http://www.immigrantjustice.org/,,,,"NIJC will accept referrals for previously separated parents, children, and families who are currently located in or are moving to Illinois, Indiana, and Wisconsin. For individuals outside of those states, NIJC will provide referrals to appropriate legal service providers or work with pro bono partners.  NIJC will also continue to work with partners throughout the country to advance protections through litigation, public education and direct service as appropriate. LOP provided at McHenry County Adult Correctional Facility (IL) and Kenosha County Detention Center (WI)",
Vera LOP Contractor,,https://www.caircoalition.org/news-clip/press-release-class-action-lawsuit-filed-virginia-challenge-ices-policy-keeping,"Current Crisis, General",,,Capital Area Immigrants’ Rights Coalition,,Maryland,United States,,,202-331-3320; extension 7027 (detained adults); 202-870-5843 (detained kids),adults@caircoalition.org; children@caircoalition.org,https://twitter.com/CAIRCoalition,https://www.caircoalition.org/,,,,"Serves Frederick County Adult Detention Center (MD), Howard County Detention Center (MD), Ordnance Road Correctional Center (MD, Worcester County Detention Center (MD), Farmville Detention Center (VA), and Virginia Peninsula Regional Jail (VA)",
Vera LOP Contractor,,http://www.philly.com/philly/news/new_jersey/universal-representation-undocumented-immigrants-deportation-new-jersey-20180703.html,"Current Crisis, General",40.526897,-74.387326,Legal Services of New Jersey,Edison,New Jersey,United States,"P.O. Box 1357, Edison, NJ 08818-1357",,(732) 572-9100,,https://twitter.com/lsnj,https://www.lsnj.org/,,,,"Serves Elizabeth Detention Center, Essex County Correctional Facility, and Hudson County Correctional Facility",
Vera LOP Contractor,,http://www.mcall.com/news/local/mc-nws-berks-immigration-family-detention-center-20180703-story.html,"Current Crisis, General",39.961283,-76.726427,Pennsylvania Immigration Resource Center,York,Pennsylvania,United States,"P.O. Box 20339, York PA, 17402",,717-600-8099,,,http://www.pirclaw.org/,,,,Serves York County Prison,
,,https://www.ccab.org/node/1271,Current Crisis,40.712764,-74.008447,Immigrant Connection Project,New York,New York,United States,"233 Broadway, 2nd Floor, New York, NY 10279",,(212) 334-1300,contactvera@vera.org,https://twitter.com/verainstitute,https://www.vera.org/projects/immigrant-connection-project,,,,,
,,https://www.businesswire.com/news/home/20180124005262/en/YMCA-Greater-Houston-Launches-ClientTrack-Platform-Statewide,"Current Crisis, General",29.770149,-95.370172,YMCA of Greater Houston,Houston,Texas,United States,"P.O. Box 3007, Houston, Texas, 77253",,(713)-659-5566,,https://twitter.com/ymcahouston,https://www.ymcahouston.org/,,,,"Serves Houston Contract Detention Facility, IAH Secure Adult Detention Facility (""Polk""), Joe Corley Detention Facility",
,,http://abc7.com/california-housing-many-detained-immigrant-children/3634263/,"Current Crisis, General",34.050327,-118.272548,Esperanza Immigrant Right Project,Los Angeles,California,United States,"1530 James M Wood Blvd, Los Angeles, California, 90015",,(213) 251-3505,,https://twitter.com/esperanzaccla,https://www.esperanza-la.org/,,,,Serves Adelanto ICE Processing Center,
,,https://www.apnews.com/989ce26984794ab9ac90b4b842001aae,Current Crisis,40.338261,-75.926428,ALDEA The Project's People Justice,Reading,Pennsylvania,United States,"532 Walnut Street, Reading, PA 19601",,(484) 926-2014,Aldeapjc@gmail.com,,https://aldeapjc.org/,,,,,
,2014 Washington Post,2018-06-29 Houston Chronicle,Current Crisis,30.229527,-97.699944,Texas Civil Rights Project,Austin,Texas,United States,"1405 Montopolis Drive, Austin, Texas 78741",,(512) 474-5073,info@texascivilrightsproject.org,https://twitter.com/TXCivilRights,https://texascivilrightsproject.org/,,,,,
,2003 National Catholic Reporter (newspaper),2017-10-20 Mother Jones,Current Crisis,32.710913,-117.143282,Border Angels,San Diego,California,United States,"2258 Island Avenue, San Diego, CA 92102",,(619) 269-7865,info@borderangels.org,https://twitter.com/border_angels,https://www.borderangels.org/,,,,,
,2014-12-02 RAICES Steps Up Immigration Information,2018-07-11 RAICES Offers to Pay Bonds for All Immigrant Women Separated from Their Children,Current Crisis,29.43816,-98.503058,RAICES,San Antonio,Texas,United States,"1305 N. Flores Street, San Antonio, TX 78212",,(210) 222-0964,hannah.zimmerman@raicestexas.org,https://twitter.com/RAICESTEXAS,https://www.raicestexas.org/,,,,,
,2015-04-03 Border Violations,2018-19-06 Fundraiser For Migrant Families Exceeds $3M For Austin Nonprofit,Current Crisis,30.228468,-97.745447,RAICES,Austin,Texas,United States,"2800 IH-35 South, Suite 215, Austin, TX 78704",,(512) 994-2199,aminnaar@raicestexas.org,https://twitter.com/RAICESTEXAS,https://www.raicestexas.org/,,,,,
,2012-08-17 Catholic Charities struggling to help young immigrants,2018-06-20 RAICES Texas: What to know about the nonprofit working to reunite separated families,Current Crisis,27.793437,-97.402124,RAICES,Corpus Christi,Texas,United States,"403 Waco St., Corpus Christi, TX 78401",,(361) 693-5838,diana.tafur@raicestexas.org,https://twitter.com/RAICESTEXAS,https://www.raicestexas.org/,,,,,
,2012-11-30 Young Immigrants Say It’s Obama’s Time to Act,"2018-06-28 United We Dream holds protest at Tornillo, TX port of entry",Current Crisis,29.765877,-95.377633,United We Dream,Houston,Texas,United States,"1900 Kane St, Houston, TX 77007",,(713) 863-1422,,https://twitter.com/unitedwedream,https://unitedwedream.org/,,,,,
,2014-06-16 Innocents at the Border,2018-07-12 ACLU says it can't verify migrant reunifications,General,40.702303,-74.010526,ACLU,New York,New York,United States,"125 Broad Street, 18th Floor, New York NY 10004",,(212) 549-2500,,https://twitter.com/ACLU,https://www.aclu.org/,,,,,
,2012-06-25 Texans React to SCOTUS Ruling on Arizona Law,2018-06-06 Asylum seekers reportedly denied entry at border as Trump tightens 'zero tolerance' immigration policies,General,29.742339,-95.369404,ACLU Texas,Houston,Texas,United States,"1153, 1500 McGowen St, Houston, TX 77004",,(713) 942-8146,acluinfo@aclutx.org,https://twitter.com/ACLUTx,https://www.aclutx.org/,,,,,
,"2012-08-25 Young and Alone, Facing Court and Deportation",2018-06-20 ABA asylum project attorney describes representing separated families at the border,Current Crisis,26.191339,-97.694082,South Texas Pro Bono Asylum Representation Project,Harlingen,Texas,United States,"222 E. Van Buren Avenue, Suite 300, Harlingen, TX 78550",,(956) 425-9231,probar@abaprobar.org,,https://www.americanbar.org/groups/public_services/immigration/projects_initiatives/south_texas_pro_bono_asylum_representation_project_probar.html,,,,,
Founded in 2014; first news item from August 2015,,2017-06-28 Dispatches from “Baby Jail” in South Texas,Current Crisis,28.660838,-99.208286,CARA Project,Dilley,Texas,United States,"4680 Briscoe Rd, Dilley, TX 78017",,,caya@caraprobono.org,,http://caraprobono.org/,,Caya Simonsen,,,
,2014-06-20 Flood of undocumented kids from Central America strains services,2018-07-08 Don't forget about immigrant families in detention,Current Crisis,38.903444,-77.030038,Kids in Need of Defense (KIND) - DC,Washington,Washington DC,United States,"1300 L St. NW Suite 1100, Washington, DC 20005",,(202) 824-8680,info@supportKIND.org ; separation@supportkind.org,https://twitter.com/supportKIND,https://supportkind.org/,,,Information provided through Vera network,"Covers all of DC plus the following counties in VA: Arlington County, Alexandria City, Fairfax County, Prince William County",
,2014-06-09 ICE Asks Shelters in El Paso to House Undocumented Immigrants,2018-07-07 Border parent-children reunifications lagging,Current Crisis,31.771382,-106.477943,Las Americas Immigrant Advocacy Center,El Paso,Texas,United States,"1500 E. Yandell Dr., El Paso, TX 79902",,(915) 544-5126,administrator@las-americas.org,https://twitter.com/lasamericasiac,http://las-americas.org/,,,,,
,"2014-03-29 In San Juan, annual Cesar Chávez march focused on immigration, farmworkers rights",2018-06-28 Longtime Valley residents apply for citizenship amid immigration crisis,Current Crisis,26.186819,-98.135613,La Unión del Pueblo Entero (LUPE),San Juan,Texas,United States,"1601 U.S. 83 Business, San Juan, TX 78589",,(956) 787-2233,lupe@lupenet.org,https://twitter.com/LUPE_rgv,https://lupenet.org/,,,,,
,"2014-07 70,000 Kids Will Show Up Alone at Our Border This Year. What Happens to Them?","2018-06-22 In New York, Even a Count of Separated Children Proves Elusive",Current Crisis,41.785719,-87.598532,The Young Center for Immigrant Children's Rights,Chicago,Illinois,United States,"6020 S University Ave, Chicago, IL 60637",,(773) 702-9560,,https://twitter.com/TheYoungCenter,https://www.theyoungcenter.org/contact,,,,,
,"2010-12-30 Once A Mexican Tourist Town, Now No Man's Land","2018-06-21 Amid family-separation crisis, asylum seekers at the border face long waits, few options",Current Crisis,31.44,-111.02,Kino Border Initiative,Nogales,Arizona,"United States, Mexico","P.O. Box 159, Nogales, AZ 85628",,(520) 287-2370,,https://twitter.com/KinoBorder,https://www.kinoborderinitiative.org/,,,,,
,2014-08-11 Influx of Child Immigrants Strains Courts in Louisiana,"2018-06-18 Family Separations Are Just the Tip of the Iceberg at Texas Detention Centers, a New Report Says",General Crisis,40.704617,-74.011233,Human Rights First,New York,New York,United States,"75 Broad St, 31st Floor, New York, NY 10004",,(202) 370-3323,,https://twitter.com/humanrights1st,https://www.humanrightsfirst.org/,,,,,
,"2014-03-21 Fernando Garcia bridges the gap between residents and law enforcers in El Paso, Texas","2018-06-19 More than 1,000 people march on El Paso immigration center",Current Crisis,31.795634,-106.461737,Border Network for Human Rights,El Paso,Texas,United States,"2115 N Piedras St, El Paso, TX 79930",,(575) 520-8851,,https://twitter.com/bnhr,http://bnhr.org/,,,,,
,2016-09-19 Women’s Refugee Commission: Protecting Female Refugees Is Essential,"2018-06-21 U.S. Prepares to House Up to 20,000 Migrants on Military Bases",Current Crisis,40.75098,-73.984311,Women's Refugee Commission,New York,New York,United States,"15 West 37th Street, 9th Floor, New York, NY 10018",,(212) 551-3115,,https://twitter.com/wrcommission,https://www.womensrefugeecommission.org/,,,,,
,2014-05-05 Colibri Center launch puts human faces to border issues,2018-03-02 They Died Near the Border. Art Students Hope to Bring Them Back,General Crisis,32.175151,-110.928077,Colibri Center for Human Rights,Tucson,Arizona,United States,"Pima County Office of the Medical Examiner, 2825 E. District Street, Tucson, AZ 85714",,(520) 724-8644,,https://twitter.com/colibricenter,http://www.colibricenter.org/,,,,,
,2015-02-18 City and Local Organizations to Help Immigrants Despite Challenges to New Policies,2018-06-05 Here’s How You Can Help Fight Family Separation at the Border,Current Crisis,29.743453,-95.369604,Houston Immigration Legal Services Collaborative,Houston,Texas,United States,"1028, 2502 La Branch St, Houston, TX 77004",,(832) 554-6295,,https://twitter.com/@HTXimmigration/,https://www.houstonimmigration.org/,,,,,
,2015-10-08 Pope's 2016 Mexico Visit Excites Catholics Along The Border,"01-19-18 Asylum seekers face 'Iron Triangle of Deterrence' in El Paso under Trump, advocates say",Current Crisis,31.720408,-106.339947,Hope Border Institute,"Las Cruces, El Paso, Cd. Juárez","New Mexico, Texas, Chihuahua",United States & Mexico,"499 St. Matthews St., El Paso, TX 79907",,(915)8428400,,https://twitter.com/HopeBorder,https://www.hopeborder.org/,,,,,
,2014-09-04 Refuge-seeking kids face deportation hearings alone,2018-06-20 Inslee announces $1.2 million for civil legal aid funding to Northwest Immigrant Rights Project,Current Crisis,47.602722,-122.333233,Northwest Immigrant Rights Project,Seattle,Washington,United States,"615 2nd Ave, Suite 400, Seattle, WA 98104",,(206) 587-4009,,https://twitter.com/nwirp,https://www.nwirp.org/,,,,,
,2014-09-01 5 days along the border: Migrant dreams run dry,2018-06-24 Human Smuggling Across the Southern Border,Current Crisis,27.226207,-98.143649,South Texas Human Rights Center,Falfurrias,Texas,United States,"117 E. Miller St., Falfurrias, TX 78355",,(361) 325-2555,,https://twitter.com/STXHumanRights,https://southtexashumanrights.org/,,,,,
,"2015-12-01 Groups say they will defy Abbott, accept Syrian refugees",2018-06-25 El Paso Community Foundation launches fund to help migrant families,Current Crisis,31.77835906,-106.4672411,"Diocesan Migrant & Refugee Services, Inc.",El Paso,Texas,United States,"2400 E Yandell Dr, El Paso, TX 79903",,,,https://twitter.com/elpasodmrs,http://www.dmrs-ep.org/,,,,"Serves West Texas Detention Facility, Sierra Blanca",
,2016-05-12 Help for female immigrants fleeing violence is this lawyer’s calling,2018-06-15 What’s Really Happening When Asylum-Seeking Families Are Separated?,Current Crisis,29.748457,-95.4724561,Tahirih Justice Center,Houston,Texas,United States,"1717 St. James Place, Suite 450, Houston, TX 77056",,(713) 496-0100,,https://twitter.com/tahirihjustice,http://www.tahirih.org/locations/houston/,,,,,
,2014-11-19 Battered Wife Wins Suit Against Md. Matchmaker,2018-04-20 Children have a right not to be forced into marriage,General Crisis,39.2913464,-76.6149556,Tahirih Justice Center,Baltimore,Maryland,United States,"201 North Charles Street, Suite 920, Baltimore, MD 21201",,(410) 999-1900,,https://twitter.com/tahirihjustice,http://www.tahirih.org/locations/baltimore/,,,,,
,2013-05-06 Noted advocate for immigrant women to receive honorary NIU doctorate at May 10 graduation,2018-05-07 Tahirih Justice Center – Inside Scoop,General Crisis,38.8735515,-77.1601397,Tahirih Justice Center,Falls Church,Virginia,United States,"6402 Arlington Boulevard, Suite 300, Falls Church, VA 22042",,(571) 282-6161,,https://twitter.com/tahirihjustice,http://www.tahirih.org/locations/baltimore/,,,,,
,2002-12-05 Legal defense fund files appeal,2018-01-23 Lawsuit alleges Motel 6 discriminated against Latino customers by giving information to immigration agents,General Crisis,34.0449388,-118.2514517,Mexican-American Legal Defense Fund,Los Angeles,California,United States,"634 S. Spring Street, Los Angeles, CA 90014",,(213) 629-2512,,https://twitter.com/MALDEF,http://www.maldef.org/about/index.html,,,,,
,2011-10-06 Austin non-profit American Gateways seeks Executive Director,2018-03-28 Austin City Council funds immigrant aid through contract with nonprofit American Gateways,Current Crisis,30.3290949,-97.7114185,American Gateways,Austin,Texas,United States,"314 E. Highland Mall Boulevard, Suite 501, Austin TX 78752",,(512) 478-0546 ext. 200,,https://twitter.com/amergateways,http://www.americangateways.org/,,,,"Serves Karnes County Residential Center, South Texas Detention Complex, T. Don Hutto Residential Center",
,2015-07-27 Immigrants' attorneys say they were 'locked out' of detention centers after raising concerns,2018-03-26 San Antonio to provide legal representation for undocumented immigrants,Current Crisis,29.4271194,-98.5206545,American Gateways,San Antonio,Texas,United States,"2300 W. Commerce Street, Suite 313, San Antonio, TX 78207",,(210) 521-4768 ext. 232 or 233,,https://twitter.com/amergateways,http://www.americangateways.org/,,,,"Serves Karnes County Residential Center, South Texas Detention Complex, T. Don Hutto Residential Center",
,2016-11-16 American Gateways partners with Texas Bar Foundation to serve McLennan County,2018-04-26 Waco organizations to host fundraiser to help with DACA renewal cost,Current Crisis,31.5535966,-97.1334745,American Gateways,Waco,Texas,United States,"P.O. Box 2405, Waco, TX 76703",,(254) 230-0382,,https://twitter.com/amergateways,http://www.americangateways.org/,,,,"Serves Karnes County Residential Center, South Texas Detention Complex, T. Don Hutto Residential Center",
,2015-04-29 The Southern Poverty Law Center’s Teaching Tolerance program has named The Roeper School,"2018-06-18 Pressured, the Southern Poverty Law Center Admits It Was Wrong",General Crisis,32.3761407,-86.3032438,The Southern Poverty Law Center,Montgomery,Alabama,United States,"400 Washington Avenue, Montgomery, AL 36104",,(334) 956-8200,,https://twitter.com/splcenter,https://www.splcenter.org/,,,,,
,"2009-03-29 US treatment of immigrant detainees violates human rights, report says",2018-06-20 Trump's Executive Order Swaps Separating Families for Detaining Them Together,General Crisis,40.75192,-73.994068,Amnesty International - USA Headquarters,New York,New York,United States,"5 Penn Plaza, 16th Floor, New York, NY 10001",,(212) 807-8400,,https://twitter.com/amnestyusa,https://www.amnestyusa.org/campaigns/refugee-and-migrant-rights/,,,,,
,"2012-03-16 AMNESTY INTERNATIONAL USA ANNOUNCES FRANK JANNUZI, NEW HEAD OF THE WASHINGTON, D.C., OFFICE",2018-02-26 MCCOLLUM REMARKS AT AMNESTY INTERNATIONAL LOBBY DAY,General Crisis,38.885701,-76.997652,Amnesty International - Washington National Office,Washington,DC,United States,"600 Pennsylvania Ave, SE, 5th Floor, Washington, DC 20003",,(202) 546-7142,,,,,,,,
,2016-11-13 Amnesty International conference inspires attendees,https://nonprofitcenterboston.org/amnesty-international,General Crisis,42.351844,-71.057489,Amnesty International - Northeast Regional Office,Boston,Massachusetts,United States,"89 South Street, Suite LL01, Boston, MA 02111",,,,,,,,,,
,2016-11-19 Amnesty International: Southern Regional Conference,https://events.accessatlanta.com/event/amnesty-international-usa-southern-regional-conference-udnk3uwaqi,General Crisis,33.774485,-84.38599,Amnesty International - Southern Regional Office,Atlanta,Georgia,United States,"730 Peachtree Street, NE Suite 660, Atlanta, GA 30308",,,,,,,,,,
,2014-06-07 Atienden diario a 100 en El Buen Samaritano ,,General Crisis,32.5199669,-117.0367445,El Buen Samaritano,Mexicali,Baja California,Mexico,"Calle Morelos, No. 192, C.P. 174311, Mexicali, Baja California, MX ","Morelos, Tijuana, B.C., Mexico",,,,,,,http://es.survivingpostrelease.org/baja-california-mx.html,Added from Supervivencia Después de la Detención / Surviving Post-Release ,post-release: Food
,2015-07-07 HOTEL DEL MIGRANTE DE MEXICALI FUE UN OASIS EN EL DESIERTO,2017-07-12 Hotel del Migrante: testimonios de mexicanos deportados en la frontera de Mexicali,General Crisis,31.8687051,-116.6229069,"Hotel del Migrante, Angeles Sin Fronteras",Mexicali,Baja California,Mexico,"Avenida Reforma No. 220 A, Zona Centro, Mexicali, Baja California, MX ","Zona Centro, Ensenada, B.C., Mexico",044 686 2 09 61 38,,,,,,https://sites.google.com/site/angelessinfronteras,Added from Supervivencia Después de la Detención / Surviving Post-Release,"post-release: Bed, food, clothes"
,2014-01-31 Deportees and Refugees Crowd Migrant Shelters,"2018-06-25 At the border, mothers prepare to make an agonizing choice",Current Crisis,32.523395,-117.0013542,Centro Madre Assunta,Tijuana,Baja California,Mexico,"Calle Galileo, No. 2305, Colonia Postal, C.P. 22350 Tijuana, Baja California ","Calle Galileo 2305, Buena Vista, Lopez Leyva, 22416 Tijuana, B.C., Mexico",01 (664) 683-0575 ,assunta_tj@yahoo.com.mx,,,,,,Added from Supervivencia Después de la Detención / Surviving Post-Release ,"post-release: Bed, phones, food, clothes"
"Founded in 2008; more recent sources tend to cite the ""Somos Mexicanos"" project in conjunction with PRH",2010-11 Repatriation to Mexico: The Experiences of Persons Returned to Mexico by U.S. Authorities,2016-12-05 Apoyan a mexicanos repatriados de EU,General Crisis,32.5149469,-117.0382471,Programa de Repatriacion Humana,Tijuana,Baja California,Mexico,"Garita #1 Puerta México, s/n, Col. Federal. C.P. 22310  Tijuana, Baja California, Mexico","Tijuana, Baja California, Mexico","01(664) 973-0055, 01(664) 682-4038",,,,,,,Added from Supervivencia Después de la Detención / Surviving Post-Release,"post-release: Bed, phones, food, first aid, transport, clothes"
,2011-07-28 Atiende albergue a 200 indigentes,2016-04-08 Informan pérdidas en Albergue San Vicente,General Crisis,31.8668863,-116.6009565,"Albergue San Vicente: Instituto de Derechos Humanos de Indigentes y Migrantes, A.C.",Ensenada,Baja California,México,"Calle Novena #691, Colonia Bustamante, Ensenada, Baja California 22840",,(646)1760306,alberguemigrantes@prodigy.net.mx,,https://www.facebook.com/pages/Albergue-San-Vicente-Migrantes/285863041573824,,"Hermana María Rosa Dimalanta Laus, María del Carmen Sánchez",,,
Founded 1989,2013-03-29 El Albergue del Desierto,"2018-06-29 Migrants Choose to Stay in Mexico, Despite Risks",General Crisis,32.6544611,-115.4652778,Albergue del Desierto: Centro de Reintegración Familiar de Menores Migrantes,Mexicali,Baja California,México,"Ave. Carpinteros #1515 entre calle G y H, Colonia Industrial, Mexicali, Baja California 21010",,"(686)554-5364, (686)554-6045, +52 686 554 5364",alberguedes@prodigy.net.mx; alberguedeldesierto@hotmail.com,,https://www.facebook.com/Albergue-del-Desierto-326270444088398/,,"Mónica Oropeza, Blanca Villaseñor",,,
,2013-12-23 Entrega el Senador Victor Hermosillo donativo de alimentos a organismos que apoyan a repatriados,2018-04-30 “PROMULGACIÓN DEL ORDENAMIENTO DIOCESANO PARA LA PRIORIDAD SERVICIO”,General Crisis,32.6645023,-115.4962097,"Módulo Fronterizo ""Juntos en el Camino""",Mexicali,Baja California,México,"Garita #1 Mexicali-Calexico, Mexicali, Baja California, Módulo #3",,(686) 5519060,juntosenelcamino@prodigy.net.mx,,,,Ernestina López Ibarra,,,
,2012-03-12 Entregaron más recursos para el apoyo a migrantes,2017-08-14 Entregó gobernador Francisco Vega recursos a 14 organismos de apoyo a migrantes,General Crisis,32.6452913,-115.4626048,Centro Pastoral Maná de Mexicali,Mexicali,Baja California,México,"Jesús García #1799, Colonia Héroes de Nacozari, Mexicali, Baja California 21030",,(686) 5560271,alberguemana@hotmail.com,,,,Ceferino Lizárraga,,,
,"2008-12-18 La casa del migrante Betania, oasis en BC","2018-05-12 Casa Betania, 40 años al servicio de la comunidad",Current Crisis,32.607357,-115.4436231,Casa Betania: Coordinadora del Programa de Apoyo al Trabajador Migrante,Mexicali,Baja California,México,"Lago Hudson #2408, Colonia Xochimilco, Mexicali, Baja California 21380",,(686) 580 0687,"casa_migrante_betania@hotmail.com, jverdugol@casabetaniamexicali.com",,,,"Jorge Verduzco, Olga Cecilia Rodríguez",,,
,http://www.el-mexicano.com.mx/imprime-noticia/526525,2017-08-15 Entregan apoyos para emigrantes,General Crisis,32.653903,-115.479104,Dispensario Médico Dr. Cañedo,Mexicali,Baja California,México,"Calle Sur #701, Col. Bella Vista, Frente a la Parroquia San José Obrero, Mexicali, Baja California, C.P. 21150",,(686) 552-4110,dispensariomedicodrcanedo@hotmail.com,,,,Norma de Reynoso,,,
,http://victor-hermosillo-boletin.blogspot.com/2014/,2018-06-18 Comedor de migrantes requiere de alimento,Current Crisis,32.653903,-115.479104,Comedor el Buen Samaritano: Banco de Alimentos CARITAS,Mexicali,Baja California,México,"Calle Sur y Celaya, S/N Colonia Bella Vista, Mexicali Baja California 21150 (Dentro de la Parroquía San José Obrero)",,(686) 5526497 / (686) 5526122,caritasmexicali@hotmail.com,,,,"Padre Gamael Sebastián Vargas, Ignacio Castro",,,
,2014-03-13 Fotos para entender mejor a un deportado (EXPLÍCITAS),2018-06-16 Por qué este hotel para migrantes en Mexicali es distinto a otros refugios en la frontera,Current Crisis,32.6659992,-115.4524362,Angeles sin Fronteras: Hotel de los Migrantes Deportados,Mexicali,Baja California,México,"Ave. Reforma #244 Altos Zona Centro, Mexicali, Baja California",,(686) 2096138 / (686) 1984481,"hugocastrov@yahoo.com, sergiotamai@hotmail.com",,,,"Sergio Tamai Quintero, Olga Ontiveros Calderón, Hugo Castro",,,
,2015-09-23 Recibe Gobierno de Baja California 5.8 millones de pesos para ayudar a migrantes,2017-02-16 SIN RECURSOS CASA DEL MIGRANTE NUESTRA SEÑORA DE GUADALUPE,General Crisis,32.5720226,-116.6269225,Casa del Migrante Nuestra Señora de Guadalupe,Tecate,Baja California,México,"Avenida Hidalgo #220, Zona Centro, Tecate, Baja California ",,(665) 6541263 / (665) 6551641,casadelmigrantetecate@hotmail.com,,,,"Antonio López Anduaga, Carlos Torres",,,
,2014-09-03 CASA DEL MIGRANTE,2017-04-27 La Casa del Migrante cumplió 30 años en Tijuana,Current Crisis,32.5228718,-117.0017325,Casa del Migrante en Tijuana,Tijuana,Baja California,México,"Calle Galileo #239, Colonia Postal, Tijuana, Baja California 22350",,(664) 6825180 / (664) 3827685,sadelmig@yahoo.com,,http://www.migrante.com.mx/,,"Padre Luiz Kendzierski, Gilberto Martínez",,,
,http://www.uniradioinforma.com/noticias/bajacalifornia/322751/casa-ymca-atendio-mil-300-ninos-no-acompanados-repatriados-por-tijuana.html,2018-06-06 Crece en 2018 deportación de menores migrantes: Casa YMCA,Current Crisis,32.5144291,-117.0214861,Casa YMCA para Menores Migrantes: Federación de Asocianes Cristiana de Jóvenes de la República Mexicana,Tijuana,Baja California,México,"Blvd. Cuauthémoc Sur #3170, Colonia Chula Vista, Tijuana, Baja California 22410",,(664) 6861359 / (664) 6863697,urielmam@prodigy.net,,http://www.ymca.org.mx/federacion/casasdir.htm,,Uriel González,,,
,2011-07-27 La Coalición Pro Defensa del Migrante condena la actitud de la policía federal al intentar allanar las instalaciones de la Casa del Migrante en Tijuana y el ingreso ilegal a la Casa YMCA para menores migrantes.,2018-03-15 INCONTENIBLE LA MIGRACIÓN FORZADA A LA FRONTERA: COALICIÓN PRODEFENSA DEL MIGRANTE,General Crisis,32.5416175,-117.0307212,Coalición Prodefensa del Migrante,Tijuana,Baja California,México,"Garita Puerta México / Garita Mesa de Otay, Tijuana, Baja California",,(664) 6077077,coalipro@hotmail.com,,,,Esmeralda Siu,,,
,http://www.el-mexicano.com.mx/informacion/noticias/1/3/estatal/2013/01/09/642293/habilitan-refugios-en-tijuana-por-frente-frio,2017-10-19 ¿Cómo saber dónde estuvo un migrante desaparecido?,General Crisis,32.5008229,-116.9565874,Casa Hogar Beato Juan Diego,Tijuana,Baja California,México,"Río Tijuana #3551, Colonia Chapultepec Alamar, Tijuana, Baja California 22110",,(664) 6213041 / (664) 6213763,,,,,Hermana Francis Pérez,,,
,http://ayuntamientosbajacalifornia.blogspot.com/2013/03/tijuana-atencion-al-migrante-chiapaneco.html,,General Crisis,32.52191,-116.9849063,Módulo de Atención al Migrante Chiapaneco: Unión de Comités Comunitarios de Tijuana,Tijuana,Baja California,México,"Av. Las Lomas #590, Colonia Buena Vista, Tijuana, Baja California 22420",,(664) 6241628,,,,,Ocario Vásquez García,,,
,http://www.sandiegouniontribune.com/hoy-san-diego/sdhoy-hermandad-mexicana-dona-chamarras-a-deportados-en-2013dec10-story.html,http://www.frontera.info/EdicionEnlinea/Notas/Policiaca/07102017/1262637-4-muertos-y-2-lesionados-tras-tiroteo.html,General Crisis,32.5305238,-117.0331209,Casa Refugio Elvira/Mica: Hermandad Mexicana Transnacional,Tijuana,Baja California,México,"Calle 7 Hermenegildo Galeana #8780 entre Ocampo y Pío Pico, Zona Centro, Tijuana, Baja California",,(664) 6858284,micasausedo@aol.com,,,,Micaela Saucedo Casillas,,,
,2016-06-09 Extranjeros saturan refugios de Tijuana; huyen de la violencia,2017-09-13 VIDEO: Casa del Migrante de Tijuana es refugio para reponer fuerzas,General Crisis,32.5371727,-117.0421399,El Refugio del Inmigrante,Tijuana,Baja California,México,"Calle F. Martínez #593, Zona Norte, Tijuana, Baja California (entre calle primera y calle Coahuila)",,(664) 1359199,,,,,"Rafael Vega, Alonso Ramírez Venegas",,,
,2015-05-27 Inaugura el Ejército de Salvación tercer albergue en Tijuana ,http://sintesistv.com.mx/baja-la-afluencia-migrantes-buscan-sueno-americano-tijuana/,General Crisis,32.5350958,-117.0118554,Albergue Ejército de Salvación,Tijuana,Baja California,México,"Aquiles Serdán #11585, Colonia Libertad Parte Baja, Tijuana, Baja California 22300",,(664) 6832694,eds_tijuana@hotmail.com,,,,"Capitán Miguel Ángel Rodríguez, Capitana Ofelia Gress Vargas",,,
,"2000-12-18 Clark Alfaro, equilibrio entre el activismo y la academia",https://www.elsoldetijuana.com.mx/local/pocas-esperanzas-de-asilo-para-migrantes-1642191.html,General Crisis,32.532531,-117.018923,Centro Binacional de Derechos Humanos,Tijuana,Baja California,México,"Ave. Paseo del Centenario #3-B, Oficina 11, Zona Río Tijuana contraesquina con Palacio Municipal, Tijuana, Baja California",,(664) 6828550,clarkvictor@hotmail.com,,,,Víctor Clark Alfaro,,,
,"2015-07-10 Casa Hogar ""Cavit Alejandro"" en Tijuana",,General Crisis,32.519221,-117.02567,Casa Hogar Cavit Alejandro,Tijuana,Baja California,México,"Francisco I. Madero #104, Colonia Divina Providencia, Tijuana, Baja California",,(664) 6306267 / (664) 1174217-celular,hogarcavit@hotmail.com,,,,"Verónica Flores Córdova, Mario Medina",,,
,https://expansion.mx/economia/2016/02/17/la-casa-del-migrante-un-pedazo-de-cielo-entre-mexico-y-eu,2018-04-13 Prevén que más migrantes se queden en la frontera,Current Crisis,31.6819188,-106.3777442,Casa del Migrante,Cd. Juárez,Chihuahua,México,"Calle Neptuno #1855, Col. Satélite, Ciudad Juárez, Chihuaha, C.P 32540",,"(656) 687-0676, (656) 687-0677, (656) 687-2864","casadelmigrante@gmail.com, casamijuarez@yahoo.com",,http://www.diocesisdeciudadjuarez.org/migrantes/,,"Padre Javier Calvillo, Blanca Navarrete",https://www.researchgate.net/publication/304538960_Directorio_de_Organizaciones_Civiles_que_atienden_a_Migrantes_en_la_Frontera_Norte_de_Mexico,,
,"2010-09-26 Menores migrantes, presa fácil del crimen ",,General Crisis,31.7443128,-106.4770776,Casa YMCA para Menores Migrantes,Cd. Juárez,Chihuahua,México,"Calle Tlaxcala #267, Esq. Lerdo, Zona Centro, Ciudad Juárez, Chihuahua, C.P. 32000",,(656) 612-6138,,,,,Leticia López,https://www.researchgate.net/publication/304538960_Directorio_de_Organizaciones_Civiles_que_atienden_a_Migrantes_en_la_Frontera_Norte_de_Mexico,,
,2014-05-26 Es Piedras Negras donde Casa YMCA atiende a más niños migrantes,207-04-11 Coadyuva Casa YMCA con nuevo albergue,General Crisis,28.7175828,-100.518571,"Casa YMCA de Desarrollo Comunitario y Asistencia Social, A.C.",Piedras Negras,Coahuila,México,"Xicotencatl Norte #1802 A, Col. Mundo Nuevo, Piedras Negras, Coahuila, C.P. 26010",,"(878) 782-9672, (878) 782-5189, (878) 782-1979","casaymca@prodigy.com.mx, urielmam@prodigy.net.mx",,,,"Rafael Martínez Martínez, Blanca Estela Jacobo Rivera",https://www.researchgate.net/publication/304538960_Directorio_de_Organizaciones_Civiles_que_atienden_a_Migrantes_en_la_Frontera_Norte_de_Mexico,,
,2014-05-26 Es Piedras Negras donde Casa YMCA atiende a más niños migrantes,,General Crisis,28.7140505,-100.5293761,Casa YMCA de menores migrantes A.C.,Piedras Negras,Coahuila,México,"Calle Josefa Ortiz de Domínguez 605, col. Maravillas, Piedras Negras, Coahuila, C.P. 26017",,(878) 782 96 72,"casaymca@prodigy.net.mx, ymcapnc@gmail.com",,,,,http://www.oscscoahuila.mx/casa-ymca-de-menores-migrantes-ac,,
,https://www.google.com/search?biw=1024&bih=506&ei=DK9OW6CzBMuwtgXn_aqYDw&q=Casa+del+Peregrino+de+Piedras+Negras+A.C.&oq=Casa+del+Peregrino+de+Piedras+Negras+A.C.&gs_l=psy-ab.3..0i22i30k1.190772.199862.0.200248.37.16.1.0.0.0.123.1351.10j5.15.0....0...1.1.64.psy-ab..29.5.389...33i160k1.0.RmYPvwuADB0,https://spanish.cjd.org/2018/02/06/lista-de-albergues-y-casas-del-migrante-para-migrantes-y-deportados-en-mexico-y-guatemala/,General Crisis,28.7051096,-100.5220473,Casa del Peregrino de Piedras Negras A.C.: Frontera Digna Casa del Migrante,Piedras Negras,Coahuila,México,"Anáhuac #605 Oriente, Col. Centro, Piedras Negras, Coahuila, C.P. 26000",,"(878) 782-4760, (878) 782-1408",josguapastor@hotmail.com,,,,"P. José Guadalupe Valdez Alvarado, Roberto Bustos, Enrique Betis",https://www.researchgate.net/publication/304538960_Directorio_de_Organizaciones_Civiles_que_atienden_a_Migrantes_en_la_Frontera_Norte_de_Mexico,,
,2011-06-17 Ejército de Salvación A.C.: Centro Comunitario y Comedor Infantil,,General Crisis,28.708685,-100.5215919,Ejército de Salvación A.C.: Centro Comunitario y Comedor Infantil,Piedras Negras,Coahuila,México,"Victoria 805, Francisco I. Madero, 26010 Piedras Negras, Coah., Mexico",,"(878) 782-2707, (878) 770-5936","capi.franco@hotmail.com, marco_flores@mex.salvationarmy.org, gaciela_flores@salvationarmy.org",,,,Capitana Graciela de Flores,https://www.researchgate.net/publication/304538960_Directorio_de_Organizaciones_Civiles_que_atienden_a_Migrantes_en_la_Frontera_Norte_de_Mexico,,
,2013-11-05 Directorio de Albergues y Organizaciones,2018-02-23 EL PROCESO DE ACOMPAÑAMIENTO DE LAS INMIGRACIONES INDOCUMENTADAS EN TRÁNSITO,General Crisis,14.5585707,-90.729523,Frontera y Dignidad de Acuña A.C.: Casa del Migrante EMAUS,Ciudad Acuña,Coahuila,México,"Dr. Cross #47, Antigua Escuela Miguel Hidalgo, Ciudad Acuña, Coahuila, C.P. 26200",,"(877) 772-5715, (887) 772-0105",hernandezcarlos29@hotmail.com,,,,"Carlos Hernández, P. Sabino Gómez",https://www.researchgate.net/publication/304538960_Directorio_de_Organizaciones_Civiles_que_atienden_a_Migrantes_en_la_Frontera_Norte_de_Mexico,,
,"2011-08-21 Migrantes, el gran botín ",2017-11-29 En los caminos de Pedro,General Crisis,25.4033181,-101.0237096,Frontera con Justicia A.C. (Casa del Migrante de Saltillo Ex Belén Posada del Migrante),Saltillo,Coahuila,México,"Juan de Erbáez #2406, Col. Landín, Saltillo Coahuila, C.P. 25070",,"(844) 111-3273, (844) 255-6127",direccion@cdmsalt.org,,https://www.facebook.com/casamigrantesaltillo,,"Alberto Xicotencatl Carrasco, Guadalupe Arguello",https://www.researchgate.net/publication/304538960_Directorio_de_Organizaciones_Civiles_que_atienden_a_Migrantes_en_la_Frontera_Norte_de_Mexico,,
,2011-01-15 Defensores de Derechos Humanos de Coahuila levantan la voz,,General Crisis,25.4033181,-101.0237096,Humanidad sin Fronteras A.C.,Saltillo,Coahuila,México,"Juan de Erbáez #2406, Col. Landín, Saltillo Coahuila, C.P. 25070",,"(844) 111-3273, (844) 255-6128","direccion@cdmsalt.org, fronteraconjusticia@gmail.com",,,,"Alberto Xicotencatl Carrasco, Guadalupe Arguello",https://www.researchgate.net/publication/304538960_Directorio_de_Organizaciones_Civiles_que_atienden_a_Migrantes_en_la_Frontera_Norte_de_Mexico,,
,2016-10-28 Es Agua Prieta la última esperanza para migrantes,2017-10-19 ¿Cómo saber dónde estuvo un migrante desaparecido?,Current Crisis,31.328402,-109.56638,"Centro de Atención al Migrante Exodus, A.C. (CAME)",Agua Prieta,Sonora,México,"Calle 6ta y Av. Anáhuac S/N, Colonia Ferrocarril, Agua Prieta, Sonora C.P. 84200",,(633) 3382514,"c.a.m.e.02@hotmail.com, camesagfam@hotmail.com, ivanbernal23@hotmail.com",,,,"Ricardo Moreno, Padre Iván Bernal",https://www.researchgate.net/publication/304538960_Directorio_de_Organizaciones_Civiles_que_atienden_a_Migrantes_en_la_Frontera_Norte_de_Mexico,,
,2016-11-19 Inicia Migratón en Agua Prieta,2018-04-17 Baja 50% el cruce de menores migrantes por Agua Prieta,General Crisis,7.882761,-76.624692,"Programa Ymca de Desarrollo Comunitario y Asistencia Social “Casas Ymca para Menores Migrantes""",Agua Prieta,Sonora,México,"Calle 7, entre Avenida 22 y 23 # 2205 Col. Burócrata, Apartado Postal 1662 Agua Prieta, Sonora C.P. 84200",,(633) 3384000,ymca_aguaprieta02@hotmail.com,,http://www.ymca.org.mx/federacion/casasdir.htm,,"Ernesto Peraza Amparan, Graciela Pérez Ortiz",,,
,"2014-08-11 Vivir de los migrantes: economía de la migración en Altar, Sonora",2017-03-29 Pide Ccamyn apoyo a la ciudadanía para ayudar a inmigrantes,General Crisis,30.7243248,-111.8325685,Centro Comunitario de Atención al Migrante y Necesitado (CCAMYN),Altar,Sonora,México,"Av. Gonzalo Senday #79 Col. Buenos Aires Altar, Sonora",,(637) 3740360,priscyperazagarcia@hotmail.com,,https://www.facebook.com/Ccamyn,,Padre Prisciliano Peraza García,,,
,2014-07-25 Migrant Shelter Faces Police Abuses on the Border,,General Crisis,31.3288202,-110.9581147,Albergue Cristiano La Roca Ex Albergue de la Esperanza,Nogales,Sonora,México,"Calle Independencia y Reforma # 549 Colonia del Rosario, Nogales, Sonora",,(631) 1074655,,,,,"Sergio Arreola, Israel Olivarría Ramírez, Giovanni Jiménez",,,
,2013-09-22 El albergue San Juan Bosco cobija a inmigrantes que buscan cruzar la frontera,2017-12-08 Abren las puertas del albergue San Juan Bosco,General Crisis,31.3198734,-110.9424673,"Albergue para Migrantes San Juan Bosco, I. A. P.",Nogales,Sonora,México,"Montaño # 1063-A Colonia Municipal, Nogales, Sonora C.P. 84035",,(631) 3136833,"alberguemigrantesjuanbosco@yahoo.com, feoloureiro@yahoo.com.mx",,https://www.facebook.com/pages/Albergue-Para-Migrantes-San-Juan-Bosco/376672685787903,,"Gilda Irene Esquer Félix, Juan Fco. Lourerio Herrera",,,
,2013-12-01 “No hay palabras para describir el dolor de las madres separadas de sus hijos”,"2018-05-25 Families seeking asylum wait days at Nogales port of entry, advocates say",General Crisis,31.3286399,-110.9651933,Kino Border Initiative / Casa Nazareth Iniciativa Kino para la Frontera,Nogales,Sonora,México,"Edificio 4, Departamento # 502, Colonia Fovisste 2, Nogales, Sonora C.P. 84000",,(631) 3162086,"rufime@yahoo.com.mx, scarroll@calprov.org",,https://www.kinoborderinitiative.org/es/,,"Hermana Lorena Leyva, Hermana Imelda Ruiz Silva",,,
,2015-04-12 [Entrevista] Lo que enfrentan los migrantes de Honduras para llegar a Estados Unidos,,General Crisis,31.3300523,-110.964511,"Centro de Atención a Migrantes Deportados (CAMDEP), Iniciativa Kino para la Frontera",Nogales,Sonora,México,"Línea internacional Garita 2, Intersección de Reforma y Periférico Luis, Donaldo Colosio # 55, Colonia del Rosario, Nogales, Sonora C.P. 84000",,(631) 3162086,scarroll@calprov.org,,https://www.facebook.com/pages/Centro-De-Atencion-Al-Migrante-Deportado/626795757378769,,Sean Carroll,,,
,https://tucson.com/laestrella/ciudad/ayudan-fundaciones-a-comunidad-fronteriza/article_963a8e8d-f225-512b-9b3e-d2d12ed7f73b.html,,General Crisis,31.3196805,-110.948299,Centro Comunitario Guadalupano de Nogales I.A.P,Nogales,Sonora,México,"Calle Latinos 193, Col. Fundo Legal, Zona centro, Nogales, Sonora",,(631) 312 3091,ccguadalupanodenogalesiap@gmail.com,,https://es-la.facebook.com/pages/Centro-Comunitario-Guadalupano/145238268976628,,Ing. Salvador Saucedo Tamayo,,,
,2017-03-28 Casa del Migrante: un hogar para todos,,,32.4692867,-114.7544476,"Asociación Casa del Migrante “Divina Providencia”, I.A.P.",San Luis Río Colorado,Sonora,México,"Avenida Zaragoza entre 9 y 10 # 912, San Luis Río Colorado, Sonora",,(653) 5349543,,,,,María Martha Vargas Ayala,,,
,19/12/2013 Más de siete mil atenciones en casa del migrante en Laredo,07/07/2017 Casa del Migrante Nazareth recibe de 6 a 10 extranjeros al día,General Crisis,27.4875363,-99.4848724,Casa del Migrante Nazareth A.C.,Nuevo Laredo,Tamaulipas,México,"Francisco I. Madero No. 350, Col. Victoria, Nuevo Laredo Tamaulipas C.P. 88070",,(867) 714 5611,casamigrantenl@yahoo.com,,http://www.migrante.com.mx/nuevo-laredo.html,,Padre Francisco Pellizzari,,,
,11/03/2009 Presenta Casa del Migrante en Nuevo Laredo 214 quejas por abusos,,General crisis,27.4875363,-99.4848724,Centro de Derechos Humanos del Migrante Beato Juan Bautista Scalabrinni,Nuevo Laredo,Tamaulipas,México,"Francisco I. Madero No. 350 Col. Victoria, Nuevo Laredo, Tamaulipas C.P. 88070",,(857) 714 5611,,,,,Padre Francisco Pellizzari,,,
,"23/04/2012 Casas del Migrante, un oasis para los deportados",15/02/2017 Algunos de los muchos lugares donde la iglesia catolica brinda auxilio a migrantes y refugiados en Mexico y EUA,General crisis,25.8370289,-97.4860038,Casa San Juan Diego y San Francisco de Asís A.C.,Matamoros,Tamaulipas,México,"Av. Golfo de México #49, Col. Ampliación Solidaridad, Matamoros, Tamaulipas, C.P. 87456",,"(868) 822-2213, (868) 822-4689",casadelmigrantematamoros@hotmail.com,,,,"Padre Patricio Gallardo, Padre Hilario del Pozo",https://www.researchgate.net/publication/304538960_Directorio_de_Organizaciones_Civiles_que_atienden_a_Migrantes_en_la_Frontera_Norte_de_Mexico,,
," 23/04/2012 Casas del Migrante, un oasis para los deportados",,General crisis,26.0906258,-98.2909736,Albergue del Migrante Nuestra Señora de Guadalupe A.C.,Reynosa,Tamaulipas,México,"Calle Ma. J. González #501 Esq. con Libramiento Luis Echeverría, Col. Aquíles Serdán, Reynosa, Tamaulipas, C.P. 88500",,"(899) 922-4268, (899) 930-0672 Ext. 116","sormercedesdiaz@yahoo.com, migrantes_diocesis_matamoros@hotmail.com",,,,P. Hilario del Pozo,https://www.researchgate.net/publication/304538960_Directorio_de_Organizaciones_Civiles_que_atienden_a_Migrantes_en_la_Frontera_Norte_de_Mexico,,
,"19/07/2015 Monterrey se vuelve el nuevo ""sueño americano"" de los migrantes ",13/02/2018 La Casa del forastero Santa Martha atiende a cinco mil migrantes al año,General crisis,25.6908931,-100.3197955,Casa del Forastero Santa Martha,Monterrey,Nuevo León,México,"José María Bocanegra y Amado Nervo, Col. Industrial, Monterrey, Nuevo León CP 6440",,(837) 23 355,casastamarthacoordinador@gmail.com,,https://www.facebook.com/pages/Casa-Del-Forastero-Santa-Martha/1411422242445220,,P. Alberto Cortez,,,
,,,,25.6902295,-100.3017518,Ejército de Salvacion A.C.,Monterrey,Nuevo León,México,"Carvajal y de la Cueva No. 1716, Col. Primero de Mayo, Monterrey, Nuevo León C.P. 64580",,(818) 375 0379,ejercitodesalvacion.monterrey@hotmail.com,,https://www.facebook.com/cuerpomty/,,Mayor Daniel Guerra Bonilla,,,
Founded in 2008,"22/06/2015 Monterrey, la ciudad cegada a los migrantes",07/12/2016  Casanicolás: Un refugio para migrantes en Nuevo León,General crisis,25.6655066,-100.2140266,Casa San Nicolas Tolentino (Casanicolas),Guadalupe,Nuevo León,México,"Emiliano Zapata No. 4417, Esq. Serafín Peña, Guadalupe, Nuevo León C.P. 67180",,52(81)2169-8232,casanicolasnl@gmail.com,,https://www.casanicolas.org/ ,,P. Luis Eduardo Villarreal Ríos,,,
,,02/05/2018 Cómo ayudar a la caravana migrante en Tijuana,Current crisis,32.5366925,-117.0358461,Enclave Caracol,Tijuana,Baja California,México,Calle Primera 8220 (En frente del Museo de Cera),,(664) 379-1818,,@enclavecaracol,https://www.facebook.com/enclavecaracol/,,Chris,,,
Founded in 2015,03/10/2016 (da recorrido historico) Da `Casa Indi` cobijo y comida a los indigentes,02/01/2018 Casa INDI instala más camas para que migrantes e indigentes mitiguen frío,General crisis,,,Casa INDI,Monterrey,Nuevo Leon,Mexico,"Av. Bernardo Reyes #2404 Col. Industrial, Monterrey N.L.",,,contacto@casaindi.com.mx ,https://twitter.com/casaindi?lang=en,http://casaindi.org/,,Padre Felipe de Jesús Sánchez,,,
,,24/06/2018 ¿Cómo ayudar a los niños que migran a EU?,Current crisis,,,Espacio migrante,Tijuana,Baja California,México,,,(664) 607-3458,espaciomigrante@gmail.com,,http://espaciomigranteac.org,,Paulina Olivera,,,
,,25/10/2017 Familia de migrantes es rescatada por Grupo Beta,General crisis,,,Grupo Beta,Ciudades Fronterizas,Estados Fronterizos,México,,,,,,https://www.gob.mx/inm/acciones-y-programas/grupos-beta-de-proteccion-a-migrantes,,,https://en.wikipedia.org/wiki/Grupos_Beta#cite_note-11,Phone number listed on official government website. Address information from Wikipedia only.,
Founded in 1994,2012-03-19 The Sentinel – Grupos Beta aids migrants south of the border,2018-03-23 Canal 7 – Migrantes reciben apoyo de Grupo Beta en frontera de Sonora,General Crisis,31.3282891,-110.9576099,Grupo Beta Nogales,Nogales,Sonora,México,"Cale Reforma 465, Col. El Rosario, C. P. 84020, Nogales, Sonora","Calle Reforma 465, Col del Rosario, 84020 Nogales, Son., Mexico",(631) 312 6180,,,https://www.gob.mx/inm/acciones-y-programas/grupos-beta-de-proteccion-a-migrantes,,,https://en.wikipedia.org/wiki/Grupos_Beta#cite_note-11,Phone number listed on official government website. Address information from Wikipedia only.,
Founded in 2004,2013-02-23 El Sur – Rescatan a 52 migrantes en el desierto de Sonora,2018-03-01 Tribuna – Grupo Beta orienta a 14 migrantes extranjeros en Sonoyta,General Crisis,31.8718915,-112.8282661,Grupo Beta Sonoyta,Sonoyta,Sonora,México,"Puerta Int. Boulevard Benemérito de las Américas No. 285 Línea Internacional, Col. Hombres Blancos C. P. 83570, Sonoyta, Sonora","Benemérito de Las Americas 285, Hombres Blancos, 83570 Sonoyta, Son., Mexico",(651) 512 1520,,,https://www.gob.mx/inm/acciones-y-programas/grupos-beta-de-proteccion-a-migrantes,,,https://en.wikipedia.org/wiki/Grupos_Beta#cite_note-11,Phone number listed on official government website. Address information from Wikipedia only.,
Founded in 1996,2014-12-26 Expansión – Unas 120 personas son rescatadas tras quedar atrapadas por nieve en Sonora,2017-10-28 Tribuna – Las autoridades de Agua Prieta realizan el Migratón 2017,General Crisis,31.3277951,-109.5129248,Grupo Beta Agua Prieta,Agua Prieta,Sonora,México,"Calle Dos, Avenida 6 y 7 No. 697 Col. Centro C. P. 84200 Agua Prieta, Sonora","INFONAVIT Alamito, 84200 Agua Prieta, Son., Mexico",(633) 338 1618,,,https://www.gob.mx/inm/acciones-y-programas/grupos-beta-de-proteccion-a-migrantes,,,https://en.wikipedia.org/wiki/Grupos_Beta#cite_note-11,Phone number listed on official government website. Address information from Wikipedia only.,
Founded in 2000,2015-12-22 Vanguardia – Refuerzan operativos Grupos Beta en Acuña y Piedras Negras,2018-01-11 Televisa Coahuila – Era Texano rescatado por bomberos y grupo beta en el Rio Bravo n Piedras Negaras,General Crisis,28.6916182,-100.5408622,Grupo Beta Piedras Negras,Piedras Negras,Coahuila,México,"Oficinas federales, Pte. Internacional Coahuila 2000 Planta Alta, C. P. 26000, Piedras negras, Coahuila","Piedras Negras, Coahuila, Mexico",(878) 782 8832,,,https://www.gob.mx/inm/acciones-y-programas/grupos-beta-de-proteccion-a-migrantes,,,https://en.wikipedia.org/wiki/Grupos_Beta#cite_note-11,Phone number listed on official government website. Address information from Wikipedia only.,
Founded in 2011,2014-12-11 Milenio – Grupo Beta rescata 29 personas en Acuña,2017-09-12 Channel 12 – Rescata Grupo Beta en Acuña a cuatro migrantes,General Crisis,25.4172378,-101.0017806,Grupo Beta Ciudad Acuña,Acuña,Coahuila,México,"Puente Int. Calle Hidalgo No. 1, Col. Zona Centro, C. P. 26200, Cd. Acuña, Coahuila","Calle Miguel Hidalgo 524_1, Zona Centro, 25000 Saltillo, Coah., Mexico",(877) 772 7524,,,https://www.gob.mx/inm/acciones-y-programas/grupos-beta-de-proteccion-a-migrantes,,,https://en.wikipedia.org/wiki/Grupos_Beta#cite_note-11,Phone number listed on official government website. Address information from Wikipedia only.,
Founded in 1995,2014-01-27 Horacero – Piden ampliar Grupo Beta a Reynosa y Nuevo Laredo,2018-05-10 La Prensa de Monclova – Rescatan a migrantes en Matamoros,General Crisis,25.893848,-97.499775,Grupo Beta Matamoros,Matamoros,Tamaulipas,México,"Av. Álvaro Obregón s/n, Puete Internacional Puerta México, Col. Jardín 1er piso C. P. 87330, Matamoros, Tamaulipas","Av. Álvaro Obregón 48, Jardín, 87330 Matamoros, Tamps., Mexico",(868) 812 3664,,,https://www.gob.mx/inm/acciones-y-programas/grupos-beta-de-proteccion-a-migrantes,,,https://en.wikipedia.org/wiki/Grupos_Beta#cite_note-11,Phone number listed on official government website. Address information from Wikipedia only.,
Founded in 1996,"2012-05-17 IOM – Mexican National Migration Institute, IOM Workshop Shares ""Grupos Beta"" Experience","2017-01-25 El diario popular – Deporta el INM a 70 cubanos, en Tapachula",General Crisis,14.8919368,-92.2807898,Grupo Beta Tapachula,Tapachula,Chiapas,México,"Calle Vialidad No. 435 Fraccionamiento Las Vegas C. P. 30798 Tapachula, Chiapas","Los Naranjos, Las Vegas, 30798 Tapachula de Córdova y Ordoñez, Chis., Mexico",(962) 625 7986,,,https://www.gob.mx/inm/acciones-y-programas/grupos-beta-de-proteccion-a-migrantes,,,https://en.wikipedia.org/wiki/Grupos_Beta#cite_note-11,Phone number listed on official government website. Address information from Wikipedia only.,
Founded in 1996,2009-11-20 El Universal - Crece trata de menores en la frontera sur: INM,2018-09-05 El Universal – Secuestran a funcionario y agentes de INM en Chiapas,General Crisis,16.2566455,-92.1459383,Grupo Beta Comitán,Comitán,Chiapas,México,"Calle Central Benito Juárez Poniente No. 130 esquina con Novena Poniente, Col. Barrio Candelaria C. P. 30060 Comitán, Chiapas","Novena Nte. Pte., El Mirador, 30019 Comitán de Domínguez, Chis., Mexico",(963) 632 5751,,,https://www.gob.mx/inm/acciones-y-programas/grupos-beta-de-proteccion-a-migrantes,,,https://en.wikipedia.org/wiki/Grupos_Beta#cite_note-11,Phone number listed on official government website. Address information from Wikipedia only.,
Founded in 2002,2013-11-25 Diario rotativo – Rescata grupo Beta a migrantes extraviados en Ciudad Juárez,"2017-08-17 El Mexicano – Se ponen a trabajar Grupo Beta y policía, recorren el Rio Bravo",General Crisis,31.746354,-106.4838957,Grupo Beta Juárez,Juárez,Chihuahua,México,"General Rivas Guillén 950, Col. Centro C. P. 32000, Cd. Juárez, Chihuahua","Gral. Rivas Guillén 950, Chamizal, Cd Juárez, Chih., Mexico",656) 612 7618,,,https://www.gob.mx/inm/acciones-y-programas/grupos-beta-de-proteccion-a-migrantes,,,https://en.wikipedia.org/wiki/Grupos_Beta#cite_note-11,Phone number listed on official government website. Address information from Wikipedia only.,
Founded in 2006,2006-01-28 El Siglo Durango - Crea el INM nuevo grupo de rescate,2017-12-01 La Opción de Chihuahua – Organizan Grupo Beta del INM campaña Arropa a un Migrante,General Crisis,31.7776439,-107.6363296,Grupo Beta Puerto Palomas,Puerto Palomas,Chihuahua,México,"Av. 5 de mayo e Internacional s/n, Col. Centro C. P. 31830, Puerto Palomas de Villas, Chihuahua","Centro, 31830 Puerto Palomas, Chih., Mexico",(656) 666 0889,,,https://www.gob.mx/inm/acciones-y-programas/grupos-beta-de-proteccion-a-migrantes,,,https://en.wikipedia.org/wiki/Grupos_Beta#cite_note-11,Phone number listed on official government website. Address information from Wikipedia only.,
Founded in 2002,"2014-07-22 El Universal Veracruz – Varados, más de 600 migrantes esperan regresar a casa",2018-03-30 24 Horas – Rescatan a 136 migrantes en tramo carretero Coatzacoalcos – Acayucan Veracruz,General Crisis,17.9517529,-94.8997566,Grupo Beta Acayucan,Acayucan,Veracruz,México,"Carretera costera del golfo no. 180 km. 221 C. P. 96000 Acayucan, Veracruz","km. 221, Carr. Costera del Golfo 180, Zapotal, 96039 Acayucan, Ver., Mexico",(924) 247 9174,,,https://www.gob.mx/inm/acciones-y-programas/grupos-beta-de-proteccion-a-migrantes,,,https://en.wikipedia.org/wiki/Grupos_Beta#cite_note-11,Phone number listed on official government website. Address information from Wikipedia only.,
Founded in 2002,"2006-04-12 NBC News – Sensing change, migrants rush to the border","2018-02-22 Tribuna – Grupos Beta en frontera de Sonora, al rescate de los migrantes",General Crisis,31.4690797,-111.5428012,Grupo Beta Sásabe,Sásabe,Sonora,México,"Calle 1era. s/n entre Av. A y calle Hidalgo, Col. Solidaridad C.P. 83870, Sásabe, Sonora","Sasabe, Sonora, Mexico",(637) 374 8076,,,https://www.gob.mx/inm/acciones-y-programas/grupos-beta-de-proteccion-a-migrantes,,,https://en.wikipedia.org/wiki/Grupos_Beta#cite_note-11,Phone number listed on official government website. Address information from Wikipedia only.,
Founded in 1997,2006-03-19 La Jornada – Cada vez más migrantes de CA usan Tenosique de trampolín para ir a EU,2017-12-28 Zócalo – Salvar embarazadas preocupación de Grupos Beta en Tabasco,General Crisis,17.4759681,-91.4181049,Grupo Beta Tenosique,Tenosique,Tabasco,México,"Calle 25 No. 638 entre las 46 y 50 Col. Cocoyotl, C. P. 86902, Tenosique, Tabasco","Belen, 86902 Tenosique de Pino Suárez, Tab., Mexico",(934) 342 0110,,,https://www.gob.mx/inm/acciones-y-programas/grupos-beta-de-proteccion-a-migrantes,,,https://en.wikipedia.org/wiki/Grupos_Beta#cite_note-11,Phone number listed on official government website. Address information from Wikipedia only.,
Founded in 2011,2015-10-14 El Universal – Auxilian a migrante tras caer de tren en Chiapas,2017-07-31 La Jornada – Se fortalecen en México medidas para dar apoyo a desplazados,General Crisis,16.9087258,-92.0943351,Grupo Beta Palenque,Palenque,Chiapas,México,"Carretera federal Playas de Catazcaja - Ocosingo Km. 26+100 Lado A, Col. Guayacán C. P. 29960, Palenque, Chiapas","Ocosingo, Chis., Mexico","(916) 345 3035 Ext. 209, 210",,,https://www.gob.mx/inm/acciones-y-programas/grupos-beta-de-proteccion-a-migrantes,,,https://en.wikipedia.org/wiki/Grupos_Beta#cite_note-11,Phone number listed on official government website. Address information from Wikipedia only.,
Founded in 2011,2013-05-09 El Horizonte – Auxilia Grupo Beta a migrantes lesionados en Chiapas,"2016-02-25 Record Chiapas – ""Polleros"" de Arriaga y Tonalá, volcados con 17 personas",General Crisis,16.2252062,-93.908816,Grupo Beta Arriaga,Arriaga,Chiapas,México,"5ta. Poniente No. 722 entre 14 y 16 Sur, Barrio de Santo Tomás C. P. 30450, Arriaga, Chiapas","Los Pocitos, 30450 Arriaga, Chis., Mexico",(962) 625 7986,,,https://www.gob.mx/inm/acciones-y-programas/grupos-beta-de-proteccion-a-migrantes,,,https://en.wikipedia.org/wiki/Grupos_Beta#cite_note-11,Phone number listed on official government website. Address information from Wikipedia only.,
Founded in 2011,2001-06-06 El Universal – Incrementan presencia del grupo Beta en frontera sur,2017-11-14 Televisa Veracruz – Mueren dos migrantes tras ataque de grupo armado,General Crisis,16.7662448,-93.1289974,Grupo Beta Tuxtla Gutiérrez,Tuxtla Gutiérrez,Chiapas,México,"5ta. Avenida Norte y 13 Poniente No. 1402, Col. El Magueyito, C. P. 29000, Tuxtla Gutiérrez, Chiapas","5ta, Calle 13a Pte. Nte. 1402, Pedregal, 29030 Tuxtla Gutiérrez, Chis., Mexico",(961) 602 6111,,,https://www.gob.mx/inm/acciones-y-programas/grupos-beta-de-proteccion-a-migrantes,,,https://en.wikipedia.org/wiki/Grupos_Beta#cite_note-11,Phone number listed on official government website. Address information from Wikipedia only.,
Founded in 2011,2009-11-24 Info 7 – Abrirán oficina de Grupo Betas en Oaxaca,"2018-07-12 El Piñero de la Cuenca – Repatria a joven indocumentado, accidentado en Tehuantepec",General Crisis,16.5463678,-95.0816868,Grupo Beta Ixtepec,Ixtepec,Oaxaca,México,"Carretera Ixtepec - Juchitán Km. 1.5 s/n C. P. 70110 Cd. Ixtepec, Oaxaca","Ixtepec, Benito Juárez, 70110 Ixtepec, Oax., Mexico",(971) 713 3047,,,https://www.gob.mx/inm/acciones-y-programas/grupos-beta-de-proteccion-a-migrantes,,,https://en.wikipedia.org/wiki/Grupos_Beta#cite_note-11,Phone number listed on official government website. Address information from Wikipedia only.,
,2015-08-18 La Jornada – Cambia de instalaciones la Comisión Estatal de Derechos Humanos,2018-08-02 Frontera Info – Emite CNDH recomendación al IMSS,General Crisis,32.521896,-117.01437,Comision Nacional de los Derechos Humanos,Tijuana,Baja California,Mexico,"Avenue. Diego Rivera No. 2532, Zona Río Tijuana",,(664) 973-2374,informacion@derechoshumanosbc.org,,http://www.derechoshumanosbc.org/content/contacto,,,,,
Founded in 2015,2016-12-29 The San Diego Union - Tribune –Madres y Familias Deportadas en acción,2017-04-05 Excelsior – Migrantes huyen del crimen y van a Tijuana para pedir asilo en EU,Current Crisis,32.539342,-117.030971,Madres y familias deportadas en acción,Tijuana,Baja California,Mexico,"Via de la Juventud Ote 8800, Defensores de Baja California, 22020 Tijuana, B.C., Mexico",,52 664 976 7541,madresdeportadasenaccion@gmail.com,,https://madresdeportadas.wixsite.com/enaccion,,María Galleta,,,
Founded in 1991,2010-03-27 Eco Portal – El Frente Indigena de Organizaciones Binacionales y la migración oaxaqueña,2018-04-14 La Jornada – Migración creativa: El FIOB visibiliza a los indígenas en EU,General Crisis,36.753243,-119.789061,Frente Indigena de Organizaciones Binacionales,Fresno,California,United States,"744 N. Abby Street, Fresno, CA 93701 ",,(559) 512-0797 ,fresno@fiob.org,,,,"Luis Lopez Resendiz, Odilia Romero",,,
Founded in 1991,2013-12-04 Latino California – Nueva dirigencia del FIOB en California ,2018-06-26 Santa Maria Times – Se necesitan intérpretes para indígenas en frontera de EU,General Crisis,34.952973,-120.43778,Frente Indigena de Organizaciones Binacionales,Santa Maria,California,United States,"204 W. Main Street, Suite B Santa Maria, CA 93458 ",,(805) 925-5262 ,santamaria@fiob.org,,,,,,,
Founded in 1978,2014-06-09 ICE Asks Shelters in El Paso to House Undocumented Immigrants,2018-07-11 Three Immigrant Families Reunited at Annunciation House in El Paso,"General Crisis, Current Crisis",31.76008453,-106.4796003,Annunciation House,El Paso,Texas,United States,"1003 East San Antonio Ave, El Paso, TX 79901",,(915) 545-4509,volunteercoordinator@annunciationhouse.org; legalcoordinator@annunciationhouse.org,https://twitter.com/AHouseElPaso,https://annunciationhouse.org/,CLINIC,Ruben Garcia,,,
Founded in 1997,2012-11-15 Study: Conditions at Texas Immigrant Detention Facilities Inhumane,2018-06-29 Companies earn billions to shelter immigrant children,General Crisis,38.918327,-77.032923,Detention Watch Network,Washington D.C.,Washington D.C.,United States,"1419 V Street NW, Washington, DC 20009",,,campaign@detentionwatchnetwork.org,https://twitter.com/detentionwatch,https://www.detentionwatchnetwork.org/,CLINIC,Silky Shah,,,
Formerly Community Initiatives for Visiting Immigrants in Confinement (CIVIC),2014-07-08 Expansion of Adelanto immigrant detention center underway,2018-06-26 Report Documents Increase in Hate Incidents in Immigration Detention in First National Study,General Crisis,33.934431,-118.190043,Freedom for Immigrants (CIVIC),Lynwood,California,United States,"10701 Sampson Ave, Lynwood, CA 90262",,(385) 212-4842,LMartinez@freedomforimmigrants.org,https://twitter.com/migrantfreedom,https://www.freedomforimmigrants.org/,CLINIC,Christina Fialho,,,
Founded in 2010,2013-11-27 Groups Protest to Close Georgia Detention Center,2017-06-01 El Refugio provides comfort to visitors of immigrant detainees,General Crisis,32.05025,-84.788236,El Refugio,Lumpkin,Georgia,United States,"655 Main Street, Lumpkin, GA 31815 ",,(229) 234-9022,info@elrefugioministry.org,,http://elrefugiostewart.org/,,Amilcar Valencia,,,
Founded in 2003,2003-09-02 UNLV legal clinic to aid immigrants,"2018-07-03 Unaccompanied and unrepresented, children deported from Las Vegas",General Crisis,36.105878,-115.137958,UNLV Immigration Clinic,Las Vegas,Nevada,United States,4505 S. Maryland Parkway,,(702) 895-2080,,@UNLVImmigration,https://law.unlv.edu/clinics/immigration,CLINIC,Michael Kagan,,,
Founded in 1917,"2012-12-05 ACLU, American Friends Service Committee Demand Investigation into Unlawful Targeting of Latino Drivers by CHP",2018-01-08 How a U.S. Quaker Group That Won the Nobel Peace Prize Ended Up on Israel's BDS Blacklist ,General Crisis,39.955938,-75.165168,American Friends Service Committee,Philadelphia,Pennsylvania,United States,"1501 Cherry Street, Philadelphia, PA 19102",,(215)241-7000,,@afsc_org,https://www.afsc.org/key-issues/issue/immigrant-rights,,,,,
,2015-11-05 CATHOLIC CHARITIES RECEIVES CATHOLIC LEGAL IMMIGRATION NETWORK (CLINIC) FUNDING,2018-06-01 Immigrant kids at border present and accounted for — and number growing,Current Crisis,38.998541,-77.030046,Catholic Legal Immigration Network Inc.,Silver Spring,Maryland,United States,"8757 Georgia Avenue, Suite 850, Silver Spring, MD 20910",,(301)565-4800,,@cliniclegal,https://cliniclegal.org/,,,,,
Founded in 1911,2014-08-08 Trauma Plagues Many Immigrant Kids In U.S. Illegally,https://www.timesunion.com/local/article/Grant-allows-USCRI-to-aid-Capital-Region-senior-12547606.php,Current Crisis,38.853506,-77.048772,U.S. Committee for Refugees and Immigrants,Washington,DC,United States,"2231 Crystal Drive, Suite 350, Arlington, VA 22202-3794",,(703)310-1130,uscri@uscridc.org,@USCRIdc,http://refugees.org/,,,,,
,https://www.unitedmethodistwomen.org/news/wola-thanks-united-methodist-women,2018-07-09 In-Studio: WOLA Execs Bring “Beyond The Wall” Campaign To Santa Fe,General Crisis,38.912329,-77.045471,Advocacy for Human Rights in the Americas,Washinton,DC,United States,"1666 Connecticut Ave. NW, Suite 400",,(202) 797-2171,,@WOLA_org,https://www.wola.org/about-us/,,,,,
MS couldn't find anything newer than 2014,1998-09-01 Activists in Action,,,26.219047,-98.225408,Border Association for Refugees from Central America,McAllen,Texas,United States,"1701 North 8th, B.30, McAllen, TX 78501",,(956)631-7447,rgvbarca@aol.com,,,,,,,
,2011-08-29 Proyecto Libertad: 30 years making history,2018-07-15 Immigration advocate undaunted by Trump policies,Current Crisis,26.193483,-97.695798,Casa de Proyecto Libertad,Harlingen,Texas,United States,"113 N. 1st St., Harlingen, Texas 78550",,(956)425-9552,nrogelio@hushmail.com,,https://www.facebook.com/Casa-de-Proyecto-Libertad-207664685918512/,,,,,
Dallas office opened in 2016,,"2018-06-19 Nonprofits, consulates in Texas aggressively seeking ways to assist separated families",Current Crisis,32.782643,-96.795458,RAICES,Dallas,Texas,United States,"1910 Pacific Ave, Suite 5045, Dallas, TX 75201",,(214) 295-9554,felix.villalobos@raicestexas.org,https://twitter.com/RAICESTEXAS,https://www.raicestexas.org/,,,,,
,,2018-07-06 Want to help reunite immigrant families? Donate to legal defense funds.,Current Crisis,32.684959,-97.32208,RAICES,Fort Worth,Texas,United States,"4200 South Freeway, Suite 702, Fort Worth, TX 76115",,(817) 717-9377,jennifer.deharo@raicestexas.org,https://twitter.com/RAICESTEXAS,https://www.raicestexas.org/,,,,,
"No individual news items for RAICES north location, but it is reliably cited on the organization's web page",,,Current Crisis,29.524067,-98.388032,RAICES North,San Antonio,Texas,United States,"5121 Crestway Drive, #105, San Antonio, TX 78239",,(210) 226-7722,mayra.jimenez@raicestexas.org,https://twitter.com/RAICESTEXAS,https://www.raicestexas.org/,,,,,
,,2018-04-25 Know Your Rights training keeps immigrants safe with police  0,Current Crisis,29.445785,-98.522885,RAICES Community Education Center,San Antonio,Texas,United States,"802 Kentucky Ave, San Antonio, TX 78201",,,jenny.hixon@raicestexas.org,,,,,,,
,,"2018-04-05 Who's Pueblo Sin Fronteras, the group behind the migrant caravan that drew Trump's ire?",Current Crisis,,,Pueblo Sin Fronteras,,,"Central America, Mexico, United States",,,,,https://twitter.com/pueblosf,http://www.pueblosinfronteras.org/,,Alex Mensing,,,
,,2018-06-20 Together Rising raises $3 Million to reunite immigrant families,,38.888493,-77.180496,Together Rising,Falls Church,Virginia,United States,"800 West Broad Street #6409, Falls Church, VA 22040",,,contact@togetherrising.org,https://twitter.com/togetherrising,https://togetherrising.org/,,,,,
"CLINIC and Al Otro Lado have created a closed Facebook group called Familias Inmigrantes Separadas por El Gobierno Estadounidense. Members of the group will have easy access to legal orientation in Spanish, as well as a support group among the parents.",,2018-04-29 Migrant Caravan Nears U.S. Border,Current Crisis,34.059441,-118.208839,Al Otro Lado,Los Angeles,Tijuana,Mexico,"1200 N State St #1008, Los Angeles, CA 90033",,,,https://twitter.com/alotrolado_org,https://alotrolado.org/,,Nicole Ramos,,,
founded May 2015,,2018-06-2018 Yale law alums providing legal aid to asylum seekers,Current Crisis,40.70861,-74.014804,Asylum Seeker Advocacy Project,New York,New York,United States,"40 Rector Street, 9th Floor, New York, NY 10006",,,,https://twitter.com/asylumadvocacy,https://asylumadvocacy.org/,,,,,
Multiple locations (https://www.theyoungcenter.org/contact),,,,26.199648,-97.677966,Young Center for Immigrants Children Rights,Harlingen,Texas,United States,"806 Morgan Blvd Suite K, Harlingen, TX 78550",,(956) 230-1850,,https://twitter.com/TheYoungCenter,https://www.theyoungcenter.org/,,,,,
,,2018-06-18 Immigrant groups say policy affecting asylum seekers,,31.760908,-106.479999,Detained Migrant Solidarity Committee,El Paso,Texas,"United States, Mexico","816 Magoffin Ave. El Paso, TX 79901",,(915) 229-6086,,https://twitter.com/dmscelpaso,https://dmscelpaso.wixsite.com/dmscelpaso/blog/author/Rev.-Robert-Mosher,,,,,
,,"2018-06-25 Quoting Trump’s Tweets, A Federal Judge Orders ICE and Prison Officials To Follow the Law And Provide Immigration Detainees Access to Lawyers",Current Crisis,45.502418,-122.656443,Innovation Law Lab,Portland,Oregon,United States,"P.O. Box 40103, Portland, Oregon 97240",,,,https://twitter.com/iawlab?lang=en,https://innovationlawlab.org/,,,,,
Founded in 2014,,2015-04-18 New Houston Area Project To Offer Legal Defense For Immigrants Facing Deportation,Current Crisis,29.7076758,-95.2792499,Justice for Our Neighbors,Houston,Texas,United States,"2220 Broadway, Houston, TX 77012",,(713) 454-6470,,https://twitter.com/jfon_tx,http://jfonhouston.org/,,,,,
,,2015-06-20 How to Help Families Separated at the Border,Current Crisis,30.2705902,-97.742339,The Austin Bar Association Civil Right and Immigration Section,Austin,Texas,United States,"816 Congress Ave., Ste. 700, Austin, TX 78701",,(512) 472-0279,,http://www.twitter.com/theaustinbar,http://www.austinbar.org/for-attorneys/sections/civil-rights-immigration-section/,,,,,
,,"2018-06-27 COMMUNITY FORUM: UNDERSTANDING IMMIGRATION, FAMILY SEPARATION AND ZERO TOLERANCE",Current Crisis,33.7505559,-84.4002539,Tahirih Justice Center,Atlanta,Georgia,United States,"142 Walker Street SW, Atlanta, GA 30301",,(470) 481-4700,,https://twitter.com/tahirihjustice,http://www.tahirih.org/location/atlanta/,,,,,
,,"2017-06-15 California lacks minimum marriage age, puts children in danger",General Crisis,37.63574445,-122.4228346,Tahirih Justice Center,San Bruno,California,United States,"881 Sneath Lane, Suite 115, San Bruno, CA 94066",,(650) 270-2100,,https://twitter.com/tahirihjustice,http://www.tahirih.org/locations/san-francisco-bay-area/,,,,,
Works together with Detained Migrant Solidarity Committee,,2018-04-26 EL PASO ACTIVIST GROUP RAISES MONEY TO PAY DETAINEES’ BAIL,Current Crisis,31.760908,-106.479999,Fronterizo Fianza Fund,El Paso,Texas,United States,"816 Magoffin Ave. El Paso, TX 79901",,(915) 229-6086,,,https://www.fianzafund.org/,,https://www.fianzafund.org/donate.html,,,
,,2017-10-31 WC THE FIRST MIDWEST CAMPUS TO PASS A REFUGEE SUPPORT RESOLUTION,General Crisis,41.882311,-87.632022,Amnesty International - Midwest Regional Office,Chicago,Illinois,United States,"One North LaSalle Street, Suite, 875, Chicago, IL 60602",,,,,,,,,,
,,https://www.amnestyusa.org/take-action/events/2018-regional-conferences/amnesty-international-2018-western-regional-conference-denver-colorado/,General Crisis,37.805754,-122.268202,Amnesty International - Western Regional Office,Oakland,California,United States,"1624 Franklin Street, Suite 520, Oakland, CA 94612",,,,,,,,,,
Their website provides a map with border and mexican organizations,,,,47.602296,-122.315293,Supervivencia Después de la Detención / Surviving Post-Release,Ciudades Fronterizas,Estados Fronterizos,Mexico,,,,"aejasso@uw.edu, aks34@uw.edu
",,http://es.survivingpostrelease.org/,Personal Organization,Amanda Jasso & Anna Shelton,,No formal location,Resource aggregator
,,2017-03-11 Qué hacer si uno es deportado a Tijuana,General Crisis,32.6645023,-115.4962097,Módulo de Atención Centro de Apoyo al Trabajador Migrante y Albergue del Desierto,Mexicali,Baja California,México,"Garita #1 Mexicali-Calexico, Mexicali, Baja California, Modulo #2",,(686)5534882,alberguedes@prodigy.net.mx,,,,"Arturo Meza, Mireya Félix",,,
,,2018-07-16 Organizaciones de la Sociedad Civil de derechos humanos en México,General Crisis,32.6608534,-115.4784239,Centro de Apoyo al Trabajador Migrante: Comité de Promoción para el Desarrollo de Mexicali,Mexicali,Baja California,México,"Calle Jabonera #6, Colonia Nueva, Mexicali, Baja California 21100",,(686) 553482,"mezaoro@prodigy.net.mx, catm@telnor.net",,,,Arturo Meza,,,
,,"2018-05-02 Abren centro para migrantes en Agua Prieta, Sonora ",Current Crisis,31.3282456,-109.5605187,Centro de Recursos para Migrantes Módulo de Atención (CRM),Agua Prieta,Sonora,México,"Calle 1ra. Av. Panamericana S/N, Agua Prieta, Sonora C.P. 84200",,(633) 1219298,beto.gutierritos@yahoo.com.mx,,,,Adalberto Ramos,,,
,,"2018-05-02 Abren centro para migrantes en Agua Prieta, Sonora ",Current Crisis,31.3282456,-109.5605187,Centro de Recursos para Migrantes Módulo de Atención (CRM),Agua Prieta,Sonora,México,"Calle 1ra. Av. Panamericana S/N, Agua Prieta, Sonora C.P. 84200",,(633) 1219298,beto.gutierritos@yahoo.com.mx,,,,Adalberto Ramos,,,
Founded in 1990,,,General Crisis,,,Grupo Beta Tijuana,Tijuana,Baja California,México,"Vía Internacional 34, Federal, 22010 Tijuana, B.C.",,"(664) 682-3171, (664) 683-3068",,,https://www.gob.mx/inm/acciones-y-programas/grupos-beta-de-proteccion-a-migrantes,,,Google Maps,Phone number listed on official government website. Address information from Google Maps only.,
Founded in 1995,,,General Crisis,32.5698638,-116.6479655,Grupo Beta Tecate,Tecate,Baja California,México,"Calle 18 esq. con Tanama s/n, Col. Bella vista, C.P. 21440 Tecate, B. C","Bellavista, 21440 Tecate, B.C., Mexico","(665) 654-2449, (665) 654-3780",,,https://www.gob.mx/inm/acciones-y-programas/grupos-beta-de-proteccion-a-migrantes,,,https://en.wikipedia.org/wiki/Grupos_Beta#cite_note-11,Phone number listed on official government website. Address information from Wikipedia only.,
Founded in 1997,,,General Crisis,32.6245389,-115.4522623,Grupo Beta Mexicali,Mexicali,Baja California,México,"Av. Melgar No. 1, Garita Internacional, Zona Centro, C. P. 21100, Mexicali, B. C.","Mexicali, Baja California, Mexico","(686) 554-2624, (686) 552-5596",,,https://www.gob.mx/inm/acciones-y-programas/grupos-beta-de-proteccion-a-migrantes,,,https://en.wikipedia.org/wiki/Grupos_Beta#cite_note-11,Phone number listed on official government website. Address information from Wikipedia only.,
Founded in 2004,,,General Crisis,32.4672204,-114.7410067,Grupo Beta San Luis de Rio Colorado,San Luis Río Colorado,Sonora,México,"Av. Ignacio Zaragoza No. 2708 entre 27 y 28, Col. Burócratas C. P. 83450, San Luis Río Colorado, Sonora","Burócrata, 83450 San Luis Río Colorado, Son., Mexico",(653) 534 5062,,,https://www.gob.mx/inm/acciones-y-programas/grupos-beta-de-proteccion-a-migrantes,,,https://en.wikipedia.org/wiki/Grupos_Beta#cite_note-11,Phone number listed on official government website. Address information from Wikipedia only.,
,,,General Crisis,31.8619816,-116.6161364,Comision Nacional de los Derechos Humanos,Cove,,Mexico,"Av. Floresta No.32, Plaza Elva local 321, Zona Centro, Ensenada, BCCP 22830 ","Av Floresta 321, México, 22830 Ensenada, B.C., Mexico",(646) 176-0604,informacion@derechoshumanosbc.org,,,,,,,
,,,General Crisis,32.5745599,-116.6273292,Comision Nacional de los Derechos Humanos,Tecate,Baja California,Mexico,"Av. Miguel Hidalgo y Costilla No. 139, Zona Centro, Tecate, BCCP 21400 ","Primera, 21400 Tecate, B.C., Mexico",(665) 654-3772 ,informacion@derechoshumanosbc.org,,http://www.derechoshumanosbc.org/content/contacto,,,,,
,,,General Crisis,32.3659041,-117.0455722,Comision Nacional de los Derechos Humanos,Beaches of Rosarito,,Mexico,"Blvd. Alta Tension Esq. Distrito Federal No.16000, Col. Constitución, Rosarito BC ","Constitución (Ampl. Constitución), 22710 Rosarito, B.C., Mexico",(661) 612-6530,informacion@derechoshumanosbc.org,,,,,,,
,,,General Crisis,32.6374877,-115.472358,Comision Nacional de los Derechos Humanos,Mexicali,Baja California,Mexico,"Av. Pioneros No.1198 Esq. Blvd. Anahuac, Civic Center, Mexicali, BCCP 21000 ","Av. de los Pioneros 1198, Centro Cívico, Mexicali, B.C., Mexico",(686) 556-0752,informacion@derechoshumanosbc.org,,http://www.derechoshumanosbc.org/content/contacto,,,,,
,,,General Crisis,30.560029,-115.9415972,Comision Nacional de los Derechos Humanos,San Quintin,,Mexico,"Carret. Transpeninsular Km 190, Fracc. Chavez San Quintin, BC ","México 1, San Quintín, B.C., Mexico",(616) 165-2031,informacion@derechoshumanosbc.org,,,,,,,
,,,General Crisis,32.2886707,-115.1044229,Comision Nacional de los Derechos Humanos,Valley of Mexicali,,Mexico,"Calle Quinta No.479 Int.4, Poblado Guadalupe Victoria Kilometro 43","Guadalupe Victoria, 21720 Guadalupe Victoria, B.C., Mexico",(658) 516-2629,informacion@derechoshumanosbc.org,,,,,,,
,,,General Crisis,31.0250709,-114.8407776,Comision Nacional de los Derechos Humanos,San Felipe,,Mexico,"Av. Mar de Cortez No.183-C, Coastal Zone, San Felipe BC ","San Felipe, Baja California, Mexico",(686) 577-0134,informacion@derechoshumanosbc.org,,http://www.derechoshumanosbc.org/content/contacto,,,,,
,,,General Crisis,,,Comision Nacional de los Derechos Humanos,East Side,,Mexico,"Ruta Ignacio Allende Street, # 2276, Fracc. Mariano Matamoros Deleg. The dam",,(664) 646-9755,informacion@derechoshumanosbc.org,,http://www.derechoshumanosbc.org/content/contacto,,,,,
Founded in 1991,,2018-06-22 Frente Indigena de Organizaciones Binacionales,General Crisis,34.0051238,-118.2736979,Centro de la Coordinación General Binacional,Los Angeles,California,United States,"4318 S. Main St., Los Angeles, California 90037",,(323) 521-1995 ,odiliaromero@fiob.org,,,,,,,
Founded in 1991,,2018-06-22 Frente Indigena de Organizaciones Binacionales,General Crisis,32.4926108,-117.0467954,Centro de la Coordinación General Binacional ,Tijuana,Baja California,México,"Calle Manuel Félix Acosta, Col. Obrera, Tijuana, Baja California",,,,,,,,,,
Founded in 1991,,2018-06-22 Frente Indigena de Organizaciones Binacionales,General Crisis,17.0644793,-96.7266959,Centro de la Coordinación General Binacional ,Juxtlahuaca,Oaxaca,México,"Calle Mariano Matamoros #305, Centro, Juxtlahuaca, Oaxaca, México",,(953) 554-0793,,,,,,,,
Founded in 1946,2014-11-30 Why Obama’s executive action on immigration excluded parents of ‘dreamers’,2018-07-14 Impact of Sessions' asylum move already felt at border,General Crisis,38.898576,-77.031236,American Immigration Lawyers Association (AILA),Washington,D.C.,United States,"1331 G Street, NW Suite 300",,(202)-507-7600,,https://twitter.com/ailanational,http://www.aila.org/,CLINIC,,,,
Founded in 1987,2014-05-07 Report Details Hundreds Of Complaints Against U.S. Border Agents,2018-07-10 U.S. and Mexico discussing a deal that could slash migration at the border,General Crisis,38.898576,-77.031236,American Immigration Council,Washington,D.C.,United States,"1331 G St. NW Suite 200, Washington, DC 20005",,(202) 507-7500,,https://twitter.com/immcouncil,https://americanimmigrationcouncil.org/,CLINIC,,,,
,,,General Crisis,31.681919,-106.377744,"Centro de Derechos Humanos de Migrantes, A.C.",Cd. Juárez,Chihuahua,México,"Calle Neptuno #1855, Col. Satélite, Ciudad Juárez, Chihuaha, C.P 32540",,"(656) 687-2864, (656) 687-0676, (656) 687-0677, (656) 687-2864",coordinacion@cdhmcj.org,,,CLINIC,"Blanca Navarrete García, Diana Rodríguez Sáenz",https://www.researchgate.net/publication/304538960_Directorio_de_Organizaciones_Civiles_que_atienden_a_Migrantes_en_la_Frontera_Norte_de_Mexico,,
Partnership between the Vera Institute of Justice and New America. Vera was established in 1961; ICON launched in June 2018.,,"2018-06-29 We may be able to help reunite immigrant children with parents, nonprofit says",Current Crisis,40.712625,-74.008211,Immigration Connection Project (ICON),New York,New York,United States,"233 Broadway, New York, NY 10279",,800-845-8372,familyconnect@vera.org / familiasunidas@vera.org ,https://twitter.com/verainstitute,https://www.vera.org/projects/immigrant-connection-project,,Anne Marie Mulcahy,,"You can contact ICON in one of the folowing ways:

1. Call toll free from the U.S.: (800) 845-8372
2. From ICE Detention, use the free calling system in your detention facility and dial 621#
3. Email: familyconnect@vera.org OR familiasunidas@vera.org
4. NEW: Call toll free via Facebook from outside of the U.S. by adding https://www.facebook.com/ICON.proj as a friend",
Formed in 2016; address is not shared but reports released in 2017 and 2018 describe BIC as El Paso-Las Cruces based; does not appear to have an address because it's a coalition of organizations and pro bono attorneys,,2018-06-29 Trump admin ran 'pilot program' for separating migrant families in 2017,General,31.76299,-106.48652,Borderland Immigration Council,El Paso and Las Cruces,Texas/New Mexico,United States,,,,borderlandimmigrationcouncil@gmail.com,,https://www.borderlandimmigrationcouncil.org/,,,,,
Involved in major precendential asylum law; provides resources for asylum applicants,https://www.justice.gov/sites/default/files/eoir/legacy/2014/08/26/3811.pdf,https://www.nytimes.com/2018/07/02/us/asylum-court-ruling-detention.html,"Current Crisis, General",37.781166,-122.415844,Center for Gender & Refugee Studies,San Francisco,California,United States,"200 McAllister Street, San Francisco, CA 94102",,(415) 565-4877,cgrs@uchastings.edu,@CGRShastings,https://cgrs.uchastings.edu/,,Blaine Bookey,,,
Initiative launched in 2018 by the Center for Gender and Refugee Studies,,,General,37.781166,-122.415844,Immigrant Women Too,San Francisco,California,United States,"200 McAllister Street, San Francisco, CA 94102",,,krongbrianna@uchastings.edu,,http://www.immigrantwomentoo.org/,, Brianna Krong,,"(This initiative is in response to the Matter of A-B decision, which overruled a precedent for asylum related to DV claims so this initiative is focused on that aspect of asylum law (and other social group claims) - these are the claims many Central Americans who have been separated are making, but the initiative itself isn't directly related to family separation. See op-ed by director Karen Musalo here) ",
,,2018-07-05 Trump Administration Says It Is Working to Reunite Families by Court Deadline,"General, Current",35.678787,-105.94116,Santa Fe Dreamers Project ,Santa Fe,New Mexico,United States,"PO Box 8009, Santa Fe, NM 87504",,(505) 490-2789,info@santafedreamersproject.org,,http://www.santafedreamersproject.org/what-we-do/,,Allegra Love,,,
Founded in  1980,,2018-07-02 'We beg you to help us': Immigrant women in detention describe their treatment and share fears about their children,General,30.255033,-97.719288,Grassroots Leadership,Austin,Texas,United States,"2301 East Cesar Chavez St., Austin, TX 78702",,(512) 499-8111,cmunoz@grassrootsleadership.org,@Grassroots_News,https://grassrootsleadership.org/,,Claudia Muñoz,,,
Founded in 2011,04/07/2013 Searching for the American Dream in Mexico,17/01/2017 Se alían con la UDEM en busca de talentos migrantes,Current crisis,20.990433,-101.148915,"

Dream in México

",León,Guanajuato,México,,,"(213)928
2917 / 477
775 0485","

info@dreaminmexico.org

","

@dreaminmexico

","dreaminmexico.org

",,"

Daniel
Arenas Aguiñaga

",,,
Founded in 2015,,"18/07/2018 ‘New Comienzos’, la luz al final del túnel para los repatriados",Current crisis,19.285931,-98.387903,New Comienzos,Ciudad de México,Ciudad de México,México,,,55-77-33-14-36,info@newcomienzos.org,@NewComienzos,https://www.newcomienzos.org/,,Israel Concha,,,
Founded in 2015,04/10/2014 Los otros ‘dreamers’,"30/06/2018 Museo Amparo, sede de la charla Dreamers",Current crisis,19.430952,-99.143573,Otros Dreamers en Acción,Ciudad de México,Ciudad de México,México,"José María Marroquí 83, Ciudad de Mexic, Mexico 06000",,,odamx2016@gmail.com,@OtrosDreams_ODA,https://www.facebook.com/OtrosDreams/,,Jill Anderson,,,
,,https://www.abqjournal.com/1191464/thousands-attend-families-belong-together-rally-in-abq.html,"Current Crisis, General",,,New Mexico Immigrant Law Center,Albuquerque,New Mexico,United States,"PO Box 7040, Albuquerque, NM 87194",,(505) 247-1023,info@nmilc.org,@NMILC,http://nmilc.org/,,,,,
Vera LOP list,,http://www.boulderweekly.com/news/america-no-more/,"Current Crisis, General",,,Rocky Mountain Immigrant Advocacy Network (RMIAN),Aurora,Colorado,United States,"3489 W. 72nd Ave Suite 211, Westminster CO 80030",,(303) 433-2812,,@RMIAN_org,https://www.rmian.org/,,,,,
,http://www.asianfortunenews.com/2015/03/department-of-justice-provides-legal-aid-to-unaccompanied-child-immigrants/,http://nebula.wsimg.com/6c03b1a88644f63e4202a98fca3ef834?AccessKeyId=AC8950C98B3F9D0B13D0&disposition=0&alloworigin=1,"Current Crisis, general",,,Casa Cornelia Law Center,San Diego,California,United States,"2760 5th Ave STE 200 San Diego, CA ",,(619) 231-7788,lawcenter@casacornelia.org,@CasaCornelia,http://www.casacornelia.org/,,,,,
,,http://time.com/5318102/american-civil-liberties-immigrants-lawyers/,Current Crisis,,,Immigrant Defenders Law Center,Los Angeles,California,United States,"634 S Spring St, 10th Floor, Los Angeles, CA",,(213) 319-7807 family unity project direct line,Familyunity@immdef.org,@immdef,https://www.immdef.org/,,,,,
,,https://www.nytimes.com/2018/07/16/nyregion/migrant-children-reunions.html,"Current Crisis, general",,,"Catholic Charities Community Services/ Catholic Charities Immigration Legal Services, Archdiocese of New York",New York,New York,United States,"80 Maiden Lane, New York, NY",,(212) 419-3700,ICH@archny.org,@CathCharitiesNY,https://catholiccharitiesny.org/find-help/need-help-immigration,,Mario Russell,,,
,http://aldianews.com/articles/local/human-trafficking-povertys-cruel-child/40277,http://www.philly.com/philly/news/ice-children-separated-border-trump-pennsylvania-hias-20180621.html,"Current Crisis, general",,,HIAS Pennsylvania,Philadelphia,Pennsylvania,United States,"2100 Arch St, 3rd Floor, Philadelphia PA 19103",,(215) 832-0900,,@HIASPA,http://hiaspa.org/,,,,,
See Kids in Need Of Defense (KIND) - DC,,,Current Crisis,,,KIND - Boston,Boston,Massachusetts,United States,"c/o Nutter McClennen & Fish LLP, 155 Seaport Boulevard, 5th Floor, Boston, MA 02210",,(617) 207-4171,Infoboston@supportkind.org; separation@supportkind.org,,,,,,"Covers MA, NH, RI, VT, and ME for family separation cases; general UAC assistance limited by counties in MA & NH",
See Kids in Need Of Defense (KIND) - DC,,,Current Crisis,,,KIND - LA,Los Angeles,California,United States,"888 West 6th Street, Suite 900, Chadbourne & Parke LLP, KIND-LA, Los Angeles, CA 90017",,(213) 274-0170,infolosangeles@supportking.ord; separation@supportkind.org,,,,,,"KIND will accept referrals for separated children in CA in the following counties: Fresno, Kings County, Los Angeles County, Madera, Merced, Orange County, Riverside County and San Bernardino County, San Francisco City, San Francisco County, San Joaquin County, Stanislaus County, Tulare County ",
See Kids in Need Of Defense (KIND) - DC,,,Current Crisis,,,KIND - San Francisco,San Francisco,California,United States,"200 Pine Street, Third Floor, San Francisco, CA 94104",,(415) 543-3379,infosanfrancisco@supportkind.org; separation@supportkind.org,,,,,,"KIND will accept referrals for separated children in CA in the following counties: Fresno, Kings County, Los Angeles County, Madera, Merced, Orange County, Riverside County and San Bernardino County, San Francisco City, San Francisco County, San Joaquin County, Stanislaus County, Tulare County ",
See Kids in Need Of Defense (KIND) - DC,,https://donate.supportkind.org/campaign/baltimore-back-to-school-campaign/c192380,Current Crisis,,,KIND - Baltimore,Baltimore,Maryland,United States,"1420 North Charles, 2nd Floor, Suite D, Baltimore MD 21201",,,separation@supportkind.org,,,,,,Family separation cases from entire state; general UAC cases in Baltimore metro area,
See Kids in Need Of Defense (KIND) - DC,,,Current Crisis,,,KIND - Atlanta,Atlanta,Georgia,United States,"50 Hurt Plaza, SE, Suite 740, Atlanta, GA 30303",,(404) 885-3629,infoatlanta@supportkind.org; separation@supportkind.org,,,,,,"Serves Clayton County, Cobb County, DeKalb County, Fulton County, Gwinnett County ",
See Kids in Need Of Defense (KIND) - DC,,,Current Crisis,,,KIND- Houston,Houston,Texas,United States,"1303 San Jacinto Street, 9th Floor, Houston TX 77002",,832-779-4030,infohouston@supportkind.org; separation@supportkind.org,,,,,,Separated kids located in or moving to Harris County or Montgomery County,
See Kids in Need Of Defense (KIND) - DC,,,Current Crisis,,,KIND - Newark,Roseland,New Jersey,United States,"One Lowenstein Dr, c/o Lowenstein Sandler LLP, Roseland, NJ 07068",,(862) 926-2117,infonewark@supportkind.org; separation@supportkind.org,,,,,,Separated kids located in or moving to all of NJ,
See Kids in Need Of Defense (KIND) - DC,,,Current Crisis,,,KIND - Seattle,Seattle,Washington,United States,"1201 Third Ave, Suite 4900, Seattle WA 98101",,,infoseattle@supportkind.org; separation@supportkind.org,,,,,,"Separated kids located in or moving to King County, Pierce County, Snohomish County, Thurston County",
See Kids in Need Of Defense (KIND) - DC,,,Current Crisis,,,KIND - New York,New York,New York,United States,"252 West 37th Street, Suite 1500W, New York, NY 10018",,(646) 677-9900,infonewyork@supportkind.org; separation@supportkind.org,,,,,,"Separated kids located in or moving to Bronx, Kings County, Nassau County, New York City, Queens, Richmond County, Suffolk County, Westchester County",
,,,Current Crisis,,,Catholic Charities Cabrini,Houston,Texas,United States,"2900 Louisiana Street, Houston TX 77006",,(713) 874-6570,rgallardo@catholiccharities.org,,,,Rosalba Gallardo,,"Fort Bend County, Brazoria County, Waller County, Chambers County, Wharton County, Galveston County, Colorado County, Austin County, Jefferson County, Matagorda County, ",