lat,lon,detloc,name,city,state
37.388942,-120.57452,BOPATW,ATWATER US PENITENTIARY,ATWATER,CA
60.583659,-151.30003,AKWILCC,WILDWOOD STATE CORRECTIONAL CENTER,KENAI,AK
40.734241,-77.313578,YORKCME,YORK COUNTY JAIL,ALFRED,ME
40.2677,40.2677,MONMONJ,MONMOUTH COUNTY CORRECTIONAL INSTITUTION,FREEHOLD,NJ
43.626753,-88.738135,WIDODGE,"DODGE CORR INSTITUTE, WAU",WAUPUN,WI
45.174081,-93.876888,WRIGHMN,WRIGHT COUNTY,BUFFALO,MN
44.248742,-114.500931,ONEIDID,ONEIDA COUNTY JAIL,MALAD,ID
35.27845,-116.055014,CACFBAK,BAKER CALIFORNIA CORRECTIONAL FACILITY (CCF),BAKER,CA
42.48526,-71.211469,BOSHOLD,BOSTON HOLD ROOM,BURLINGTON,MA
40.660206,-74.003867,BOPBRO,BROOKLYN MDC,BROOKLYN,NY
33.238976,-102.835787,DICKETX,DICKENS COUNTY DETENTION,SPUR,TX
42.033012,-72.498933,CTOSBCI,OSBORN CORRECTIONAL INSTITUTE,SOMERS,CT
40.729607,-73.555117,NASSANY,NASSAU COUNTY CORRECTIONAL CENTER,EAST MEADOW,NY
40.970376,-72.70984,SUFFONY,SUFFOLK COUNTY,RIVERHEAD,NY
26.383236,-98.819217,STARRTX,STARR COUNTY JAIL,RIO GRANDE CITY,TX
35.264055,-111.490153,NAVSOAZ,NAVAJO COUNTY SHERIFF,HOLBROOK,AZ
39.058375,-94.900653,CCALEKS,"CORRECTIONAL CORPORATION OF AMERICA (JEFFERSON, OK",LEAVENWORTH,KS
39.099757,-76.845002,BAYAMPR,BAYAMON HOSPITAL,BAYAMON,PR
39.548359,-107.333515,GSCHOLD,GLENWOOD SPRINGS HOLDROOM,GLENWOOD SPRINGS,CO
35.321415,-106.569051,SANDONM,SANDOVAL COUNTY DETENTION CENTER,BERNALILLO,NM
32.755614,-97.336014,TARRATX,TARRANT COUNTY JAIL,FT. WORTH,TX
29.384475,-95.002913,BOWCOTX,BOWIE COUNTY JAIL,TEXARKANA,TX
44.016828,-107.95576,WASHAWY,WASHAKIE COUNTY JAIL,WORLAND,WY
39.572766,-76.985991,CARROMD,CARROLL COUNTY DETENTION CENTER,WESTMINSTER,MD
33.431967,-94.043103,TEXARAR,TEXARKANA ARKANSAS POLICE DEPARTMENT,TEXARKANA,AR
33.498178,-93.777126,ARDCTEX,ARKANSAS DEPARTMENT OF CORRECTIONS (TEXARKANA),TEXARKANA,AR
38.687196,-121.161069,CASPSAC,CSP-SACRAMENTO,REPRESA,CA
41.034904,-93.765671,CLARKIA,CLARKE COUNTY SHERIFF,OSCEOLA,IA
34.171217,-97.128892,CARTEOK,"CARTER COUNTY (ARDMORE, OKLAHOMA)",ARDMORE,OK
42.421538,-94.988186,SACCOIA,SAC COUNTY JAIL,SAC CITY,IA
38.869678,-89.414136,BOPGRE,GREENVILLE FEDERAL CORRECTIONAL INSTITUTE,GREENVILLE,IL
40.169713,-80.247789,WASHIPA,WASHINGTON COUNTY,WASHINGTON,PA
48.778202,-104.55742,SHERIMT,SHERIDAN COUNTY JAIL,PLENTYWOOD,MT
41.161943,-103.066015,CHEYENE,CHEYENNE COUNTY DETENTION CENTER,SIDNEY,NE
42.585212,-87.824755,KENOSW2,KENOSHA COUNTY PRETRIAL FACILITY,KENOSHA,WI
31.56668,-92.396314,BOPPOL,POLLOCK US PENITENTIARY,POLLOCK,LA
38.218655,-85.220677,SHELBKY,SHELBY COUNTY DETENTION CENTER,SHELBYVILLE,KY
32.051719,-82.874223,BOPRAE,"MCRAE CORRECTIONAL FACILITY, CCA",MCRAE,GA
32.899779,-105.958996,OTERONM,OTERO COUNTY DETENTION,ALAMOGORDO,NM
37.298783,-77.333985,RSREGVA,RIVERSIDE REGIONAL JAIL,HOPEWELL,VA
31.749647,-106.486815,PDNHOLD,PDN HOLD ROOM,EL PASO,TX
44.065826,-93.526787,BOPWAS,WASECA FEDERAL CORRECTIONAL INSTITUTE,WASECA,MN
32.066082,-110.858752,AZDCTUC,ARIZONA DEPARTMENT OF CORRECTIONS - TUSCON,TUCSON,AZ
33.752819,-117.8342,OGCMCCA,ORANGE CO MEDICAL CENTER,SANTA ANA,CA
30.079528,-94.094471,JEFFETX,JEFFERSON COUNTY JAIL,BEAUMONT,TX
44.019289,-92.460899,OLMSTMN,OLMSTED COUNTY,ROCHESTER,MN
30.728593,-90.520116,TANGILA,TANGIPAHOA PARISH JAIL,AMITE,LA
32.496359,-94.739738,GREGGTX,GREGG COUNTY JAIL,LONGVIEW,TX
42.620554,-97.263983,CEDARNE,CEDAR COUNTY JAIL,HARTINGTON,NE
34.317748,-89.262007,CTLAFSL,LAFAYETTE SHERIFFS LOCK,HARTFORD,CT
28.799791,-97.007959,VICTOTX,VICTORIA COUNTY JAIL,VICTORIA,TX
48.311188,-102.390422,MOUNTND,MOUNTRAIL COUNTY JAIL,STANLEY,ND
36.038606,-86.820765,ROCKINH,ROCKINGHAM COUNTY JAIL,BRENTWOOD,NH
26.76083,-81.437375,HENDRFL,HENDRY COUNTY JAIL,LABELLE,FL
39.287712,-76.616346,USMMD,US MARSHALS (MARYLAND),BALTIMORE,MD
40.15359,-88.961766,DEWITIL,DEWITT COUNTY JAIL,CLINTON,IL
30.832374,-92.617936,OAKHOLD,OAKDALE HOLDING ROOM,OAKDALE,LA
46.407573,-105.84562,CUSTEMT,CUSTER COUNTY JAIL,MILES CITY,MT
41.34344,-94.013457,MADISIA,MADISON COUNTY JAIL,WINTERSET,IA
43.045749,-87.924375,WIMILSD,MILWAUKEE SECURE DETENTION,MILWAUKEE,WI
43.700812,-98.036831,DAVISSD,DAVISON COUNTY (SOUTH DAKOTA),MITCHELL,SD
46.236646,-119.095081,FRANKWA,FRANKLIN COUNTY,PASCO,WA
40.676564,-95.857818,OTOECNE,OTOE COUNTY JAIL,NEBRASKA CITY,NE
42.142623,-76.265377,TIOGANY,TIOGA COUNTY JAIL,OWEGO,NY
41.128393,-101.719792,KEICONE,KEITH COUNTY JAIL,OGALLALA,NE
38.086166,-102.61894,PROWECO,PROWERS COUNTY JAIL,LAMAR,CO
37.198181,-105.42661,COSTICO,COSTILLA COUNTY JAIL,SAN LUIS,CO
42.013136,-89.328801,OGLECIL,OGLE COUNTY JAIL,OREGON,IL
32.378662,-86.307594,MONCJAL,MONTGOMERY CITY JAIL,MONTGOMERY,AL
39.054445,-76.633839,VTDCORR,DALE CORRECTIONAL FACILITY (VERMONT DEPARTMENT OF,WATERBURY,VT
36.825762,-108.02073,SJUANNM,SAN JUAN COUNTY DETENTION CENTER,AZTEC,NM
37.982276,-101.754746,HAMILKS,HAMILTON COUNTY JAIL,SYRACUSE,KS
41.791759,-110.54065,LINCOWY,LINCOLN COUNTY JAIL,KEMMERER,WY
38.811074,-91.148816,WARREMO,WARREN COUNTY JUSTICE CENTER,WARRENTON,MO
34.704368,-85.280739,WALKEGA,WALKER COUNTY JAIL,LAFAYETTE,GA
32.066684,-81.166054,CHATHGA,CHATHAM COUNTY JAIL,SAVANNAH,GA
33.751444,-117.879468,SANANCA,SANTA ANA COUNTY JAIL,SANTA ANA,CA
39.768183,-104.862759,DENVECO,DENVER COUNTY JAIL,DENVER,CO
29.361655,-100.461402,MAVERTX,MAVERICK COUNTY JAIL,EAGLE PASS,TX
47.692241,-114.161774,LAKCOMT,LAKE COUNTY JAIL,POLSON,MT
42.115042,-96.708552,THURSNE,THURSTON COUNTY JAIL,PENDER,NE
37.943312,-101.253917,KEACOKS,KEARNY COUNTY JAIL,LAKIN,KS
42.759601,-105.381174,CONVEWY,CONVERSE COUNTY JAIL,DOUGLAS,WY
44.722569,-73.716988,NYCLINC,CLINTON C.F. DANNEMMORA,DANNEMMORA,NY
13.444257,144.786297,AGAHOLD,AGANA HOLD,HAGATNA,GU
33.884911,-118.102851,CRTOSCA,CERRITOS COLLEGE HOSPITAL,CERRITOS,CA
42.765657,-73.811738,ALBHOLD,ALBANY HOLD ROOM,LATHAM,NY
29.312671,-100.418822,KINNETX,KINNEY COUNTY DETENTION CENTER,BRACKETTVILLE,TX
36.068332,-79.402085,ALAMCNC,ALAMANCE COUNTY DETENTION FACILITY,GRAHAM,NC
32.204286,-95.853849,ATTHOLD,"ATHENS, TX HOLD ROOM",ATHENS,TX
38.882014,-78.505681,SHECOVA,SHENANDOAH COUNTY JAIL,WOODSTOCK,VA
30.710675,-91.356745,PTCOULA,POINTE COUPEE PARISH DETENTION CENTER,NEW ROADS,LA
40.801756,-83.511969,PASSANJ,PASSAIC COUNTY JAIL,PATERSON,NJ
41.104026,-80.654127,MAHONOH,MAHONING COUNTY JAIL,YOUNGSTOWN,OH
40.261109,-103.801371,LOGANCO,LOGAN COUNTY JAIL,STERLING,CO
29.596837,-89.823993,PLAQULA,PLAQUEMINES PARISH DETENTION,BRAITHWAITHE,LA
46.235098,-112.121462,JEFFEMT,JEFFERSON COUNTY DETENTION CENTER,BOULDER,MT
38.844127,-76.991658,SEH,ST. ELIZABETH'S HOSPITAL (DC),WASHINGTON,DC
39.17093,-91.819644,AUDRNMO,AUDRAIN COUNTY JAIL,MEXICO,MO
33.400604,-110.795769,GILAJAZ,GILA COUNTY JAIL,GLOBE,AZ
47.665364,-117.427902,SPOKAWA,SPOKANE COUNTY,SPOKANE,WA
33.78238,-117.865078,STJOSCA,ST. JOSEPHS HOSPITAL,ORANGE,CA
29.351304,-99.140763,MEDINTX,MEDINA COUNTY JAIL,HONDO,TX
44.963612,-92.721367,STCROWI,ST. CROIX COUNTY JAIL,HUDSON,WI
35.154603,-89.864619,BOPMEM,MEMPHIS FEDERAL CORRECTIONAL INSTITUTE,MEMPHIS,TN
26.181281,-97.685077,HSF,HARLINGEN STAGING FACILITY,HARLINGEN,TX
40.13078,-79.533829,CTBRICC,BRIDGEPORT CORRECTIONAL CENTER,BRIDGEPORT,CT
42.749834,-95.554623,CHEROIA,CHEROKEE COUNTY SHERIFF'S OFFICE,CHEROKEE,IA
40.998975,-80.337855,LAWREPA,LAWRENCE COUNTY CORRECTIONS,NEW CASTLE,PA
31.056697,-97.464853,BELCOTX,BELL COUNTY JAIL,BELTON,TX
42.200055,-97.52742,PIERCNE,PIERCE COUNTY JAIL,PIERCE,NE
38.070172,-103.257398,BENTCCO,BENT COUNTY JAIL,LAS ANIMAS,CO
37.75373,-100.002434,FORDJKS,FORD COUNTY JAIL,DODGE CITY,KS
45.515284,-122.676087,POOHOLD,PORTLAND DISTRICT OFFICE,PORTLAND,OR
43.665247,-116.682409,HAILEID,DALE G. HAILE DETENTION CENTER,CALDWELL,ID
44.629837,-123.097959,LINNCOR,LINN CO JAIL,ALBANY,OR
42.015525,-95.358178,CRAWFIA,CRAWFORD COUNTY JAIL,DENISON,IA
37.112245,-101.001097,SEWARKS,SEWARD COUNTY JAIL,LIBERAL,KS
34.049613,-117.261205,LLUMCCA,LOMA LINDA UNIVERSITY MED CENTER,LOMA LINDA,CA
41.432195,-97.315319,PLATTNE,PLATTE COUNTY JAIL (NEBRASKA),COLUMBUS,NE
42.168752,-92.024169,BENTOIA,BENTON COUNTY JAIL,VINTON,IA
30.863809,-91.01898,EFELILA,EAST FELICIANA PARISH PRISON,CLINTON,LA
45.441255,-105.408322,POWDRMT,POWDER RIVER COUNTY JAIL,BROADUS,MT
43.403075,-94.836609,EMMETIA,EMMET COUNTY JAIL,ESTHERVILLE,IA
41.235576,-103.663049,KIMBANE,KIMBALL COUNTY JAIL,KIMBALL,NE
27.637594,-82.539885,MANATFL,MANATEE COUNTY DETENTION-ANNEX,PALMETTO,FL
37.153343,-98.029973,HARPEKS,HARPER COUNTY JAIL,ANTHONY,KS
31.993865,-102.076837,MIDLATX,MIDLAND COUNTY DETENTION CENTER,MIDLAND,TX
28.978371,-96.646614,JACKSTX,JACKSON COUNTY JAIL,EDNA,TX
30.500814,-91.215436,WBATOLA,WEST BATON ROUGE DETENTION CENTER,PORT ALLEN,LA
45.563391,-122.53842,MULTNOR,MULTNOMAH COUNTY JAIL,PORTLAND,OR
36.034108,-94.176027,WASHIAR,WASHINGTON COUNTY DETENTION CENTER,FAYETTEVILLE,AR
42.934481,-78.557346,EIRCONY,ERIE COUNTY CORRECTIONAL,ALDEN,NY
39.90914,-105.147475,BROOMCO,BROOMFIELD DETENTION CENTER,BROOMFIELD,CO
47.40313,-97.063527,TRAILND,TRAIL COUNTY JAIL,HILLSBORO,ND
39.222096,-105.989497,PARKJCO,PARK COUNTY JAIL,FAIRPLAY,CO
43.653259,-82.893211,MENMJUV,NORTHERN MAINE JUVENILE DETENTION,CHARLESTON,ME
43.59457,-116.286983,BOIHOLD,BOISE HOLDROOM,BOISE,ID
44.898788,-97.113444,CODINSD,CODINGTON COUNTY,WATERTOWN,SD
38.080045,-89.38188,PERRYIL,PERRY COUNTY JAIL,PINCKNEYVILLE,IL
41.844305,-97.456784,NEJUVNE,NORTHEAST NEBRASKA JUVENILE SERVICES,MADISON,NE
33.422871,-84.171062,HENRYGA,HENRY COUNTY SHERIFF,MCDONOUGH,GA
33.44692,-112.075172,MCSPEAZ,MCSO SPECIAL USE FACILITY,PHOENIX,AZ
35.510997,-78.346227,JOHNSNC,JOHNSTON COUNTY DETENTION CENTER,SMITHSFIELD,NC
37.642213,-98.111687,KINGMKS,KINGMAN COUNTY JAIL,KINGMAN,KS
38.484967,-107.890273,MONTRCO,MONTROSE COUNTY JAIL,MONTROSE,CO
27.964903,-82.373016,HICOJFL,HILLSBOROUGH COUNTY JAIL,TAMPA,FL
43.372295,-87.897249,OZAUKWI,OZAUKEE COUNTY JAIL,PORT WASHINGTON,WI
55.348768,-131.647277,AKKETCH,KETCHIKAN REGIONAL CC,KETCHIKAN,AK
38.855627,-91.939596,CALLAMO,CALLAWAY COUNTY JAIL,FULTON,MO
33.584447,-101.845563,LBKHOLD,LUBBOCK HOLD ROOM,LUBBOCK,TX
32.562133,-99.63511,ABTHOLD,ABILENE HOLD ROOM,ABILENE,TX
41.14305,-96.041736,SARPYNE,SARPY COUNTY JAIL,PAPILLION,NE
32.420424,-97.196841,PRLHOLD,PRAIRIELAND SUBOFFICE HOLD ROOM,ALVARADO,TX
40.859139,-79.895482,BUTLEPA,BUTLER COUNTY JAIL (PENNSYLVANIA),BUTLER,PA
43.068788,-94.238131,KOSSUIA,KOSSUTH COUNTY JAIL,ALGONA,IA
41.864285,-87.846991,LYOLAIL,LOYOLA CENTER FOR HEALTH,MAYWOOD,IL
29.428297,-98.508282,WCCBXTX,BEXAR COUNTY WACKENHUT ANNUAL DETENTION,SAN ANTONIO,TX
30.326266,-89.338826,HANCOMS,HANCOCK COUNTY JAIL,BAY ST. LOUIS,MS
41.841573,-89.482121,LEECJIL,LEE COUNTY JAIL,DIXON,IL
31.462975,-100.439949,TGREETX,TOM GREEN COUNTY JAIL,SAN ANGELO,TX
38.624304,-90.199749,STLHOLD,ST. LOUIS HOLDROOM,ST. LOUIS,MO
40.705141,-111.869687,SLCHOLD,SALT LAKE CITY HOLD ROOM,WEST VALLEY CITY,UT
47.923773,-97.034841,GRFHOLD,GRAND FORKS HOLD ROOM,GRAND FORKS,ND
34.04867,-118.233776,TEMPLCA,TEMPLE MEDICAL,LOS ANGELES,CA
41.504818,-81.690821,CLEHOLD,CLEVELAND HOLD ROOM,CLEVELAND,OH
40.382857,-76.012323,BRKHOLD,BERKS HOLD ROOM,LEESPORT,PA
44.051091,-123.090793,LANECOR,LANE COUNTY JAIL,EUGENE,OR
38.333518,-87.192157,KENNEME,KENNEBEC COUNTY JAIL,AUGUSTA,ME
31.354597,-110.92778,SCRUZAZ,SANTA CRUZ COUNTY JAIL,NOGALES,AZ
47.492384,-122.292496,SEAHOLD,SEATTLE FIELD OFFICE HOLD ROOM,SEATTLE,WA
41.002455,-95.894962,SARJUNE,SARPY COUNTY JUVENILE,PAPILLION,NE
40.711757,-73.828899,QUEHONY,QUEENS HOUSE OF DETENTION,KEW GARDENS,NY
40.382114,-76.016424,BEJUVPA,BERKS COUNTY,LEESPORT,PA
40.382114,-76.016424,BESECPA,BERKS COUNTY SECURED JUVENILE,LEESPORT,PA
40.010307,-79.077602,SOMERPA,SOMERSET COUNTY JAIL,SOMERSET,PA
33.21528,-97.11199,DENTOTX,DENTON COUNTY JAIL,DENTON,TX
40.38172,-76.018363,BERKSPA,BERKS COUNTY PRISON,LEESPORT,PA
41.675975,-86.252051,STJOSIN,ST. JOSEPH COUNTY JAIL,SOUTH BEND,IN
26.478305,-80.079351,GLADEF2,GLADES COUNTY DETENTION CENTER FEMALE,MOORE HAVEN,FL
48.373289,-114.183213,CFALSMT,COLUMBIA FALLS POLICE DEPARTMENT,COLUMBIA FALLS,MT
42.887987,-78.877725,BUFHOLD,BUFFALO HOLD ROOM,BUFFALO,NY
43.152965,-77.614545,MONRONY,MONROE COUNTY JAIL,ROCHESTER,NY
61.21864,-149.85856,AKCOOKI,COOK INLET PRETRIAL (ANCHORAGE),ANCHORAGE,AK
39.327667,-94.935501,BOPLVN,LEAVENWORTH US PENITENTIARY,LEAVENWORTH,KS
31.842282,-103.088782,WINCOTX,WINKLER COUNTY JAIL,KERMIT,TX
36.357425,-94.228989,BENTOAR,BENTON COUNTY DETENTION CENTER,BENTONVILLE,AR
33.737901,-118.305553,SPHOSCA,SAN PEDRO PENINSULA HOSPITAL,SAN PEDRO,CA
26.121832,-80.158437,FTLAUFL,FORT LAUDERDALE CITY JAIL,FT.LAUDERDALE,FL
26.681933,-80.251446,PWHOSFL,PALMS WEST HOSPITAL,LOXAHATCHEE,FL
26.156904,-97.710323,STHOSTX,SOUTH TEXAS HOSPITAL,HARLINGEN,TX
38.228305,-78.117423,CVREGVA,CENTRAL VA REGIONAL JAIL,ORANGE COUNTY,VA
39.154479,-75.487962,DVDHOLD,DOVER HOLDROOM,DOVER,DE
44.788235,-69.730034,SOMERME,SOMERSET COUNTY JAIL,MADISON,ME
34.147078,-118.248923,GLEPDCA,GLENDALE POLICE DEPARTMENT,GLENDALE,CA
38.474198,-77.99681,CULPEVA,CULPEPER COUNTY ADULT DETENTION CENTER,CULPEPER,VA
33.578609,-102.377737,HOKLYTX,HOCKLEY COUNTY JAIL,LEVELLAND,TX
41.50876,-90.581441,RCKISIL,ROCK ISLAND CORRECTIONAL CENTER,ROCK ISLAND,IL
25.459728,-80.493501,DADECFL,DADE COUNTY CORRECTIONAL,MIAMI,FL
42.981885,-85.061803,IONIAMI,IONIA COUNTY,IONIA,MI
39.737347,-104.991575,DENCICO,DENVER CITY PADF,DENVER,CO
25.811648,-80.348638,BOPMIA,MIAMI FEDERAL CORRECTIONAL INSTITUTE (FORMER MCC),MIAMI,FL
39.206827,-95.311336,JEFFEKS,JEFFERSON COUNTY JAIL,OSKALOOSA,KS
40.491585,-111.4119,WASATUT,WASATCH COUNTY JAIL,HEBER,UT
41.422356,-75.647859,LACKAPA,LACKAWANNA COUNTY JAIL,SCRANTON,PA
43.080705,-75.707453,MADISNY,MADISON COUNTY JAIL,WAMPSVILLE,NY
47.478771,-122.284152,ECOLOWA,ECONOLODGE MOTEL,TUKWILA,WA
39.245742,-94.419427,CLACOMO,CLAY COUNTY JAIL,LIBERTY,MO
44.943831,-93.092953,RAJAIMN,RAMSEY COUNTY JAIL,ST. PAUL,MN
43.000862,-78.19385,GENESNY,GENESEE COUNTY JAIL,BATAVIA,NY
44.414611,-103.515531,MEADESD,MEADE COUNTY,STURGIS,SD
25.787594,-80.215003,CEMEDFL,CEDARS MEDICAL CENTER,MIAMI,FL
25.787594,-80.215003,UMIAHFL,UNIVERSITY OF MIAMI HOSPITAL,MIAMI,FL
42.500678,-96.404997,SXCHOLD,SIOUX CITY HOLD ROOM,SIOUX CITY,IA
41.313975,-81.737186,NOROYOH,NORTH ROYALTON CITY JAIL,N. ROYALTON,OH
25.79524,-80.207017,WDMIAFL,WOMENS DETENTION CENTER,MIAMI,FL
26.156896,-97.710327,RGHOSTX,RIO GRANDE STREET HOSPITAL,HARLINGEN,TX
32.94402,-103.342405,LEACONM,LEA COUNTY DETENTION CENTER,LOVINGTON,NM
44.532144,-109.060768,PARKCWY,PARK COUNTY JAIL,CODY,WY
47.171977,-122.602574,WAMCNEI,MCNEIL ISLAND CORRECTIONS,STEILACOOM,WA
37.079002,-106.00492,CONEJCO,CONEJOS COUNTY JAIL,ANTONITO,CO
39.429059,-77.949736,WVEASTR,EASTERN REGIONAL JAIL,MARTINSBURG,WV
46.721847,-92.097951,DOUGLWI,DOUGLAS COUNTY,SUPERIOR,WI
39.198487,-78.146401,NWREGVA,NORTHWEST REGIONAL ADULT DETENTION CENTER,WINCHESTER,VA
39.198487,-78.146401,CFREDVA,CLARKE FREDK WINCH.,WINCHESTER,VA
32.723866,-114.623297,YUMAJAZ,YUMA COUNTY JAIL - ADULTS,YUMA,AZ
39.519917,-122.199577,GLENNCA,GLENN COUNTY JAIL,WILLOWS,CA
37.694718,-97.339496,SEDGWKS,SEDGWICK COUNTY JAIL,WICHITA,KS
29.574893,-95.753772,FTBENTX,FORT BEND COUNTY JAIL,RICHMOND,TX
30.032434,-92.176655,VERMILA,VERMILLION PARISH JAIL,ABBEVILLE,LA
33.39273,-110.777248,GIJUVAZ,GILA COUNTY JUVENILE DETENTION CENTER,GLOBE,AZ
38.890046,-77.083662,ARLCOVA,ARLINGTON COUNTY JAIL,ARLINGTON,VA
40.667975,-73.798131,HOLINNY,HOLIDAY INN,JAMAICA,NY
48.552963,-109.706549,HILLCMT,HILL COUNTY DETENTION CENTER,HAVRE,MT
43.968203,-111.6807,FREMOID,FREMONT COUNTY JAIL,ST. ANTHONY,ID
39.59684,-78.753103,BOPCUM,CUMBERLAND FEDERAL CORRECTIONAL INSTITUTE,CUMBERLAND,MD
26.181372,-98.139197,HOSPSPR,HOSPITAL PAVIA-SANTURCE,SAN JUAN,PR
48.365698,-119.58164,OKANOWA,OKANOGAN COUNTY,OKANOGAN,WA
37.132993,-107.633162,SOUTECO,SOUTHERN UTE DETENTION CENTER,IGNACIO,CO
45.061416,-92.84736,WAJUVMN,WASHINGTON COUNTY,STILLWATER,MN
47.625111,-122.321028,AROOSME,AROOSTOOK COUNTY JAIL,HOULTON,ME
43.826734,-111.778072,MADISID,MADISON COUNTY JAIL,REXBURG,ID
42.779544,-96.93645,CLACOSD,CLAY COUNTY JAIL,VERMILLION,SD
42.852063,-106.324939,CSPHOLD,CASPER HOLDROOM,CASPER,WY
40.713055,-74.001308,BOPNYM,NEW YORK MCC,NEW YORK,NY
39.7095,-104.791098,AURORCO,AURORA CITY JAIL,AURORA,CO
40.794424,-73.883997,RIKISNY,"RIKERS ISLAND, QUEENS, NY",ELMHURST,NY
42.277476,-85.548217,KALAMMI,KALAMAZOO COUNTY,KALAMAZOO,MI
30.593393,-87.897945,DAPHNAL,DAPHNE POLICE DEPARTMENT CORRECTIONAL CENTER,DAPHNE,AL
33.0297,-84.329242,GABAPGA,GEORGIA BAPTIST CHILDREN HOME,MEANSVILLE,GA
42.74385,-78.132652,WYMCONY,WYOMING COUNTY JAIL,WARSAW,NY
33.977986,-117.65062,CAYTHGS,HERMAN G. STARKS YTS,CHINO,CA
36.2197,-115.982888,NYEPANV,"NYE COUNTY DETENTION CENTER, SOUTHERN (PAHRUMP)",PAHRUMP,NV
32.717064,-109.727016,BOPSAF,SAFFORD FEDERAL CORRECTIONAL INSTITUTE,SAFFORD,AZ
30.474525,-84.350983,TALHOLD,TALLAHASSEE HOLD ROOM,TALLAHASSEE,FL
46.015268,-112.538768,SILBOMT,BUTTE-SILVER BOW COUNTY JAIL,BUTTE,MT
37.764806,-90.438798,STFRAMO,ST. FRANCOIS COUNTY JAIL,FARMINGTON,MO
41.540658,-96.135149,WASHINE,WASHINGTON CO JAIL (BLAIR),BLAIR,NE
35.321362,-120.72905,SLOBICA,SAN LUIS OBISPO CO JAIL,SAN LUIS OBISPO,CA
35.042547,-85.276695,HAMILTN,HAMILTON COUNTY,CHATTANOOGA,TN
26.101934,-80.142373,BRGMCFL,BROWARD GENERAL MEDICAL CENTER,FT. LAUDERDALE,FL
38.290962,-104.62762,COMHICO,COLORADO MENTAL HEALTH INSTITUTE,PUEBLO,CO
32.554014,-97.110935,MANSFTX,MANSFIELD LAW ENFORCEMENT CENTER,MANSFIELD,TX
32.22874,-111.001362,STMARAZ,ST MARY'S HOSPITAL,TUCSON,AZ
34.063436,-118.205833,ELJUVCA,EASTLAKE JUVENILE HALL,LOS ANGELES,CA
25.790555,-80.21497,JMHOSFL,JACKSON MEMORIAL HOSPITAL,MIAMI,FL
41.90122,-87.883828,STOPDIL,STONE PARK POLICE DEPARTMENT,STONE PARK,IL
28.481015,-82.461853,HERNAFL,HERNANDO COUNTY JAIL,BROOKSVILLE,FL
42.367389,-85.194996,BHFLDMI,BRONSON HOSPITAL FIELDSTONE CENTER,BATTLE CREEK,MI
48.649506,-118.733681,FERRYWA,FERRY COUNTY JAIL,REPUBLIC,WA
35.149645,-90.051203,USMWDTN,US MARSHALS (WEST TENNESSEE DISTRICT),MEMPHIS,TN
44.099225,-103.264652,RPCHOLD,RAPID CITY HOLD ROOM,RAPID CITY,SD
47.451997,-122.295535,RRFINWA,RED ROOF INN,SEATAC,WA
13.444257,144.786297,DEPYOGU,DEPARTMENT OF YOUTH AFFAIRS,BARRIGADA,GU
39.959492,-75.606033,CHESTPA,CHESTER COUNTY JAIL (PENNSYLVANIA),WEST CHESTER,PA
37.238597,-87.465432,LSHOSMA,LEMUEL SHATTUCK HOSPITAL,JAMAICA PLAIN,MA
41.391967,-75.073669,PKEHOLD,PIKE COUNTY ERO HOLD ROOM,HAWLEY,PA
32.275889,-107.77686,LUNCONM,LUNA COUNTY DETENTION CENTER,DEMING,NM
32.226754,-101.516395,BSCHOLD,BIG SPRING HOLD ROOM,BIG SPRING,TX
37.548158,-77.422476,RICHMVA,RICHMOND CITY JAIL,RICHMOND,VA
42.686609,-74.918022,OTSEGNY,OTSEGO COUNTY JAIL,COOPERSTOWN,NY
31.396802,-103.502757,PECOSTX,PECOS CRIMINAL JUSTICE CENTER,PECOS,TX
34.051014,-118.217417,WMHOSCA,WHITE MEMORIAL HOSPITAL,LOS ANGELES,CA
39.109423,-119.738347,NVNORCC,NORTHERN NEVADA CORRECTIONAL CENTER,CARSON CITY,NV
41.826014,-103.660426,SCOTTNE,SCOTTS BLUFF COUNTY JAIL,GERING,NE
32.468207,-81.761834,BULLOGA,BULLOCK COUNTY JAIL,STATESBORO,GA
35.505599,-119.108574,KERCOCA,KERN COUNTY JAIL (LERDO),BAKERSFIELD,CA
35.020777,-94.38913,HARFOCT,HARTFORD CORRECTIONAL CENTER,HARTFORD,CT
42.658805,-88.464512,WALWOWI,WALWORTH COUNTY JAIL,ELKHORN,WI
40.013873,-105.287301,BOULDCO,BOULDER COUNTY JAIL,BOULDER,CO
41.369853,-82.110202,ELYRIOH,ELYRIA CITY JAIL,ELYRIA,OH
44.254955,-105.518371,TETONWY,TETON COUNTY JAIL (WYOMING),JACKSON,WY
46.266188,-106.672947,ROSEBMT,ROSEBUD COUNTY JAIL,FORSYTH,MT
32.879519,-111.749695,CGRMCAZ,CASA GRANDE REGIONAL MEDICAL CENTER,CASA GRANDE,AZ
26.470653,-97.76112,WILLCTX,WILLACY DETENTION CENTER,RAYMONDVILLE,TX
32.261565,-101.498192,BSNTRTX,BSCC INTERSTATE UNIT,BIG SPRING,TX
40.264072,-83.363439,FIVECOH,FIVE COUNTY JOINT,MARYSVILLE,OH
40.657137,-73.765714,QUEICDF,"INS/WACKENHUT CON/FAC, NY",JAMAICA,NY
25.75506,-80.437893,KROHOLD,KROME HOLD ROOM,MIAMI,FL
33.869541,-117.808245,STMARCA,ST MARY MEDICAL CENTER,APPLE VALLEY,CA
34.009941,-81.039405,COAHOLD,"COLUMBIA, SC HOLDROOM",COLUMBIA,SC
42.326912,-87.856023,NOCPDIL,NORTH CHICAGO POLICE DEPARTMENT,NORTH CHICAGO,IL
25.784623,-80.225672,HVHOSFL,WINDMOOR HOSPITAL (HARBORVIEW),MIAMI,FL
37.307301,-121.865129,SNJHOLD,SNJ HOLD ROOM,SAN JOSE,CA
40.97169,-82.109184,WALDOME,WALDO COUNTY JAIL,BELFAST,ME
32.228678,-101.50651,BOPBIG,BIG SPRING FEDERAL CORRECTIONAL INSTITUTE,BIG SPRING,TX
41.871515,-87.673763,CCHOSIL,COOK COUNTY HOSPITAL,CHICAGO,IL
39.986795,-104.799317,ADAMSCO,ADAMS COUNTY JAIL,BRIGHTON,CO
41.134613,-104.819372,LARCOWY,LARAMIE COUNTY JAIL,CHEYENNE,WY
37.451871,-105.865546,ALMHOLD,ALAMOSA HOLDROOM,ALAMOSA,CO
38.916121,-77.025759,DCDOCDC,DC DEPARTMENT OF CORRECTIONS,WASHINGTON,DC
41.868633,-87.86559,BSAHOLD,BROADVIEW SERVICE STAGING,BROADVIEW,IL
64.83458,-147.760399,AKFAIRB,FAIRBANKS CORRECTIONAL CENTER,FAIRBANKS,AK
41.87305,-87.675943,CCHHSIL,COOK COUNTY HOSPITAL-JHS,CHICAGO,IL
40.303494,-79.544617,WMLNDPA,WESTMORELAND COUNTY JAIL,GREENSBURG,PA
45.215913,-112.634727,BVRHDMT,BEAVERHEAD COUNTY DETENTION CENTER,DILLON,MT
38.556046,-85.167823,ANDROME,ANDROSCOGGIN COUNTY JAIL,AUBURN,ME
48.169,-111.94719,PONDEMT,PONDERA COUNTY JAIL,CONRAD,MT
36.449639,-103.188432,UNIONNM,UNION COUNTY DETENTION CENTER,CLAYTON,NM
28.679812,-99.827692,ZAVCOTX,ZAVALA COUNTY JAIL,CRYSTAL CITY,TX
29.361429,-100.902921,VALJUTX,VAL VERDE COUNTY JUVENILE,DEL RIO,TX
39.729755,-105.203172,JEFFECO,JEFFERSON COUNTY JAIL,GOLDEN,CO
38.545524,-106.925621,GUNNICO,GUNNISON COUNTY JAIL,GUNNISON,CO
31.720684,-99.957404,RUNLSTX,RUNNELS COUNTY JAIL,BALLINGER,TX
30.218572,-93.167467,STMDPLA,ST. MARTIN D.P. NURSING HOME,LAKE CHARLES,LA
45.833833,-109.956895,SWEETMT,SWEETWATER COUNTY JAIL,BIG TIMBER,MT
44.659934,-84.717197,CRAWFMI,"CRAWFORD COUNTY JAIL (GRAYLING, MICHIGAN)",GRAYLING,MI
47.029041,-122.913601,THURSWA,THURSTON COUNTY CORRECTIONAL CENTER,OLYMPIA,WA
58.361173,-134.487811,AKLEMON,LEMON CREEK,JUNEAU,AK
32.227595,-101.528072,BSFLTTX,BSCC FLIGHTLINE UNIT,BIG SPRING,TX
33.726376,-118.267778,SPP,SAN PEDRO SERVICE PROCESSING CENTER,SAN PEDRO,CA
26.27513,-80.121876,NBRMCFL,NORTH BROWARD MEDICAL CENTER,POMPANO BEACH,FL
38.940946,-80.83133,BOPGIL,FCI GILMER,GLENVILLE,WV
45.457453,-123.842064,TILLCOR,TILLAMOOK COUNTY JAIL,TILLAMOOK,OR
34.153771,-85.678294,CHEROAL,CHEROKEE COUNTY JAIL,CENTRE,AL
41.619181,-94.017511,DALCOIA,DALLAS COUNTY SHERIFFS OFFICE,ADEL,IA
32.421483,-104.226386,EDDCONM,EDDY COUNTY JAIL,CARLSBAD,NM
35.469609,-97.525747,OKCOJOK,OKLAHOMA COUNTY JAIL,OKLAHOMA CITY,OK
35.149195,-90.047575,SHELBTN,SHELBY COUNTY,MEMPHIS,TN
47.572023,-117.696734,MARTIWA,MARTIN HALL JUVENILE,MEDICAL LAKE,WA
37.565417,-85.272159,NEW0600,MARION COUNTY DETENTION CENTER,LEBANON,KY
34.667138,-83.098326,CTYORCI,YORK CORRECTIONAL INSTITUTION,NIANTIC,CT
40.799205,-81.941837,WAYNEOH,WAYNE COUNTY JAIL,WOOSTER,OH
32.27677,-90.131691,JAKHOLD,JACKSON MS HOLD ROOM,PEARL,MS
27.336458,-82.530073,SARASFL,SARASOTA COUNTY JAIL,SARASOTA,FL
40.502158,-106.859933,ROUTTCO,ROUTT COUNTY JAIL,STEAMBOAT SPRINGS,CO
31.432795,-109.871276,COCHIAZ,COCHISE COUNTY JAIL,BISBEE,AZ
37.127848,-84.083997,LARELKY,LAUREL COUNTY SHERIFFS JAIL,LONDON,KY
40.457197,-109.524858,UINTCUT,UINTAH COUNTY JAIL,VERNAL,UT
35.050398,-78.879122,NEW608,CUMBERLAND COUNTY DETENTION CENTER,FAYETTEVILLE,NC
40.006406,-78.50466,BEDFOPA,BEDFORD COUNTY JAIL,BEDFORD,PA
40.071112,-84.216792,WCJUVOH,WEST CENTRAL JUVENILE,TROY,OH
46.903197,-98.706706,STUTSND,STUTSMAN COUNTY,JAMESTOWN,ND
25.749617,-80.210173,USMSDFL,US MARSHALS DISTRICT,MIAMI,FL
31.8457,-102.367749,ODESSTX,ODESSA DETENTION CENTER,ODESSA,TX
42.216718,-85.891064,VANBUMI,VAN BUREN COUNTY JAIL (MICHIGAN),KALAMAZOO,MI
46.996507,-120.548738,KITTIWA,KITTITAS COUNTY JAIL,ELLENSBURG,WA
33.74024,-117.78669,RIVHOLD,RIVERSIDE CUSTODY CASE,RIVERSIDE,CA
43.605397,-84.774986,ISABEMI,ISABELLA COUNTY JAIL,MOUNT PLEASANT,MI
34.149457,-118.144361,PASADCA,PASADENA CITY JAIL,PASADENA,CA
47.104954,-104.71494,DAWSOMT,DAWSON COUNTY JAIL,GLENDIVE,MT
43.514825,-112.033716,IFIHOLD,IDAHO FALLS HOLD ROOM,IDAHO FALLS,ID
48.195646,-96.76914,MARSHMN,MARSHAL COUNTY JAIL,WARRENTON,MN
37.571785,-101.749409,STANTKS,STANTON COUNTY JAIL,JOHNSON,KS
35.535082,-97.95497,CANADOK,CANDIAN COUNTY (EL RENO),EL RENO,OK
43.073915,-89.383108,DANCOWI,DANE COUNTY JAIL,MADISON,WI
41.51009,-112.015737,BOXELUT,BOX ELDER COUNTY,BRIGHAM,UT
37.5119,-122.333287,SMJUVCA,SAN MATEO JUVENILLE HALL,SAN MATEO,CA
46.975847,-123.81728,ABRDNWA,ABERDEEN CITY JAIL,ABERDEEN,WA
47.127379,-118.381803,ADAMSWA,ADAMS COUNTY,RITZVILLE,WA
38.053506,-97.935588,RENOJKS,RENO COUNTY JAIL,HUTCHINSON,KS
38.320677,-121.970488,CASPSOL,CSP-SOLANO,VACAVILLE,CA
30.832093,-92.638259,OAK,OAKDALE FEDERAL DETENTION,OAKDALE,LA
33.470585,-112.444153,AZSPPER,PERRYVILLE STATE PRISON,GOODYEAR,AZ
32.728513,-116.696348,BARRECA,BARRETT HONOR CAMP,ALPINE,CA
44.052193,-123.089531,EUGHOLD,EUGENE HOLD ROOM,EUGENE,OR
34.09259,-118.12645,ALHAMCA,ALHAMBRA CITY JAIL,ALHAMBRA,CA
42.091442,-76.801018,CHEMUNY,CHEMUNG COUNTY JAIL,ELMIRA,NY
40.451973,-104.713029,WELDJCO,WELD COUNTY JAIL,GREELEY,CO
32.118838,-96.465071,BOPSEA,SEAGOVILLE FEDERAL CORRECTIONAL INSTITUTE,SEAGOVILLE,TX
42.065232,-104.181715,GOSHEWY,GOSHEN COUNTY JAIL,TORRINGTON,WY
35.913739,-94.972463,CHEROOK,CHEROKEE COUNTY JAIL,TAHLEQUAH,OK
39.068448,-108.573139,MESJACO,MESA COUNTY JAIL,GRAND JUNCTION,CO
48.543224,-117.904246,STEVEWA,STEVENS COUNTY JAIL,COLVILLE,WA
42.695066,-114.501989,JEROMID,JEROME COUNTY DETENTION CENTER,JEROME,ID
41.865155,-87.833455,LOYMCIL,LOYOLA MEDICAL CENTER,MAYWOOD,IL
57.790881,-152.405998,KODIAAK,KODIAK CITY JAIL,KODIAK,AK
37.691519,-97.339335,WICHOLD,WICHITA HOLDROOM,WICHITA,KS
31.369854,-110.94035,SANTACR,TONY ESTRADA LAW ENFORCEMENT CENTER,NOGALES,AZ
41.311765,-91.723929,WASHCIA,WASHINGTON COUNTY JAIL,WASHINGTON,IA
34.165148,-98.001509,JEFFEOK,JEFFERSON COUNTY JAIL,WAURIKA,OK
43.664755,-116.681461,CANYNID,CANYON COUNTY JAIL - DALE G HAILE DET CEN,CALDWELL,ID
38.054718,-97.936756,RENOYKS,RENO COUNTY YOUTH SERVICES,HUTCHINSON,KS
37.951403,-121.291894,STK,STOCKTON STAGING FACILITY,STOCKTON,CA
45.464935,-98.486014,BROWNSD,BROWN COUNTY JAIL,ABERDEEN,SD
40.924082,-98.34297,GRIHOLD,GRAND ISLAND HOLDROOM,GRAND ISLAND,NE
36.737166,-119.790379,FRECOCA,FRESNO COUNTY JAIL,FRESNO,CA
42.256308,-83.68079,WASHTMI,"WASHTENAW COUNTY JAIL (ANN ARBOR, MICHIGAN)",ANN ARBOR,MI
46.586526,-112.036886,LEWISMT,LEWIS & CLARK COUNTY JAIL,HELENA,MT
37.986902,-103.540205,OTEROCO,OTERO COUNTY JAIL,LAJUNTA,CO
40.36982,-96.194149,JOHNSNE,JOHNSON COUNTY JAIL,TECUMSEH,NE
48.107839,-98.852881,DEVILND,DEVILS LAKE LAW ENFORCEMENT CENTER,DEVILS LAKE,ND
32.8787,-90.416579,BOPYAZ,YAZOO CITY FEDERAL CORRECTIONAL INSTITUTE,YAZOO CITY,MS
40.688788,-89.693454,PCJDCIL,PEORIA COUNTY JUV DET CENTER,PEORIA,IL
41.903084,-87.683317,STMRYIL,ST. MARY OF THE NAZARETH,CHICAGO,IL
48.590191,-109.233752,BLACKIA,BLACK HAWK COUNTY JAIL,WATERLOO,IA
41.262527,-81.560801,HOTELMA,RAMADA HOTEL,EAST BOSTON,MA
39.395662,-101.043313,THOMAKS,THOMAS COUNTY JAIL,COLBY,KS
33.445984,-112.076641,MCMADAZ,MCSO MADISON FACILITY,PHOENIX,AZ
29.845361,-97.960312,HAJUVTX,HAYS COUNTY JUVENILE CENTER,SAN MARCOS,TX
40.17237,-74.020082,BRINBMA,BRISTOL COUNTY JAIL (NEW BEDFORD),NEW BEDFORD,MA
42.665149,-77.056282,YATESNY,YATES COUNTY JAIL,PENN YAN,NY
42.254701,-83.700416,WSYOUMI,WASHTENAW COUNTY YOUTH FACILITY,ANN ARBOR,MI
39.612515,-87.696208,CUMBEIL,CUMBERLAND COUNTY JAIL,PARIS,IL
40.455624,-81.405602,TUSCAOH,TUSCARAWAS COUNTY JAIL,NPHILADELPHIA,OH
39.671723,-85.699261,MORRINJ,MORRIS COUNTY JAIL,MORRISTOWN,NJ
35.563893,-85.113478,MATSHOS,TAUNTON STATE HOSPITAL,TAUNTON,MA
37.181345,-104.484519,LASANCO,LAS ANIMAS COUNTY JAIL,TRINIDAD,CO
26.921075,-99.272367,ZAPCOTX,ZAPATA COUNTY JAIL,ZAPATA,TX
42.153477,-83.256595,BRNPDMI,BROWNSTOWN POLICE DEPARTMENT,BROWNSTOWN,MI
38.659973,-75.374504,SUSSEDE,SUSSEX COUNTY PRISON,GEORGETOWN,DE
41.283043,-95.900968,NEOMAHA,OMAHA CORRECTIONAL CENTER,OMAHA,NE
41.283043,-95.900968,OMAHOLD,OMAHA FIELD OFFICE HOLD ROOM,OMAHA,NE
36.202312,-115.119726,NOLVGNV,NORTH LAS VEGAS,NORTH LAS VEGAS,NV
46.88402,-114.034646,MISSOMT,MISSOULA COUNTY,MISSOULA,MT
48.506931,-111.855891,TOOLEMT,TOOLE COUNTY DETENTION FACILITY,SHELBY,MT
40.463391,-88.099975,FORDJIL,FORD COUNTY JAIL,PAXTON,IL
42.226515,-83.262796,TAYPDMI,"TAYLOR POLICE DEPARTMENT (TAYLOR, MICHIGAN)",TAYLOR,MI
33.81022,-118.344877,DLAMOCA,DEL AMO PSYCHIATRIC HOSPITAL,TORRANCE,CA
27.879407,-81.822663,POLKJFL,POLK COUNTY JAIL,BARTOW,FL
43.087251,-95.626198,OBRIJIA,OBRIEN COUNTY JAIL (IOWA),PRINGHAR,IA
37.265084,-93.135798,SPGHOLD,SPRINGFIELD DRO HOLD,STRAFFORD,MO
36.762658,-76.586644,WTREGVA,WESTERN TIDEWATER REGIONAL JAIL,SUFFOLK,VA
40.565213,-105.033515,LARIMCO,LARIMER COUNTY JAIL,FORT COLLINS,CO
43.050562,-83.331908,LAPEEMI,LAPEER COUNTY,LAPEER,MI
41.851265,-90.1888,CLINTIA,CLINTON COUNTY JAIL,CLINTON,IA
47.391324,-122.314976,BOPSET,SEATAC FEDERAL DETENTION CENTER,SEATAC,WA
41.220639,-112.018624,OGUHOLD,OGDEN HOLD ROOM,OGDEN,UT
42.562891,-114.432579,TFIHOLD,TWIN FALLS HOLD ROOM,TWIN FALLS,ID
33.942909,-84.817729,PAULDGA,PAULDING COUNTY GEORGIA,DALLAS,GA
41.81736,-87.912281,OXFORME,OXFORD COUNTY JAIL,SOUTH PARIS,ME
32.374639,-86.304792,MONTGAL,MONTGOMERY COUNTY MAC SIM BUTLER DETENTION FACILIT,MONTGOMERY,AL
31.866621,-102.379819,ECTORTX,ECTOR COUNTY CORRECTION CENTER,ODESSA,TX
36.752997,-76.060062,VIRBEVA,VIRGINIA BEACH,VIRGINIA BEACH,VA
39.299046,-102.270773,KITCACO,KIT CARSON COUNTY,BURLINGTON,CO
43.981104,-117.238678,MALHCOR,MALHEUR COUNTY JAIL,VALE,OR
41.810952,-72.297531,CTNEACI,NORTHEAST CORRECTIONAL CENTER,STORRS,CT
38.844254,-97.613616,SALINKS,SALINE COUNTY JAIL,SALINA,KS
35.636955,-106.019486,SANTANM,SANTA FE COUNTY JAIL,SANTA FE,NM
42.543098,-114.433664,SRJDFID,SNAKE RIVER JUVENILE,TWIN FALLS,ID
29.35834,-99.166028,MEJUVTX,MEDINA COUNTY JUVENILE CORRECTIONAL,HONDO,TX
34.023429,-84.616127,KENNEGA,KENNESAW CITY JAIL,KENNESAW,GA
34.541778,-112.466549,YAVAPAZ,YAVAPAI COUNTY JAIL,PRESCOTT,AZ
48.186918,-117.041042,ORLEAVT,ORLEANS COUNTY JAIL,NEWPORT,VT
35.522343,-108.707417,MCKINNM,MCKINLEY COUNTY ADULT DETENTION,GALLUP,NM
35.984145,-83.280788,VTDCOR2,NORTHERN STATE BOSTON (VERMONT DEPARTMENT OF CORRE,NEWPORT,VT
36.978971,-122.023575,SCRUZCA,SANTA CRUZ COUNTY MAIN JAIL,SANTA CRUZ,CA
40.714936,-74.003227,NYCHOLD,NYC FIELD OFFICE,NEW YORK,NY
35.557616,-105.227867,SANMINM,SAN MIGUEL COUNTY DETENTION CENTER,LAS VEGAS,NM
43.245578,-78.192315,ORLEANY,ORLEANS COUNTY JAIL,ALBION,NY
40.501847,-89.666949,BOPPEK,PEKIN FEDERAL CORRECTIONAL INSTITUTE,PEKIN,IL
31.26313,-81.965398,BOPJES,JESUP FEDERAL CORRECTIONAL INSTITUTE,JESUP,GA
61.187975,-149.833344,AKMCYOU,MCLAUGHLIN YOUTH CENTER,ANCHORAGE,AK
28.846068,-82.477517,CITRUFL,CITRUS COUNTY JAIL,LECANTO,FL
31.601418,-91.557508,CONCOLA,CONCORDIA PARISH C C,FERRIDAY,LA
39.628365,-107.540621,QLTYGCO,QUALITY INN,GLENWOOD SPRINGS,CO
26.917575,-82.007075,CHRLTFL,CHARLOTTE COUNTY JAIL,PUNTA GORDA,FL
40.157189,-103.192891,WASHICO,WASHINGTON COUNTY JAIL,AKRON,CO
41.77004,-87.690722,HLYCHIL,HOLY CROSS HOSPITAL,CHICAGO,IL
45.075713,-123.388692,BOPSHE,SHERIDAN FEDERAL CORRECTIONAL INSTITUTE,SHERIDAN,OR
32.676805,-114.650223,YUJUVAZ,YUMA COUNTY JUVENILE CENTER,YUMA,AZ
39.269042,-121.664668,CACFLEO,CCF/LEO CHESNEY,LIVE OAK,CA
29.961475,-90.093336,OPJUVLA,ORLEANS PARISH JUVENILE FACILITY,NEW ORLEANS,LA
29.961475,-90.093336,ORPARLA,ORLEANS PARISH SHERIFF,NEW ORLEANS,LA
29.987328,-95.342219,IAHSFTX,GEORGE BUSH INTERCONTINENTAL,HOUSTON,TX
34.350463,-86.312056,DEKABAL,DEKALB COUNTY JAIL,FT PAYNE,AL
32.793377,-117.154272,JHALLCA,SAN DIEGO,SAN DIEGO,CA
36.926409,-79.096248,NHSPCON,NEW HAMPSHIRE STATE PENITENTIARY (CONCORD),CONCORD,NH
34.584701,-112.436111,YAVCVAZ,YAVAPAI COUNTY DETENTION CENTER,CAMP VERDE,AZ
42.017432,-72.591981,CTROBCI,ROBINSON CORRECTIONAL INSTITUTE,ENFIELD,CT
36.090703,-78.32025,FRANKNC,FRANKLIN COUNTY DETENTION CENTER,LOUISBURG,NC
38.796237,-104.795312,CODCCSP,COLO DEPARTMENT OF CORRECTIONS,COLO. SPGS,CO
30.52336,-91.180731,EBATOLA,EAST BATON ROUGE JAIL,SCOTLANDVILLE,LA
42.028027,-72.501359,CTNRNCI,NORTHERN CORRECTIONAL INSTITUTE,SOMERS,CT
42.139834,-83.178207,TRENTMI,TRENTON CITY JAIL,TRENTON,MI
53.871319,-166.541061,DUTCHAK,UNALASKA CITY JAIL,UNALASKA,AK
45.784022,-108.509485,BILHOLD,BILLINGS HOLD ROOM,BILLINGS,MT
33.981397,-83.97527,GWINNGA,GWINNETT COUNTY JAIL,LAWRENCEVILLE,GA
44.860114,-93.230838,SPMHOLD,US INS/DETENTION & DEPORTATION,BLOOMINGTON,MN
40.54789,-74.226573,NYARTHC,ARTHUR KILL CORRECTIONAL FACILITY,STATEN ISLAND,NY
32.585472,-90.045389,MADISMS,MADISON COUNTY,CANTON,MS
33.429612,-112.122672,MCESTAZ,MARICOPA ESTRELLA - PHO,PHOENIX,AZ
39.841361,-105.483078,GILPICO,GILPIN COUNTY SHERIFF,GOLDEN,CO
37.99687,-122.529444,MARINCA,MARIN COUNTY,SAN RAFAEL,CA
35.40948,-80.578092,CBRRSNC,CABARRUS COUNTY JAIL,CONCORD,NC
39.989002,-75.399586,FRACOVT,FRANKLIN COUNTY JAIL (VERMONT),SAINT ALBANS,VT
37.48774,-122.232357,SMATECA,SAN MATEO CO JAIL,REDWOOD CITY,CA
38.695637,-80.657354,CENTRWV,CENTRAL REGIONAL JAIL,SUTTON,WV
30.673516,-96.371178,BRAZOTX,BRAZOS COUNTY JAIL,BRYAN,TX
31.337459,-94.727097,LUFKNTX,LUFKIN POLICE DEPARTMENT,LUFKIN,TX
31.592504,-102.889923,WARCOTX,WARD COUNTY JAIL,MONAHANS,TX
30.269235,-97.739695,AUSHOLD,AUSTIN DRO HOLD ROOM,AUSTIN,TX
43.548703,-96.724368,SFDHOLD,SIOUX FALLS HOLD ROOM,SIOUX FALLS,SD
32.515898,-93.749405,USMWDLA,"US MARSHALS, W.D. L.A.",SHREVEPORT,LA
37.084185,-84.624663,PULASKY,PULASKI COUNTY DETENTION CENTER,SOMERSET,KY
30.005964,-91.81835,IBERILA,IBERIA PARISH JAIL,NEW IBERIA,LA
34.054191,-118.240207,BOPLOS,LOS ANGELES MET.DETENTION,LOS ANGELES,CA
28.038934,-97.510444,SANPATX,SAN PATRICIO COUNTY JAIL,SINTON,TX
43.808803,-99.333112,BRULESD,BRULE COUNTY JAIL,CHAMBERLAIN,SD
32.096092,-96.468277,NAVARTX,NAVARRO CO JAIL,CORSICANA,TX
40.428702,-79.969405,PITHOLD,PITTSBURGH HOLD ROOM,PITTSBURGH,PA
42.251525,-78.800673,CATTANY,CATTARAUGUS COUNTY JAIL,LITTLE VALLEY,NY
40.279789,-86.49664,CLINTIN,CLINTON COUNTY JAIL,FRANKFORT,IN
44.796378,-93.527667,SCOTTMN,SCOTT COUNTY JAIL,SHAKOPEE,MN
31.043081,-104.830975,CULBETX,CULBERSON COUNTY,VAN HORN,TX
33.622887,-97.147044,COOKETX,COOKE COUNTY JAIL,GAINSVILLE,TX
33.652546,-117.912111,COSTACA,COSTA MESA COLLEGE HOSPITAL,COSTA MESA,CA
41.059716,-94.361562,UNIONIA,UNION COUNTY JAIL,CRESTON,IA
48.840519,-95.767949,ROSEAMN,ROSEAU COUNTY JAIL,ROSEAU,MN
41.152704,-100.759522,LINCONE,LINCOLN COUNTY JAIL,NORTH PLATTE,NE
39.088616,-84.50895,KENTOKY,KENTON COUNTY JAIL,COVINGTON,KY
57.051998,-135.33359,SITKAAK,SITKA CITY JAIL,SITKA,AK
37.967369,-100.87641,FINNEKS,FINNEY COUNTY JAIL,GARDEN CITY,KS
33.155082,-94.970512,TITUSTX,TITUS COUNTY JAIL,MT. PLEASANT,TX
40.733605,-73.981013,ISHOSNY,BETH ISRAEL HOSPITAL,NEW YORK,NY
42.933853,-78.540656,NYBUFFC,BUFFALO CORRECTIONAL FACILITY,ALDEN,NY
30.639947,-97.680002,WILLITX,WILLIAMSON COUNTY JAIL,GEORGETOWN,TX
30.358683,-103.664263,BREWSTX,BREWSTER COUNTY JAIL,ALPINE,TX
40.148123,-111.656788,PRUHOLD,PROVO HOLD ROOM,SPANISH FORK,UT
48.79388,-97.62231,PEMBIND,PEMBINA COUNTY JAIL,CAVALIER,ND
41.136779,-104.819386,CHYHOLD,CHEYENNE HOLDROOM,CHEYENNE,WY
41.263674,-79.434105,CLARIPA,CLARION COUNTY CORRECTIONS,SHIPPENVILLE,PA
42.29645,-83.346869,MIWPRPH,WALTER REUTHER PSYCHIATRIC CENTER,WESTLAND,MI
40.078833,-102.220652,YUMAJCO,YUMA COUNTY JAIL,WRAY,CO
43.047041,-87.908473,MILHOLD,MILWAUKEE HOLDROOM,MILWAUKEE,WI
30.306837,-104.019674,PRESITX,PRESIDIO COUNTY JAIL,MARFA,TX
47.198962,-114.890816,MINERMT,MINERAL COUNTY JAIL,SUPERIOR,MT
42.325454,-122.876815,MEDHOLD,MEDFORD SUB-OFFICE,MEDFORD,OR
42.887582,-85.859028,OTTAWMI,OTTAWA COUNTY,HUDSONVILLE,MI
29.488584,-98.526053,BRIJUTX,THE BRIDGE (YOUTH ALTERNATIVE),SAN ANTONIO,TX
36.508925,-86.881771,ROBERTN,ROBERTSON COUNTY,SPRINGFIELD,TN
38.284302,-85.824698,FLOYDIN,FLOYD COUNTY JAIL,NEW ALBANY,IN
46.14743,-122.915414,COWLIWA,COWLITZ COUNTY JAIL,KELSO,WA
33.427069,-112.124006,MCTOWAZ,MARICOPA TOWERS - PHO,PHOENIX,AZ
46.355789,-94.205239,CROWGMN,CROW WING COUNTY JAIL,BRAINERD,MN
48.357504,-107.877744,PHILLMT,PHILLIPS COUNTY JAIL (MONTANA),MALTA,MT
48.827263,-100.442152,BOTTIND,BOTTINEAU COUNTY JAIL,BOTTINEAU,ND
40.702608,-111.922735,SLOXBUT,SALT LAKE COUNTY OXBOW JAIL,SALT LAKE CITY,UT
44.303003,-96.793566,BROOKSD,BROOKINGS COUNTY JAIL (SOUTH DAKOTA),BROOKINGS,SD
32.683286,-97.285835,BOPFTW,FORT WORTH FEDERAL MEDICAL CENTER,FT. WORTH,TX
28.468655,-82.579552,ESCAMAL,ESCAMBIA COUNTY DETENTION CENTER,BREWTON,AL
45.755378,-108.502314,YELLOMT,YELLOWSTONE COUNTY JAIL,BILLINGS,MT
43.014366,-71.510862,NHSPWOM,NEW HAMPSHIRE,GOFFSTOWN,NH
31.421863,-100.463993,SAGHOLD,SAN ANGELO HOLDROOM,SAN ANGELO,TX
37.237201,-107.87391,DURHOLD,DURANGO HOLDROOM,DURANGO,CO
37.491108,-86.25848,GRYDCKY,GRAYSON COUNTY DETENTION CENTER,LEITCHFIELD,KY
42.809773,-73.939627,SCHNENY,SCHNECTADY COUNTY JAIL,SCHNECTADY,NY
34.059719,-118.125826,MTPPDCA,MONTEREY PARK CITY JAIL,MONTEREY PARK,CA
42.221916,-121.750458,KLAMCOR,KLAMATH COUNTY JAIL,KLAMATH FALLS,OR
33.427067,-112.129066,DURJFAZ,MARICOPA DURANGO - PHO,PHOENIX,AZ
26.673068,-80.092157,PALMBFL,PALM BEACH COUNTY JAIL,WEST PALM BEACH,FL
36.072718,-79.793162,USMMDNC,US MARSHALS MIDDLE DISTRICT,GREENSBORO,NC
46.463339,-84.249123,SSMHOLD,SAULT SAINTE MARIE HOLDROOM,SAULT STE. MARIE,MI
33.422542,-112.13236,MCLBJAZ,MARICOPA LOWER BUCKEYE JAIL- PHO,PHOENIX,AZ
43.416456,-71.657643,MERRINH,MERRIMACK COUNTY JAIL,BOSCAWAN,NH
32.748919,-115.561618,IMPCOCA,IMPERIAL COUNTY JAIL,EL CENTRO,CA
35.75395,-83.968523,BLOJVTN,BLOUNT COUNTY JUVENILE DETENTION CENTER,MARYVILLE,TN
25.778078,-80.193509,BOPMIM,MIAMI FEDERAL DETENTION,MIAMI,FL
41.020896,-92.414962,WAPLOIA,WAPELLO COUNTY JAIL,OTTUMWA,IA
36.66488,-84.43911,BOPMCR,MCCREARY USP,PINE KNOT,KY
41.389115,-81.443018,SOLONOH,SOLON CITY JAIL,SOLON,OH
38.09764,-84.566189,BOPLEX,LEXINTON FEDERAL MEDICAL CENTER,LEXINGTON,KY
41.158446,-104.560379,JWYTHWY,JEFFREY WARDLE YOUTH CENTER,CHEYENNE,WY
48.178536,-117.057896,PENDOWA,PEND ORIELLE CORRECTIONAL FACILITY,NEWPORT,WA
42.343346,-83.009676,DETHOLD,"U.S. IMMIGRATION, DETROIT",DETROIT,MI
39.839256,-88.953008,MACONIL,MACON COUNTY JUVENILE FACILITY,DECATUR,IL
36.076179,-115.102538,LVGHOLD,LAS VEGAS HOLD ROOM,LAS VEGAS,NV
43.177442,-73.316876,WASCONY,WASHINGTON COUNTY JAIL,FORT EDWARD,NY
61.601706,-149.110319,AKMATSU,MAT-SU PRETRIAL,PALMER,AK
44.047137,-123.021562,SPRNGOR,SPRINGFIELD CITY JAIL,SPRINGFIELD,OR
47.321501,-119.55298,GRANTWA,GRANT COUNTY,EPHRATA,WA
41.538343,-73.101402,ADDCOVT,ADDISON COUNTY JAIL,MIDDLEBURY,VT
42.642207,-73.753072,EQXJVNY,EQUINOX SHELTER,ALBANY,NY
43.251466,-78.223409,NYORLNC,ORLEANS CORRECTIONAL,ALBION,NY
40.398482,-105.07266,LDFHOLD,LOVELAND HOLDROOM,LOVELAND,CO
33.480383,-112.078679,STJOSAZ,ST JOSEPHS HOSPITAL,PHOENIX,AZ
27.166719,-80.225016,STUHOLD,STUART HOLD ROOM,STUART,FL
42.387944,-83.045724,WAYNEMI,WILLIAM DICKERSON FACILITY,DETROIT,MI
39.366173,-104.862298,DOUGLCO,DOUGLAS COUNTY JAIL,CASTLE ROCK,CO
38.046917,-93.701794,STCLAMO,ST. CLAIR COUNTY JAIL,OSCEOLA,MO
34.676676,-120.496637,BOPLOF,LOMPOC FEDERAL CORRECTIONAL INSTITUTE,LOMPOC,CA
41.931888,-83.459742,MOYOUMI,MONROE COUNTY YOUTH CENTER,MONROE,MI
29.24862,-95.426878,BRAZITX,BRAZORIA COUNTY DETENTION,ANGELTON,TX
30.831411,-85.189884,BOPMNA,MARIANNA FEDERAL CORRECTIONAL INSTITUTE,MARIANNA,FL
44.854147,-73.133491,NWSCFVT,NORTHWEST STATE CORRECTIONAL FACILITY,SWANTON,VT
39.615116,-105.012314,ARAPACO,ARAPAHOE COUNTY JAIL,LITTLETON,CO
42.912447,-78.867935,CMPJVNY,COMPASS HOUSE SHELTER,BUFFALO,NY
34.501732,-109.364467,APACHAZ,APACHE COUNTY JAIL,ST JOHNS,AZ
32.231901,-101.512716,BSCORTX,BSCC AIRPARK UNIT,BIG SPRING,TX
42.274683,-88.399006,CNTGRIL,CENTEGRA HOSPITAL,WOODSTOCK,IL
33.361357,-104.505641,CHAVENM,CHAVEZ DETENTION CENTER,ROSWELL,NM
32.231901,-101.512716,BSCDRTX,BSCC CEDAR HILL UNIT,BIG SPRING,TX
40.085471,-104.984108,FCOHOLD,FREDERICK HOLDROOM,FREDERICK,CO
40.085471,-104.984108,FRDHOLD,FREDERICK HOLDROOM,FREDERICK,CO
33.864782,-112.154656,BOPPHX,PHOENIX FEDERAL CORRECTIONAL INSTITUTE,PHOENIX,AZ
40.604192,-75.465618,LEHIGPA,LEHIGH COUNTY JAIL (PENNSYLVANIA),ALLENTOWN,PA
29.714592,-95.437938,WOAKSTX,WEST OAKS HOSPITAL,HOUSTON,TX
30.491661,-95.985014,GRIMETX,GRIMES COUNTY SHERIFFS DEPARTMENT,ANDERSON,TX
34.603003,-118.160775,PLRMCCA,PALMDALE REGIONAL MEDICAL CENTER,PALMDALE,CA
43.429487,-76.478608,OSWEGNY,OSWEGO COUNTY JAIL,OSWEGO,NY
38.203807,-83.472884,RICRANS,"ACI (CRANSTON, RHODE ISLAND)",CRANSTON,RI
34.681231,-120.496076,BOPLOM,LOMPOC USP,LOMPOC,CA
35.09181,-81.509127,CHLHOLD,"CHARLESTON, SC HOLD ROOM",CHARLESTON,SC
32.749921,-117.12884,SDPROCA,S.D. COUNTY PROBATION,SAN DIEGO,CA
34.786037,-91.898017,LONOKAR,LONOKE COUNTY DETENTION,LONOKE,AR
42.884637,-78.878729,ERICONY,ERIE COUNTY HOLDING CENTER,BUFFALO,NY
42.884637,-78.878729,EIRHONY,ERIE COUNTY HOLDING CENTER,BUFFALO,NY
42.369451,-71.079185,MIDBIMA,MIDDLESEX COUNTY (BILLERICA),CAMBRIDGE,MA
38.035653,-84.912317,FRANKKY,FRANKLIN COUNTY,FRANKFORT,KY
26.124129,-97.633957,DVHOSTX,DOLLY VINSANT,SAN BENITO,TX
37.646803,-77.550274,RCMHOLD,RICHMOND SUB-OFFICE HOLD,RICHMOND,VA
48.591779,-109.229409,BLAINMT,BLAINE COUNTY JAIL,CHINOOK,MT
38.253428,-85.760465,LOUHOLD,LOUISVILLE HOLD ROOM,LOUISVILLE,KY
31.994377,-102.074279,MLDHOLD,"MIDLAND, TX ERO HOLDROOM",MIDLAND,TX
30.076688,-91.791698,SMCORLA,ST. MARTIN PARISH CORRECTIONAL CENTER,ST MARTINVILLE,LA
30.076688,-91.791698,SMMEDLA,ST. MARTIN PARISH MEDICAL,ST MARTINVILLE,LA
32.513543,-93.74873,VVSHOLD,SHREVEPORT HOLD ROOM,SHREVEPORT,LA
41.424679,-91.044072,MUSCAIA,MUSCATINE COUNTY JAIL,MUSCATINE,IA
35.846354,-86.395127,RUTJVTN,RUTHERFORD COUNTY JUVENILE DETENTION CENTER,MURFREESBORO,TN
44.897202,-122.965461,MARICOR,MARION COUNTY JAIL,SALEM,OR
39.404361,-104.866131,DUGLSCO,DOUGLAS COUNTY DETENTION FACILITY,CASTLE ROCK,CO
42.708548,-73.701559,RENSSNY,RENSSELAER COUNTY CORRECTIONAL FACILITY,TROY,NY
48.30916,-116.557026,BONNRID,BONNER COUNTY DETENTION CENTER,SANDPOINT,ID
47.384669,-122.237434,REGJCWA,REGIONAL JUSTICE CENTER,KENT,WA
37.293674,-80.053518,ROANOVA,ROANOKE COUNTY JAIL,SALEM,VA
46.328672,-120.02306,SUNNYWA,SUNNYSIDE JAIL,SUNNYSIDE,WA
39.047714,-95.670284,SHAJUKS,SHAWNEE COUNTY JUVENILE DETENTION CENTER,TOPEKA,KS
47.422585,-120.31674,CHELAWA,CHELAN COUNTY REGIONAL JUSTICE CENTER,WENATCHEE,WA
32.65486,-114.632965,MIRPYUM,YUMA BORDER PATROL STATION,YUMA,AZ
40.667994,-94.71902,TAYLOIA,TAYLOR COUNTY COURTHOUSE,BEDFORD,IA
32.732776,-94.944452,UPSHUTX,UPSHUR COUNTY JAIL,GILMER,TX
42.497494,-96.406397,WOODBIA,WOODBURY COUNTY JAIL,SIOUX CITY,IA
35.898455,-86.885365,WILLITN,WILLIAMSON COUNTY JAIL,FRANKLIN,TN
38.351712,-81.639107,WVREGWV,WEST VIRGINIA REGIONAL CORRECTIONAL INSTITUTE,CHARLESTON,WV
33.61795,-114.576374,RIVERCA,RIVERSIDE COUNTY SHERIFF,RIVERSIDE,CA
41.015761,-78.412095,CLEARPA,CLEARFIELD COUNTY JAIL,CLEARFIELD,PA
30.701539,-93.825978,SUSSENJ,KEOGH-DWYER CORRECTIONAL FACILITY,NEWTON,NJ
45.778038,-108.498261,YELYSMT,YELLOWSTONE COUNTY YOUTH SERVICES,BILLINGS,MT
43.428064,-96.169499,LYONJIA,LYON COUNTY JAIL,ROCK RAPIDS,IA
36.867477,-87.490377,CHRISKY,CHRISTIAN COUNTY JAIL,HOPKINSVILLE,KY
41.44725,-97.055856,COLFANE,COLFAX CO JAIL,SCHUYLER,NE
42.641121,-95.178168,BUENAIA,BUENA VISTA COUNTY JAIL,STORM LAKE,IA
38.41044,-75.60181,WICOMMD,WICOMICO COUNTY DETENTION CENTER,SALISBURY,MD
47.215677,-123.10329,MASONWA,MASON COUNTY JAIL,SHELTON,WA
46.883885,-117.36349,WHICOWA,WHITMAN COUNTY JAIL,COLFAX,WA
38.843288,-77.308506,FAICOVA,FAIRFAX COUNTY JAIL,FAIRFAX,VA
30.840764,-93.286346,BEAURLA,BEAUREGARD PARISH JAIL,DE RIDDER,LA
45.663847,-97.047123,ROBERSD,ROBERTS COUNTY,SISSETON,SD
30.257551,-81.591085,JAXHOLD,JACKSONVILLE SUB-OFFICE,JACKSONVILLE,FL
46.707449,-111.957961,PARKCMT,PARK COUNTY DETENTION CENTER,LIVINGSTON,MT
30.49017,-99.764226,KIMBLTX,KIMBLE COUNTY JAIL,JUNCTION,TX
35.667848,-97.745246,PIEPDOK,PIEDMONT POLICE DEPARTMENT,PIEDMONT,OK
35.192414,-114.052614,MOHAVAZ,MOHAVE COUNTY CORRECTIONAL CENTER,KINGMAN,AZ
35.089282,-106.650886,BERNANM,BERNALILLO COUNTY DETENTION CENTER,ALBUQUERQUE,NM
42.761057,-104.450893,NIOBRWY,NIOBRARA COUNTY JAIL,LUSK,WY
43.647213,-108.208881,HOTSPWY,HOT SPRINGS COUNTY JAIL,THERMOPOLIS,WY
38.302521,-76.627682,SMARYMD,ST. MARYS COUNTY DETENTION CENTER,LEONARDTOWN,MD
42.515678,-73.215515,CTMANYI,MANSON YOUTH INSTITUTE,CHESHIRE,CT
42.116944,-88.033219,WAUKEIL,WAUKEGAN CITY JAIL,WAUKEGAN,IL
43.506056,-96.745956,MIJUVSD,MINNEHAHA JUVENILE DETENTION CENTER,SIOUX FALLS,SD
40.587247,-98.439651,NEHASTI,HASTINGS DETENTION CENTER,HASTINGS,NE
39.075997,-77.549905,LOUCOVA,LOUDOUN COUNTY JAIL,LEESBURG,VA
30.179959,-96.93793,LEECOTX,LEE COUNTY JAIL,GIDDINS,TX
37.774834,-122.405444,SFCOJCA,SAN FRANCISCO COUNTY JAIL,SAN FRANCISCO,CA
35.267623,-81.181986,GASTNNC,GASTON COUNTY JAIL,GASTONIA,NC
42.557921,-114.467283,TFALLID,TWIN FALLS COUNTY ADULT DETENTION FACILITY,TWIN FALLS,ID
39.701056,-111.822889,JUABCUT,JUAB COUNTY JAIL,NEPHI,UT
46.259316,-84.451164,MICHIRE,CHIPPEWA REGIONAL-KINCHLOE,KINCHELOE,MI
41.433217,-96.498712,DODGENE,DODGE COUNTY JAIL,FREMONT,NE
42.72115,-94.213637,HUMBOIA,HUMBOLDT COUNTY JAIL,HUMBOLDT,IA
35.56326,-106.05368,SFCORNM,SANTA FE CORNELL DETENTION,SANTA FE,NM
30.722822,-85.930316,PAVHRPR,PAVIA HOSPITAL-HATO TEY,SAN JUAN,PR
42.612462,-82.882341,MACCOMI,MACOMB COUNTY JAIL,MOUNT CLEMENS,MI
43.018245,-96.076537,SIOUXIA,SIOUX COUNTY JAIL,ORANGE CITY,IA
30.275952,-91.918375,SMPARLA,ST. MARTIN PARISH,BREAUX BRIDGE,LA
39.776587,-104.846952,DRURYCO,DRURY INN,DENVER,CO
36.983015,-86.434736,WARREKY,WARREN COUNTY REGIONAL,BOWLING GREEN,KY
41.806445,-80.946048,GENEVOH,GENEVA CITY JAIL,GENEVA,OH
42.149922,-77.062442,SENECNY,SENECA COUNTY JAIL,CORNING,NY
35.424242,-97.59675,OKCHOLD,OKLAHOMA CITY HOLD ROOM,OKLAHOMA CITY,OK
33.776421,-84.244643,DEKALGA,DEKALB COUNTY JAIL,DECATUR,GA
34.442477,-119.778793,SBARBCA,SANTA BARBRA COUNTY JAIL,SANTA BARBRA,CA
39.778517,-104.865679,EMBSYCO,EMBASSY SUITES HOTEL,DENVER,CO
35.410801,-86.130471,HILLSNH,HILLSBOROUGH COUNTY JAIL,MANCHESTER,NH
32.574785,-116.919093,EMESACA,EAST MESA DETENTION FACILITY,SAN DIEGO,CA
32.574785,-116.919093,BAILECA,GEORGE BAILEY DETENTION FACILITY,SAN DIEGO,CA
37.266256,-107.01181,ARCHUCO,ARCHULETA COUNTY JAIL,PAGOSA SPRINGS,CO
39.859005,-77.159231,ADAMSPA,ADAMS COUNTY JAIL,GETTYSBURGH,PA
46.86597,-96.836535,CASSCND,CASS COUNTY JAIL,FARGO,ND
33.023427,-111.403053,CAMEDAZ,CENTRAL ARIZONA MEDICAL,FLORENCE,AZ
34.059054,-118.231429,LOSCJCA,LOS ANGELES COUNTY JAIL,LOS ANGELES,CA
35.018129,-94.389464,HARHOLD,HARTFORD OFFICE,HARTFORD,CT
42.845283,-108.725149,FREMOWY,FREMONT COUNTY JAIL (WYOMING),LANDER,WY
40.655734,-73.944873,KCHOSNY,KINGS COUNTY HOSPITAL,BROOKLYN,NY
34.702145,-118.236615,LANCACA,MIRA LOMA DETENTION CENTER,LANCASTER,CA
29.847569,-94.129733,BOPBML,BEAUMONT LOW SECURITY FEDERAL CORRECTIONAL CENTER,BEAUMONT,TX
29.847569,-94.129733,BOPBMP,BEAUMONT FEDERAL,BEAUMONT,TX
29.847569,-94.129733,BOPBMM,BEAUMONT MEDIUM SECURITY FEDERAL CORRECTIONAL CENT,BEAUMONT,TX
34.088712,-118.073502,BHCALCA,ALHAMBRA BHC HOSPITAL,ROSEMEAD,CA
40.739409,-73.976699,BEHOSNY,BELLEVUE HOSPITAL,NEW YORK,NY
42.927145,-78.82922,ECMCBNY,ERIE COUNTY MEDICAL CENTER,BUFFALO,NY
42.23363,-83.494934,VNBRNMI,VAN BUREN TOWNSHIP POLICE DEPARTMENT,BELLEVILLE,MI
40.513667,-107.544929,CRGHOLD,CRAIG HOLDROOM,CRAIG,CO
45.674447,-118.849346,UMATCOR,UMATILLA COUNTY JAIL,PENDLETON,OR
32.575603,-116.919152,CACFDON,RJ DONOVAN CORRECTIONAL FACILITY,SAN DIEGO,CA
31.115849,-97.674499,BELJUTX,BELL COUNTY JUVENILE,KILLEEN,TX
39.740009,-104.991653,VANCCO,VAN CISE SIMONET DETENTION CENTER,DENVER,CO
34.054926,-117.754163,POMONCA,POMONA CITY JAIL,POMONA,CA
34.196216,-84.492662,CHEROGA,CHEROKEE COUNTY JAIL (GEORGIA),CANTON,GA
31.849819,-91.934689,CATAHLA,CATAHOULA CORRECTIONAL CENTER,HARRISONBURG,LA
60.583197,-151.299965,AKWILPT,WILDWOOD PRETRIAL FACILITY,KENAI,AK
44.598194,-75.16884,STLAWNY,ST LAWRENCE COUNTY JAIL,CANTON,NY
41.403916,-95.014423,CASSCIA,CASS COUNTY CORRECTIONAL FACILITY (IOWA),ATLANTIC,IA
40.888954,-72.505524,CTGARCI,GARNER CORRECTIONAL INSTITUTE,NEWTOWN,CT
39.962022,-83.002406,CLMHOLD,COLUMBUS HOLDROOM,COLUMBUS,OH
32.633183,-117.076747,SOBAYCA,SOUTH BAY DETENT FACILITY,CHULA VISTA,CA
47.602982,-122.328536,KINCOWA,KING COUNTY ADULT JAIL,SEATTLE,WA
30.241964,-93.377471,SULPHLA,SULPHUR CITY,SULPHUR,LA
30.326131,-81.650064,DUVALFL,DUVAL/JACKSONVILLE JAIL,JACKSONVILLE,FL
47.950383,-124.378443,FORKSWA,FORKS CITY JAIL,FORKS,WA
43.552521,-96.731349,MINNESD,MINNEHAHA COUNTY JAIL,SIOUX FALLS,SD
37.624123,-104.782935,HUERFCO,HUERFANO COUNTY JAIL,WALSENBERG,CO
38.483781,-94.935875,OSAHOKS,OSAWATAMIE STATE HOSPITAL,OSAWATAMIE,KS
45.629578,-122.675988,CLJUVWA,CLARK COUNTY JUVENILE,VANCOUVER,WA
39.638329,-77.764521,WASHIMD,WASHINGTON COUNTY,HAGERSTOWN,MD
38.738205,-85.822484,CLARKID,CLARK COUNTY JAIL,DUBOIS,ID
43.155131,-98.538831,CHARLSD,CHARLES MIX COUNTY,LAKE ANDES,SD
40.252548,-76.834523,DAUPHPA,"DAUPHIN COUNTY JAIL, PA",HARRISBURG,PA
41.86049,-88.142516,DUPAGIL,DUPAGE COUNTY SHERIFF'S OFFICE,WHEATON,IL
43.194046,-112.344097,BINGHID,BINGHAM COUNTY JAIL,BLACKFOOT,ID
39.477425,-106.047153,SUMMICO,SUMMIT COUNTY JAIL,BRECKENRIDGE,CO
38.644395,-90.342897,SLJUVMO,ST. LOUIS JUVENILE CENTER,ST. LOUIS,MO
31.557565,-97.132846,MCCLETX,MCCLELLAN COUNTY JAIL,WACO,TX
41.536366,-109.297502,SWEETWY,SWEETWATER COUNTY JAIL,ROCK SPRINGS,WY
40.175335,-122.236667,TEHAMCA,TEHAMA COUNTY JAIL,RED BLUFF,CA
32.295363,-90.182473,USMSDMS,"US MARSHALS, S. DISTRICT, MS",JACKSON,MS
39.960001,-76.348233,AGC,AGUADILLA,AGUADILLA,PR
39.190482,-106.81799,PITKICO,PITKIN COUNTY JAIL,ASPEN,CO
37.708292,-120.194511,CACCJAM,SCC/JAMESTOWN,JAMESTOWN,CA
27.87829,-97.324076,POMHOLD,PORTLAND MAINE HOLD ROOM,PORTLAND,ME
42.099325,-102.869419,BOXBUNE,BOX BUTTE COUNTY,ALLIANCE,NE
27.495368,-82.572613,BRADEFL,BRADENTON DETENTION CENTER,BRADENTON,FL
40.271763,-103.628002,BRCHOLD,BRUSH HOLDROOM,BRUSH,CO
43.022284,-88.221226,WAUKEWI,WAUKESHA COUNTY JAIL,WAUKESHA,WI
42.972587,-85.670087,GRMHOLD,GRAND RAPIDS HOLD ROOM,GRAND RAPIDS,MI
35.319584,-82.455384,HENHOLD,HENDERSONVILLE HOLD ROOM,HENDERSONVILLE,NC
39.566107,-95.119226,ATCHIKS,ATCHINSON COUNTY JAIL,ATCHINSON,KS
46.321035,-111.515965,BROADMT,BROADWATER COUNTY SHERIFF,TOWNSEND,MT
31.389727,-103.52882,REJAITX,REEVES COUNTY JAIL,PECOS,TX
47.086246,-119.215122,PISCAME,PISCATAQUIS COUNTY JAIL,DOVER-FOXCROFT,ME
31.558181,-97.133912,MCCDCTX,MCLENNAN COUNTY DETENTION CENTER,WACO,TX
43.092112,-79.022955,NIACINY,NIAGARA FALLS CITY JAIL,NIAGARA FALLS,NY
32.783948,-109.719355,GRAHAAZ,GRAHAM COUNTY,SAFFORD,AZ
36.848229,-76.397683,EASTEVA,EASTERN SHORE REGIONAL JAIL,EASTVILLE,VA
31.181654,-105.357551,HUDSPTX,HUDSPETH COUNTY JAIL,SIERRA BLANCA,TX
44.975082,-93.262553,HEADCMN,HENNEPIN COUNTY ADULT DETENTION CENTER,MINNEAPOLIS,MN
43.781919,-75.497107,LEWISNY,LEWIS COUNTY JAIL,LOWVILLE,NY
36.876224,-76.221557,NORHOLD,NORFOLK SUB-OFFICE HOLD,NORFOLK,VA
38.08507,-106.138188,SAGUACO,SAGUACHE COUNTY JAIL,SAGUACHE,CO
37.096054,-94.51633,JAJUVMO,JASPER COUNTY,JOPLIN,MO
37.716011,-121.892192,SRITACA,SANTA RITA JAIL,DUBLIN,CA
45.025883,-92.80715,MNCFSTW,MINNESOTA CORRECTIONAL FACILITY (STILLWATER),STILLWATER,MN
41.415016,-81.565955,MAPLEOH,MAPLE HEIGHTS CITY JAIL,MAPLE HEIGHTS,OH
42.598716,-76.175401,CORCONY,CORTLAND COUNTY JAIL,CORTLAND,NY
44.816179,-106.95625,SHERIWY,SHERIDAN COUNTY JAIL,SHERIDAN,WY
30.227639,-93.169302,CALCALA,CALCASIEU PARISH,LAKE CHARLES,LA
38.710327,-90.266523,JENNIMO,JENNINGS CITY JAIL,JENNINGS,MO
41.20167,-80.218339,MERCEPA,MERCER COUNTY,MERCER,PA
37.799829,-122.277043,NONOLCA,NORTH COUNTY JAIL,OAKLAND,CA
42.782571,-112.848578,POWERID,POWER COUNTY JAIL,AMERICAN FALLS,ID
33.749284,-117.876573,OCCWJCA,ORANGE COUNTY CENTRAL WOMEN'S JAIL,SANTA ANA,CA
47.720326,-116.786675,KOOTEID,KOOTENAI COUNTY,COEUR D'ALENE,ID
43.181655,-78.738354,NIAGANY,NIAGARA COUNTY JAIL,LOCKPORT,NY
41.128174,-81.888772,MEDINOH,MEDINA COUNTY JAIL,MEDINA,OH
40.03752,-107.912974,RIOBLCO,RIO BLANCO COUNTY JAIL,MEEKER,CO
26.115499,-80.14277,BROJAFL,BROWARD COUNTY JAIL,FT.LAUDERDALE,FL
43.046486,-76.147492,ONONDNY,ONONDAGA COUNTY JAIL,SYRACUSE,NY
30.215424,-85.561276,BAYCOFL,BAY COUNTY,PANAMA CITY,FL
33.425502,-86.141269,BOPTDG,TALLADEGA FEDERAL CORRECTIONAL INSTITUTE,TALLADEGA,AL
30.031802,-89.97248,BHCELLA,BHC EAST LAKE (HOSP.),NEW ORLEANS,LA
28.867782,-99.108227,STDHOLD,SOUTH TEXAS/PEARSALL HOLD ROOM,PEARSALL,TX
25.715999,-80.334958,METROFL,METRO DADE JAIL,MIAMI,FL
33.435219,-111.841481,DVPSYAZ,DESERT VISTA PSYCHIATRIC,MESA,AZ
37.716066,-121.898157,BOPDUB,DUBLIN FEDERAL CORRECTION INSTITUTION,DUBLIN,CA
29.811209,-95.352566,BFGHITX,"BYRD'S FOSTER GROUP HOME, INC",HOUSTON,TX
39.087499,-108.585497,GJCHOLD,GRAND JUNCTION HOLDROOM,GRAND JUNCTION,CO
42.816587,-112.379881,BANNOID,BANNOCK COUNTY JAIL,POCATELLO,ID
45.665008,-93.916133,BENTOMN,BENTON COUNTY JAIL,FOLEY,MN
21.299523,-157.86311,HHWHOLD,INS DISTRICT OFFICE,HONOLULU,HI
36.805411,-93.465762,STONEMO,STONE COUNTY JAIL,GALENA,MO
42.204962,-83.485496,BELPDMI,BELLEVILLE POLICE DEPARTMENT (MICHIGAN),BELLEVILLE,MI
41.813737,-73.425634,HANCOME,HANCOCK COUNTY JAIL,ELLSWORTH,ME
44.788657,-93.594014,CAJUVMN,CARVER COUNTY JUVENILE DETENTION CENTER,CHASKA,MN
39.610233,-82.949261,PICKJOH,PICKAWAY COUNTY JAIL,CIRCLEVILLE,OH
30.671804,-96.347616,BEXJUTX,BEXAR COUNTY JUVENILE,SAN ANTONIO,TX
40.823267,-76.888626,SNYDEPA,SNYDER COUNTY JAIL,SELINSGROVE,PA
44.277229,-105.50969,CAMCOWY,CAMPBELL COUNTY JAIL,GILLETTE,WY
29.201791,-96.266237,WHARTTX,WHARTON COUNTY JAIL,EL CAMPO,TX
43.494886,-112.040615,BONNEID,BONNEVILLE COUNTY,IDAHO FALLS,ID
41.242491,-80.806799,TRUMBOH,TRUMBULL COUNTY JAIL,WARREN,OH
40.807696,-96.707031,LANCANE,LANCASTER COUNTY JAIL,LINCOLN,NE
43.157259,-75.375787,ONECONY,ONEIDA COUNTY JAIL,ORISKANY,NY
38.277865,-85.736581,CLAJUIN,CLARK COUNTY JUVENILE,JEFFERSONVILLE,IN
42.321245,-122.877283,JAJUVOR,JACKSON COUNTY JUVENILE,MEDFORD,OR
41.917953,-74.017781,ULSCONY,ULSTER COUNTY JAIL KINGSTON,KINGSTON,NY
37.798938,-122.274789,OAKLACA,OAKLAND CITY JAIL,OAKLAND,CA
44.450457,-95.793797,LYONCMN,LYON COUNTY JAIL,MARSHALL,MN
26.15835,-97.674683,PLMBHTX,PALMS BEHAVIORAL HEALTH,HARLINGEN,TX
41.162321,-80.65633,BPHOSOH,BELLMONT PINES HOSPITAL,YOUNGSTOWN,OH
45.673369,-111.060053,GALLAMT,GALLATIN COUNTY JAIL,BOZEMAN,MT
35.144908,-90.039743,MEMPHTN,MEMPHIS/SHELBY COUNTY JUVENILE,MEMPHIS,TN
61.216338,-149.887276,AKCCANC,STATE CORRECTIONAL CENTER,ANCHORAGE,AK
42.205111,-72.509878,HAMPDMA,HAMPDEN COUNTY,LUDLOW,MA
34.10154,-117.272959,SBERNCA,SAN BERNARDINO COUNTY JAIL,SAN BERNARDINO,CA
40.722577,-111.48152,SUMMIUT,SUMMIT COUNTY JAIL,PARK CITY,UT
46.188502,-123.836447,CLATSOR,CLATSOP COUNTY JAIL,ASTORIA,OR
48.418129,-97.405434,WALSHND,WALSH COUNTY JAIL,GRAFTON,ND
39.989444,-75.399943,STAHOLD,SAINT ALBANS HOLD ROOM,SAINT ALBANS,VT
37.676798,-106.350757,RIOGRCO,RIO GRANDE COUNTY JAIL,DEL NORTE,CO
44.95471,-93.09579,REMEDMN,REGIONS MEDICAL CENTER,ST. PAUL,MN
48.696009,-116.314429,BOUNDID,BOUNDARY COUNTY,BONNERS FERRY,ID
31.791823,-106.402591,BOEHOLD,EL PASO BOEING DR HOLDROOM,EL PASO,TX
38.578145,-121.499699,SACHOLD,SACRAMENTO HOLD,SACRAMENTO,CA
41.846212,-85.322211,STJOSMI,ST JOSEPH COUNTY (CENTREVILLE),CENTREVILLE,MI
42.273121,-89.099308,WNBGOIL,WINNEBAGO COUNTY SHERIFF'S OFFICE,ROCKFORD,IL
33.578716,-84.551439,CSCSFGA,CSC SOUTH FULTON MUNICIPAL JAIL,UNION CITY,GA
29.412646,-98.477676,USMW1TX,"US MARSHALS (WESTERN DISTRICT, TEXAS)",SAN ANTONIO,TX
37.717546,-122.038041,CAHGIRL,HOSANA GIRLS RANCH,CASTRO VALLEY,CA
31.115772,-92.067053,AVWOMLA,AVOYELLES WOMENS CORRECTIONAL CENTER,MARKSVILLE,LA
31.115772,-92.067053,AVPARLA,AVOYELLES PARISH PRISON,MARKSVILLE,LA
43.639451,-70.311201,MEYTHCT,MAINE YOUTH CENTER - LONG CREEK,SOUTH PORTLAND,ME
37.503913,-77.523148,VADCORR,VIRGINIA DEPARTMENT OF CORRECTIONS (RICHMOND),RICHMOND,VA
48.475513,-122.335598,VTCHTDN,CHITTENDEN REGIONAL CORRECTIONAL FACILITY,SOUTH BURLINGTON,VT
29.778751,-95.509917,GLOUCNJ,GLOUCESTER COUNTY JAIL,WOODBURY,NJ
39.279993,-76.612715,LIRSJUV,LUTHERAN IMMIGRATION AND REFERRAL SERVICES,BALTIMORE,MD
35.445821,-98.360825,GPCHOLD,GREAT PLAINS CI HOLDROOM,HINTON,OK
37.883775,-121.290405,SJCOJCA,SAN JOAQUIN COUNTY JAIL,FRENCH CAMP,CA
25.811556,-80.311698,TGKJLFL,TURNER GUILFORD KNIGHT (TGK) JAIL,MIAMI,FL
42.349301,-77.29543,STEUBNY,STEUBEN COUNTY JAIL,BATH,NY
39.493817,-88.174402,COLESIL,COLES COUNTY JAIL,CHARLESTON,IL
36.159071,-86.781411,BOPCNV,NASHVILLE COMMUNITY CORRECTIONS,NASHVILLE,TN
40.747487,-95.645438,FREMOIA,FREMONT COUNTY SHERIFF,SIDNEY,IA
36.832653,-76.297566,PORTSVA,PORTSMOUTH CITY JAIL,PORTSMOUTH,VA
29.948443,-90.076538,NOLHOLD,NEW ORLEANS DD&P,NEW ORLEANS,LA
33.163408,-115.493115,CASPCAL,CALIPATRIA STATE,CALIPATRIA,CA
33.163408,-115.493115,CADCCAL,CDC CALIPATRIA IHP,CALIPATRIA,CA
44.282192,-73.539346,ESSEXNY,ESSEX COUNTY JAIL (NEW YORK),LEWIS,NY
40.09943,-99.362249,HARLANE,HARLAN COUNTY JAIL,ALMA,NE
42.315904,-89.070627,RRIVRIL,ROCK RIVER HEALTH CARE,ROCKFORD,IL
40.78037,-99.740138,DAWSONE,DAWSON COUNTY JAIL,LEXINGTON,NE
41.876814,-87.629945,BOPCCC,CHICAGO MCC,CHICAGO,IL
43.096605,-79.054497,CSYJVNY,CASEY HOUSE SHELTER,BUFFALO,NY
42.056444,-92.901621,DODGEIA,CAMP DODGE,JOHNSTON,IA
31.493453,-81.494342,MCINTGA,MCINTOSH COUNTY JAIL,DARIEN,GA
47.471688,-115.922254,SHOSHID,SHOSHONE COUNTY PUBLIC SAFETY FACILITY,WALLACE,ID
42.725717,-87.783678,RACINWI,RACINE COUNTY JAIL,RACINE,WI
42.725897,-93.735287,WRIGHIA,WRIGHT COUNTY JAIL,CLARION,IA
31.636756,-110.336771,COJUVAZ,COCHISE COUNTY CHILD CENTER,HUACHUCA CITY,AZ
40.998605,-76.450934,COLUMPA,COLUMBIA COUNTY,BLOOMSBURG,PA
41.2445,41.2445,WEBERUT,WEBER COUNTY JAIL,OGDEN,UT
43.606678,-116.27189,ADACOID,ADA COUNTY JAIL,BOISE,ID
37.751835,-77.359553,PAMREVA,PAMUNKEY REGIONAL JAIL,HANOVER,VA
33.93553,-118.162152,LOSPACA,LOS PADRINOS JUVENILE HALL,DOWNEY,CA
37.357963,-108.572718,MONTECO,MONTEZUMA COUNTY JAIL,CORTEZ,CO
46.222447,-119.220731,BENTOWA,BENTON COUNTY JAIL,KENNEWICK,WA
41.810128,-87.897925,WESPDIL,WESTERN SPRINGS POLICE DEPARTMENT,WESTERN SPRINGS,IL
37.246581,-107.878644,LAPLACO,LA PLATA COUNTY JAIL,DURANGO,CO
42.977478,-76.542505,CAYUGNY,CAYUGA COUNTY JAIL,AUBURN,NY
41.743783,-74.362567,NYULSTC,ULSTER CORRECTIONAL FACILITY,NAPANOCH,NY
43.042685,-76.140546,UPSTANY,UPSTATE UNIVERSITY HOSPITAL,SYRACUSE,NY
35.333823,-97.618358,BOPOKL,OKLAHOMA FEDERAL TRANSFER CENTER,OKLAHOMA CITY,OK
30.742095,-95.532891,WALKETX,WALKER COUNTY JAIL,HUNTSVILLE,TX
43.973568,-75.928473,JEFFENY,JEFFERSON COUNTY JAIL,WATERTOWN,NY
45.181823,-93.122622,ANJUVMN,ANOKA COUNTY JUVENILE,LINO LAKES,MN
38.031902,-86.083512,BELKNNH,BELKNAP COUNTY JAIL,LACONIA,NH
45.705221,-92.951425,MNCFRUS,MINNESOTA CORRECTIONAL FACILITY (RUSH CITY),RUSH CITY,MN
30.625235,-81.626153,NASSAFL,NASSAU COUNTY JAIL,YULEE,FL
35.051592,-85.1372,SILERTN,SILVERDALE/HAMILTON COUNTY,CHATTANOOGA,TN
41.26852,-110.915063,UINTAWY,UINTA COUNTY JAIL,EVANSTON,WY
39.727309,-104.990273,DNHMCCO,DENVER HEALTH MEDICAL CENTER,DENVER,CO
42.322476,-122.878284,JACKSOR,JACKSON COUNTY JAIL,MEDFORD,OR
42.217733,-73.863803,GRECONY,GREENE COUNTY JAIL,CATSKILL,NY
44.376645,-103.7289,LAWRESD,LAWRENCE COUNTY,DEADWOOD,SD
31.553661,-97.13349,WCTHOLD,WACO DRO HOLD ROOM,WACO,TX
48.189696,-114.310488,FLATHMT,FLATHEAD COUNTY JAIL,KALISPELL,MT
34.270368,-119.213398,VENTUCA,VENTURA COUNTY JAIL,VENTURA,CA
27.175511,-80.241662,MARTIFL,MARTIN COUNTY JAIL,STUART,FL
40.981234,-111.903227,DAVISUT,DAVIS COUNTY,FARMINGTON,UT
27.246853,-98.124549,BROOKTX,BROOKS COUNTY JAIL (SHERIFF),FALFURRIAS,TX
40.251251,-103.789684,MORGACO,MORGAN COUNTY JAIL,FORT MORGAN,CO
35.220843,-80.837649,MECKLN2,MECKLENBURG COUNTY JAIL CENTRAL,CHARLOTTE,NC
37.320648,-78.425405,PMREGVA,PIEDMONT REGIONAL JAIL,FARMVILLE,VA
35.088702,-92.442469,FAULKAR,FAULKNER COUNTY JAIL,CONWAY,AR
34.405734,-103.206646,CURRYNM,CURRY COUNTY DETENTION FACILITY,CLOVIS,NM
35.380213,-94.412793,SEBJVAR,SEBASTIAN COUNTY JUVENILE,FORT SMITH,AR
46.593342,-111.974248,HELHOLD,HELENA DISTRICT CUSTODY,HELENA,MT
33.20028,-101.371753,BSGDFTX,BSCC GILES DARBY FACILITY,POST,TX
33.20028,-101.371753,BOPDAL,DALBY CORRECTIONAL INSTITUTE,POST,TX
48.709742,-94.591152,LKWDSMN,LAKE OF THE WOODS COUNTY JAIL,BAUDETTE,MN
31.309713,-92.41072,LKLNDLA,LAKELAND NURSING HOME,PINEVILLE,LA
35.410801,-86.130471,MANHOLD,MANCHESTER HOLDROOM,MANCHESTER,NH
47.595433,-122.327341,SEAICDF,SEATTLE CONTRACT DETENTION,SEATTLE,WA
40.750465,-81.387151,MCJUVOH,MULTI COUNTY,CANTON,OH
34.063037,-118.239344,BWDGICA,BEST WESTERN DRAGON GATE INN,LOS ANGELES,CA
46.449398,-108.541905,MUSSEMT,MUSSELSHELL COUNTY JAIL,ROUNDUP,MT
33.759226,-117.986454,WESHOLD,WESTMINSTER CUSTODY,WESTMINSTER,CA
42.499048,-96.40647,WOJUVIA,WOODBURY COUNTY JUVENILE DETENTION CENTER,SIOUX CITY,IA
38.548791,-76.059035,DORCHMD,DORCHESTER COUNTY DETENTION CENTER,CAMBRIDGE,MD
47.996038,-122.039559,WASHIME,WASHINGTON COUNTY JAIL,MACHIAS,ME
32.339536,-108.669664,HIDALNM,HIDALGO COUNTY DETENTION FACILITY,LORDSBURG,NM
39.943956,-75.115979,CAMDENJ,CAMDEN COUNTY JAIL,CAMDEN,NJ
41.863672,-87.867765,REHOSIL,RIVEREDGE HOSPITAL,FOREST PARK,IL
35.157004,-89.883275,MEMHOLD,MEMPHIS HOLD ROOM,MEMPHIS,TN
40.313075,-83.047187,DELWAOH,DELAWARE COUNTY JAIL,DELAWARE,OH
30.480405,-90.463101,PENOBME,PENOBSCOT COUNTY JAIL,BANGOR,ME
42.249596,-73.756593,COLOMNY,COLOMBIA COUNTY JAIL,HUDSON,NY
37.825386,-107.881011,SNMGLCO,SAN MIGUEL COUNTY JAIL,TELLURIDE,CO
29.959765,-90.09482,ORPARL2,ORLEANS PARISH/SOUTH WHITE,NEW ORLEANS,LA
28.446666,-80.784754,BREVDFL,BREVARD COUNTY JAIL COMPLEX,COCOA,FL
35.224004,-101.741099,AMTHOLD,AMARILLO HOLD ROOM,AMARILLO,TX
40.77399,-80.708493,BOPELK,ELKTON FEDERAL CORRECTIONAL INSTITUTE,ELKTON,OH
41.822489,-87.842764,BROPDIL,BROOKFIELD POLICE DEPARTMENT,BROOKFIELD,IL
39.662675,-106.819619,EAGLECO,EAGLE COUNTY JAIL,EAGLE,CO
37.352023,-121.905645,SCNORCA,SANTA CLARA COUNTY MAIN JAIL,SAN JOSE,CA
26.933288,-82.222172,FMYHOLD,FORT MYERS ERO HOLD ROOM,FORT MYERS,FL
32.088885,-110.85789,BOPTCN,TUCSON FEDERAL CORRECTIONAL INSTITUTE,TUCSON,AZ
42.111331,-75.910529,BROMMNY,BROOME COUNTY JAIL,BINGHAMPTON,NY
32.840254,-116.973569,LASWOCA,LAS COLINAS WOMEN'S DETENTION FACILITY,SANTEE,CA
39.749321,-104.990311,USMCO,US MARSHALS (COLORADO),DENVER,CO
27.796327,-97.399658,NUECETX,NUECES COUNTY JAIL,CORPUS CHRISTI,TX
30.003609,-81.686229,CLAYCFL,CLAY COUNTY JAIL,GREENCOVE SPRING,FL
27.507924,-99.504622,WEBCOTX,WEBB COUNTY (SHERIFF) JAIL,LAREDO,TX
42.027964,-96.09301,MONONIA,MONONA COUNTY JAIL (IOWA),ONAWA,IA
38.275318,-104.610255,PUEBLCO,PUEBLO COUNTY JAIL,PUEBLO,CO
31.529023,-96.511946,LIMESTX,LIMESTONE COUNTY DETENTION CENTER,GROESBECK,TX
32.415888,-99.735779,TAYLOTX,TAYLOR COUNTY ADULT DETENTION FACILITY,ABILENE,TX
61.30043,-149.587058,AKHIGHL,HILAND MOUNTAIN CORRECTIONAL CENTER,EAGLE RIVER,AK
38.3143,38.3143,JEFFEIL,JEFFERSON COUNTY JAIL,MOUNT VERNON,IL
33.750973,-118.088403,MISS557,SEAL BEACH DETENTION CENTER,SEAL BEACH,CA
30.223179,-92.020786,LAFAYLA,LAFAYETTE PARISH CORRECTIONAL CENTER,LAFAYETTE,LA
44.969774,-69.506081,MATEWKS,TEWKSBURY STATE HOSPITAL,TEWKSBURY,MA
45.033453,-99.126827,FAULKSD,FAULK COUNTY JAIL,FAULKTON,SD
37.217758,-93.291044,GREENMO,GREENE COUNTY JAIL,SPRINGFIELD,MO
32.082882,-110.857962,BOPTCP,US PENITENTIARY TUCSON,TUCSON,AZ
38.75191,-77.477579,PWILLVA,PRINCE WILLIAM COUNTY CORRECTIONAL FACILITY,MANASSAS,VA
38.396049,-105.11597,PUEHOLD,PUEBLO HOLDROOM,FLORENCE,CO
35.749543,-83.99043,BLOUNTN,BLOUNT COUNTY JUSTICE CENTER,MARYVILLE,TN
35.836577,-86.4095,RUTHETN,RUTHERFORD COUNTY SHERIFF,MURFREESBORO,TN
28.429633,-81.333865,ORLHOLD,ORLANDO HOLD ROOM,ORLANDO,FL
32.134972,-81.61901,BRYANGA,BRYAN COUNTY JAIL,PEMBROKE,GA
47.690453,-122.646315,WYATTRI,WYATT DETENTION CENTER,CENTRAL FALLS,RI
32.921723,-96.453077,ROCCOTX,ROCKWALL COUNTY DETENTION CENTER,ROCKWALL,TX
35.189537,-111.641039,COCONAZ,COCONINO COUNTY DETENTION FACILITY,FLAGSTAFF,AZ
25.907372,-97.494186,CAMERTX,CAMERON COUNTY JAIL,BROWNSVILLE,TX
39.638781,-105.102914,BOPENG,ENGLEWOOD FEDERAL CORRECTIONAL INSTITUTION,LITTLETON,CO
39.246915,-94.674981,KANHOLD,KANSAS CITY HOLDROOM,KANSAS CITY,MO
31.39479,-103.557594,REJUVTX,REEVES CO. JUV. DET. CTR.,PECOS,TX
31.390048,-103.530264,REDETTX,REEVES COUNTY DETENTION,PECOS,TX
41.452043,-72.107461,CTCORCI,CORRIGAN CORRECTIONAL INSTITUTE,UNCASVILLE,CT
37.754317,-122.029622,CAHBOYS,HOSANNA HOMES FOR BOYS,CASTRO VALLEY,CA
41.311078,-105.63077,ALBANWY,ALBANY COUNTY JAIL,LARAMIE,WY
40.428345,-74.493605,MIDDLNJ,MIDDLESEX COUNTY JAIL,NORTH BRUNSWICK,NJ
18.360096,-66.078484,CMEDHPR,CENTRO MEDICO HOSPITAL,SAN JUAN,PR
40.580064,-111.821697,PRVEGAL,VEGA ALTA DETENTION,VEGA ALTA,PR
45.061416,-92.84736,MNCOAKC,MINNESOTA CORRECTIONAL FACILITY (OAK PARK HEIGHTS),STILLWATER,MN
39.022942,-103.457864,LINCOCO,LINCOLN COUNTY JAIL,HUGO,CO
42.76399,-96.676742,UNIONSD,UNION COUNTY JAIL,ELK POINT,SD
44.334073,-100.094195,HUGHESD,HUGHES COUNTY,PIERRE,SD
41.79107,-107.23866,CARBOWY,CARBON COUNTY JAIL,RAWLINS,WY
46.842028,-96.735563,CLAYCMN,CLAY COUNTY,MOORHEAD,MN
47.756361,-96.622289,POLKCMN,POLK COUNTY JAIL,CROOKSTON,MN
44.564424,-98.206759,BEACOSD,BEADLE COUNTY,HURON,SD
45.902017,-95.420589,DOUGLMN,DOUGLAS COUNTY,ALEXANDRIA,MN
31.174061,-99.876368,EDENDTX,EDEN DETENTION CENTER,EDEN,TX
44.346935,-108.165824,BIGHOWY,BIG HORN COUNTY JAIL (WYOMING),BASIN,WY
43.030348,-74.964044,HERKINY,HERKIMER COUNTY JAIL,HERKIMER,NY
39.958058,-75.162292,HANMNPA,HAHNEMANN HOPSITAL,PHILADELPHIA,PA
31.339242,-94.727554,ANGELTX,ANGELINA COUNTY JAIL,LUFKIN,TX
29.824209,-98.618585,KENDATX,KENDALL COUNTY JAIL,BOERNE,TX
30.277756,-98.406098,BLANCTX,BLANCO COUNTY JAIL,JOHNSON CITY,TX
30.039918,-99.13649,KERCOTX,KERR COUNTY JAIL,KERRVILLE,TX
29.579044,-97.970738,GUADATX,GUADALUPE CITY JAIL,SEGUIN,TX
30.306156,-97.732341,TRAVITX,TRAVIS CITY JAIL,AUSTIN,TX
30.075813,-97.281411,BASCOTX,BASTROP COUNTY JAIL,BASTROP,TX
29.130091,-98.162359,WILSOTX,WILSON COUNTY JAIL,FLORESVILLE,TX
26.701497,-99.108897,ATASCTX,ATASCOSA COUNTY JAIL,JOURDANTON,TX
29.661605,-98.124459,COMALTX,COMAL CITY JAIL,NEW BRAUNFELS,TX
29.399964,-98.530608,BEXARTX,BEXAR COUNTY JAIL,SAN ANTONIO,TX
30.727314,-98.246561,HAYCOTX,HAYS COUNTY JAIL,SAN MARCOS,TX
30.727314,-98.246561,GONZATX,GONZALES COUNTY JAIL,GONZALEZ,TX
29.915289,-96.865094,FAYETTX,FAYETTE COUNTY JAIL,LA GRANGE,TX
30.727314,-98.246561,CALDWTX,CALDWELL COUNTY JAIL,LOCKHART,TX
26.701497,-99.108897,FRIOCTX,FRIO COUNTY JAIL,PEARSALL,TX
29.536192,-98.462387,TXDOMIN,TDC-DOMINGUEZ UNIT,SAN ANTONIO,TX
36.2051,-119.356899,CASPSAT,CALIFORNIA STATE,CORCORAN,CA
32.751069,-117.190736,CASSJCA,CASA SAN JUAN,SAN DIEGO,CA
32.041235,-89.862596,SIMPSMS,SIMPSON COUNTY JAIL,MENDENHALL,MS
41.896627,-87.631811,CHIHOLD,INS AIRPORT HOLD,CHICAGO,IL
41.84451,-97.455064,MADISNE,MADISON COUNTY JAIL,MADISON,NE
36.163608,-115.141426,CCFAMNV,CC FAMILY & YOUTH SERVICE,LAS VEGAS,NV
31.329497,-83.590891,COLQUGA,COLQUITT COUNTY JAIL,MOULTRIE,GA
35.697376,-78.670006,NCDOCRA,NORTH CAROLINA DEPARTMENT OF CORRECTIONS (RALEIGH),RALEIGH,NC
25.558428,-80.458168,KRHUBFL,KROME/MIAMI HUB,MIAMI,FL
42.05781,-124.275784,COOSCOR,COOS COUNTY,COQUILLE,OR
45.498148,-110.224564,BIGHOMT,BIG HORN COUNTY JAIL (MONTANA),HARDIN,MT
31.080893,-97.768467,CORTYTX,CORYELL COUNTY JAIL,COPPERAS COVE,TX
42.287357,-74.912495,DELAWNY,DELAWARE COUNTY JAIL,DELHI,NY
40.897823,-77.773188,CENTRPA,CENTRE COUNTY JAIL,BELLEFONTE,PA
44.08913,-121.258666,DESCHOR,DESCHUTES COUNTY JAIL,BEND,OR
43.209562,-123.310375,DOUGLOR,DOUGLAS COUNTY,ROSEBURG,OR
37.413944,-121.905479,SCMENCA,SANTA CLARA CO JAIL/MENS,MILPITAS,CA
37.122572,-113.547417,ESSEXMA,ESSEX COUNTY,MIDDLETON,MA
44.995474,-120.222351,GRANTOR,GRANT COUNTY JAIL,CANYON CITY,OR
39.033864,-81.173767,BOPFTD,FORT DIX FEDERAL CORRECTIONAL INSTITUTE,FORT DIX,NJ
35.221085,-120.636399,CAMENCE,"CALIF. MEN COLONY, EAST",SAN LUIS OBISPO,CA
35.221085,-120.636399,CAMENCW,"CALIF. MEN COLONY, WEST",SAN LUIS OBISPO,CA
31.216274,-99.837218,EDCHOLD,EDEN HOLD ROOM,EDEN,TX
29.754455,-94.941516,STTCJVI,ST. T CRIMINAL JUSTICE COMPLEX,CHARLOTTE AMALIE,VI
30.644755,-95.579836,TXHUNTS,HUNTSVILLE STATE PENITENTIARY,HUNTSVILLE,TX
32.746007,-84.934906,HARRIGA,HARRIS COUNTY JAIL,HAMILTON,GA
35.508128,-98.026708,BOPERE,EL RENO FEDERAL CORRECTIONAL INSTITUTE,EL RENO,OK
46.344605,-104.7877,BOPDEV,DEVENS FEDERAL MEDICAL CENTER,AYER,MA
32.64613,-97.266086,BOPCRW,CARSWELL FEDERAL MEDICAL CENTER,FORT WORTH,TX
30.763329,-98.2167,GILLITX,GILLISPIE CITY JAIL,FREDERICKSBURG,TX
29.991172,-99.179265,KEJUVTX,KERR COUNTY JUVENILE DETENTION CENTER,KERRVILLE,TX
36.16924,-115.140647,LVGCINV,LAS VEGAS CITY JAIL,LAS VEGAS,NV
18.405485,-66.056477,SJUHOLD,SAN JUAN AIRPORT HOLD ROOM,SAN JUAN,PR
37.11964,-94.507393,AIRHOPR,AIRPORT HOTEL (SAN JUAN),ISLA VERDE,PR
40.310003,-75.130483,BUCKSPA,BUCKS COUNTY JAIL (PENNSYLVANIA),DOYLESTOWN,PA
42.655569,-74.337322,SCHOHNY,SCHOHARIE COUNTY JAIL,SCHOHARIE,NY
61.54876,-149.033496,AKPALMC,PALMER CORRECTIONAL CENTER,PALMER,AK
39.721955,-75.708385,STCGOVI,ST. X GOLDEN GROVE,CHRISTIANSTED,VI
45.772424,-122.64879,CLARKWA,CLARKE COUNTY JAIL,VANCOUVER,WA
44.724105,-75.445374,NYOGDNC,OGDENSBURG CORRECTIONAL,OGDENSBURG,NY
30.80547,-92.62153,BOPOAK,OAKDALE FEDERAL CORRECTIONAL INSTITUTE,OAKDALE,LA
35.100867,-90.726069,BOPFOR,FOREST CITY FEDERAL CORRECTIONAL INSTITUTE,FOREST CITY,AR
36.13209,-78.75667,BOPBUT,BUTNER FEDERAL CORRECTIONAL INSTITUTE,BUTNER,NC
40.969642,-76.948072,BOPLEW,LEWISBURG US PENITENTIARY,LEWISBURG,PA
37.96954,-76.766517,NNREGVA,NORTHERN NECK REGIONAL JAIL,WARSAW,VA
36.958691,-122.027589,STCANVI,ST X ANNAS HOPE,SAINT CROIX,VI
35.974602,-94.190997,FAYHOLD,FAYETTEVILLE HOLD ROOM,FAYETTEVILLE,AR
31.773452,-106.37709,ELPCOTX,EL PASO COUNTY JAIL (TEXAS),EL PASO,TX
37.73562,-81.14994,BOPBEC,BECKLEY FEDERAL CORRECTIONAL INSTITUTE,BEAVER,WV
46.8887,-100.681855,BURLEND,BURLEIGH COUNTY,BISMARCK,ND
41.07592,-76.87469,BOPALF,ALLENWOOD LOW SECURITY FEDERAL CORRECTIONAL INSTIT,WHITE DEER,PA
44.36287,-93.267456,RICECMN,RICE COUNTY JAIL,FARIBAULT,MN
48.41358,-114.33569,WHITEMT,WHITEFISH CITY JAIL,WHITEFISH,MT
38.758595,-108.069236,DELTACO,DELTA COUNTY JAIL,DELTA,CO
44.859117,-74.288237,FRACONY,FRANKLIN COUNTY JAIL,MALONE,NY
39.7061,-105.6975,CLEARCO,CLEAR CREEK COUNTY JAIL,GEORGETOWN,CO
37.378234,-120.617808,MERCECA,MERCED COUNTY JAIL,MERCED,CA
39.601448,-107.304314,GARFICO,GARFIELD COUNTY JAIL,GLENWOOD SPGS,CO
41.07592,-76.87469,BOPALM,ALLENWOOD (MEDICAL) FEDERAL CORRECTIONAL INSTITUTE,WHITE DEER,PA
39.257605,-106.301383,LAKEJCO,LAKE COUNTY JAIL,LEADVILLE,CO
29.847569,-94.129733,BOPBMA,BEAUMONT FEDERAL CORRECTIONAL INSTITUTE,BEAUMONT,TX
36.703347,-85.802728,BOPFAI,FAIRTON FEDERAL CORRECTIONAL INSTITUTE,FAIRTON,NJ
33.276539,-112.18717,MCMEDAZ,MARICOPA MEDICAL CENTER,PHOENIX,AZ
35.14726,-107.85145,CIBOLNM,CIBOLA COUNTY DETENTION CENTER,GRANTS,NM
28.452822,-98.166012,BOPTRV,THREE RIVERS FEDERAL CORRECTIONAL INSTITUTE,"THREE RIVERS,",TX
47.83441,-110.65827,CHOUTMT,CHOUTEAU COUNTY JAIL,FORT BENTON,MT
43.996613,-92.540929,BOPRCH,ROCHESTER FEDERAL MEDICAL CENTER,ROCHESTER,MN
40.071207,-106.069256,GRANDCO,GRAND COUNTY JAIL,HOT SULPHUR SPGS,CO
48.076333,-96.149002,PENNIMN,PENNINGTON COUNTY,THIEFRIVER FALLS,MN
43.78137,-89.57262,BOPOXF,OXFORD FEDERAL CORRECTIONAL INSTITUTE,OXFORD,WI
41.103581,-75.345945,LINCOME,LINCOLN COUNTY JAIL,WISCASSETT,ME
38.320931,-105.142833,BOPFLF,FLORENCE FEDERAL CORRECTIONAL INSTITUTE,FLORENCE,CO
36.449485,-121.368127,CATFSOL,CTF-SOLEDAD,SOLEDAD,CA
32.80661,-81.183087,BOPEST,ESTILL FEDERAL CORRECTIONAL INSTITUTE,ESTILL,SC
38.629119,-106.120582,CHAFFCO,CHAFFEE COUNTY JAIL,SALIDA,CO
40.69065,-76.26217,BOPSCH,SCHUYLKILL FEDERAL CORRECTIONAL INSTITUTE,MINERSVILLE,PA
33.767808,-81.987524,BOPEDG,EDGEFIELD FEDERAL CORRECTIONAL INSTITUTE,EDGEFIELD,SC
47.933481,-97.394446,GFJUVND,GRAND FORKS COUNTY,GRAND FORKS,ND
30.140905,-97.313592,BOPBAS,BASTROP FEDERAL CORRECTIONAL INSTITUTE,BASTROP,TX
38.320931,-105.142833,BOPFLP,FLORENCE US PENITENTIARY,FLORENCE,CO
36.722713,-121.63365,MONTECA,MONTEREY COUNTY,SALINAS,CA
38.320931,-105.142833,BOPFLM,FLORENCE ADMAX US PENITENTIARY,FLORENCE,CO
26.059583,-80.414605,BROCRFL,BROWARD CORRECTIONAL,PEMBROKE PINES,FL
48.232139,-101.293788,WARDCND,WARD COUNTY JAIL,MINOT,ND
28.79971,-82.07009,BOPCOL,COLEMAN FEDERAL CORRECTIONAL INSTITUTE,COLEMAN,FL
46.132453,-92.588959,BOPSST,SANDSTONE FEDERAL CORRECTIONAL INSTITUTE,SANDSTONE,MN
37.524246,-77.493157,HENRIVA,HENRICO COUNTY JAIL,RICHMOND,VA
44.28922,-74.10765,BOPRBK,RAY BROOK FEDERAL CORRECTIONAL INSTITUTE,RAY BROOK,NY
39.370254,-104.421214,ELBERCO,ELBERT COUNTY JAIL,KIOWA,CO
40.811809,-81.368284,STARKOH,STARK COUNTY JAIL,CANTON,OH
42.952856,-74.375413,MONTGNY,MONTGOMERY COUNTY JAIL,FONDA,NY
37.204765,-77.392784,BOPPET,PETERSBURG FEDERAL CORRECTIONAL INSTITUTE,PETERSBURG,VA
43.00674,-74.36764,FULCONY,FULTON COUNTY JAIL,JOHNSTOWN,NY
40.643861,-100.54399,FRONTNE,FRONTIER COUNTY JAIL,CURTIS,NE
41.07592,-76.87469,BOPALP,ALLENWOOD US PENITENTIARY,WHITE DEER,PA
41.92923,-78.652806,BOPMCK,MCKEAN FEDERAL CORRECTIONAL INSTITUTE,BRADFORD,PA
32.815898,-90.475849,BOPYAM,YAZOO CITY MEDIUM SECURITY FEDERAL CORRECTIONAL IN,YAZOO CITY,MS
41.47343,-74.53849,BOPOTV,OTISVILLE FEDERAL CORRECTIONAL INSTITUTE,OTISVILLE,NY
33.46238,-94.0715,BOPTEX,TEXARKANA FEDERAL CORRECTIONAL INSTITUTE,TEXARKANA,TX
42.08532,-83.68244,BOPMIL,MILAN FEDERAL CORRECTIONAL INSTITUTE,MILAN,MI
31.767543,-96.138094,FREESTX,FREESTONE COUNTY JAIL,FAIRFIELD,TX
39.965666,-75.210545,ROUNDPA,"ROUNDHOUSE (PHILADELPHIA, PENNSYLVANIA)",PHILADELPHIA,PA
44.521909,-92.537774,GOOD,GOOD,RED WING,MN
44.521909,-92.537774,GOODHMN,GOODHUE COUNTY JAIL,RED WING,MN
46.244859,-114.158335,RAVALMT,RAVALLI COUNTY JAIL,HAMILTON,MT
39.923662,-80.743828,WVNORTH,NORTHERN REGIONAL JAIL,MOUNDSVILLE,WV
41.007379,-111.898875,FRANKME,FRANKLIN COUNTY JAIL (MAINE),FARMINGTON,ME
30.92465,-93.722324,NEWTOTX,NEWTON COUNTY CORRECTIONAL CENTER,NEWTON,TX
29.219569,-95.344788,BOPDAN,DANBURY FEDERAL CORRECTIONAL INSTITUTE,DANBURY,CT
41.702697,-70.321952,BARNSMA,BARNSTABLE COUNTY,BARNSTABLE,MA
40.878164,-75.784076,CARBOPA,CARBON COUNTY CORRECTIONL,NESQUEHONING,PA
35.783858,-96.777105,SFJUVOK,SAC & FOX NATION JUVENILE DETENTION,STROUD,OK
32.4326,-91.064535,MADISLA,MADISON PARISH DET CENTER,TALLULAH,LA
37.180803,-83.785943,BOPMAN,MANCHESTER FEDERAL CORRECTIONAL INSTITUTE,MANCHESTER,KY
40.517191,-78.61487,BOPLOR,LORETTO FEDERAL CORRECTIONAL INSTITUTE,LORETTO,PA
37.656176,-89.095567,BOPMAR,MARION USP,MARION,IL
NA,NA,Redacted,Redacted,Redacted,Redacted
NA,NA,Redacted,Redacted,Redacted,Redacted
NA,NA,Redacted,Redacted,Redacted,Redacted
NA,NA,Redacted,Redacted,Redacted,Redacted
NA,NA,Redacted,Redacted,Redacted,Redacted
NA,NA,Redacted,Redacted,Redacted,Redacted
NA,NA,Redacted,Redacted,Redacted,Redacted
NA,NA,Redacted,Redacted,Redacted,Redacted
NA,NA,Redacted,Redacted,Redacted,Redacted
NA,NA,Redacted,Redacted,Redacted,Redacted
NA,NA,Redacted,Redacted,Redacted,Redacted
NA,NA,Redacted,Redacted,Redacted,Redacted
NA,NA,Redacted,Redacted,Redacted,Redacted
NA,NA,Redacted,Redacted,Redacted,Redacted
NA,NA,Redacted,Redacted,Redacted,Redacted
NA,NA,Redacted,Redacted,Redacted,Redacted
NA,NA,Redacted,Redacted,Redacted,Redacted
NA,NA,Redacted,Redacted,Redacted,Redacted
NA,NA,Redacted,Redacted,Redacted,Redacted
NA,NA,Redacted,Redacted,Redacted,Redacted
NA,NA,Redacted,Redacted,Redacted,Redacted
NA,NA,Redacted,Redacted,Redacted,Redacted
NA,NA,Redacted,Redacted,Redacted,Redacted
NA,NA,Redacted,Redacted,Redacted,Redacted
NA,NA,Redacted,Redacted,Redacted,Redacted
NA,NA,Redacted,Redacted,Redacted,Redacted
NA,NA,Redacted,Redacted,Redacted,Redacted
NA,NA,Redacted,Redacted,Redacted,Redacted
NA,NA,Redacted,Redacted,Redacted,Redacted
NA,NA,Redacted,Redacted,Redacted,Redacted
NA,NA,Redacted,Redacted,Redacted,Redacted
NA,NA,Redacted,Redacted,Redacted,Redacted
NA,NA,Redacted,Redacted,Redacted,Redacted
NA,NA,Redacted,Redacted,Redacted,Redacted
NA,NA,Redacted,Redacted,Redacted,Redacted
NA,NA,Redacted,Redacted,Redacted,Redacted
NA,NA,Redacted,Redacted,Redacted,Redacted
NA,NA,Redacted,Redacted,Redacted,Redacted
NA,NA,Redacted,Redacted,Redacted,Redacted
37.250333,-121.926752,SCSOUCA,SANTA CLARA COUNTY JAIL,SAN JOSE,CA
38.445532,-82.709518,BOPASH,ASHLAND FEDERAL CORRECTIONAL INSTITUTE,ASHLAND,KY
40.244126,-74.808546,AKPSYNJ,ANNE KLEIN PSYCHIATRIC INSTITUTE,W. TRENTON,NJ
42.33469,-71.075509,BPC,BOSTON SPC,BOSTON,MA
45.659503,-122.833553,USMVT,"US MARSHALS, VERMONT",BURLINGTON,VT
35.808387,-78.839488,RDUHOLD,RALEIGH HOLD ROOM,CARY,NC
41.976612,-91.657578,CRIHOLD,CEDAR RAPIDS HOLD ROOM,CEDAR RAPIDS,IA
35.227271,-80.844194,CLTHOLD,CHARLOTTE HOLD ROOM,CHARLOTTE,NC
38.087663,-78.556765,ALBEMVA,ALBEMARLE-CHARLOTTSVILLE,CHARLOTTESVILLE,VA
35.221092,-85.209082,CNGHOLD,CHATTANOOGA HOLD ROOM,CHATTANOOGA,TN
41.672687,-93.572173,DSMHOLD,DES MOINES HOLD ROOM,DES MOINES,IA
35.366188,-94.416458,FSAHOLD,FORT SMITH HOLD ROOM,FORT SMITH,AR
34.049367,-85.934285,ETWHOLD,ETOWAH ERO HOLD ROOM,GADSDEN,AL
34.898246,-82.257851,GRRHOLD,GREER HOLD ROOM,GREER,SC
38.422777,-78.877137,HBGHOLD,HARRISONBURG HOLD ROOM,HARRISONBURG,VA
33.544622,-86.929208,BHMHOLD,BIRMINGHAM HOLD ROOM,HOMEWOOD,AL
39.761293,-86.161336,INPHOLD,INDIANAPOLIS HOLD ROOM,INDIANAPOLIS,IN
35.943139,-83.898794,KNXHOLD,KNOXVILLE HOLD ROOM,KNOXVILLE,TN
27.556714,-99.475079,LRDHOLD,LAREDO DETENTION CENTER HOLD ROOM,LAREDO,TX
34.746905,-92.280049,LRAHOLD,LITTLE ROCK HOLD ROOM,LITTLE ROCK,AR
32.233377,-86.208528,MGAHOLD,MONTGOMERY HOLD ROOM,MONTGOMERY,AL
36.165688,-86.778098,NSVHOLD,NASHVILLE HOLD ROOM,NASHVILLE,TN
41.102555,-100.74907,NRPHOLD,NORTH PLATTE HOLD ROOM,NORTH PLATTE,NE
39.55587,-119.800887,RENHOLD,RENO HOLD ROOM,RENO,NV
41.495083,-90.604899,RIIHOLD,ROCK ISLAND HOLD ROOM,ROCK ISLAND,IL
37.185679,-113.609837,SGUHOLD,SAINT GEORGE HOLD ROOM,SAINT GEORGE,UT
15.190135,145.740804,MPSIPAN,SAIPAN DEPARTMENT OF CORRECTIONS (SUSUPE),SAIPAN,MP
15.190135,145.740804,SAIHOLD,SAIPAN HOLD,SAIPAN,MP
30.980518,-89.95071,CHAHOLD,CHARLOTTE AMALIE HOLDROOM,ST. THOMAS,VI
27.92485,-82.379447,TAMHOLD,TAMPA HOLD ROOM,TAMPA,FL
33.431043,-93.876485,TXAHOLD,TEXARKANA HOLDROOM,TEXARKANA,AR
34.480247,-117.408186,BOPVIM,FCI VICTORVILLE,VICTORVILLE,CA
32.449719,-87.496339,PERRYAL,PERRY COUNTY CORRECTIONAL CENTER,UNIONTOWN,AL
45.531406,-122.809837,USMOR,US MARSHALS (OREGON),PORTLAND,OR
33.218643,-117.247871,VISTACA,VISTA DETENTION FACILITY,VISTA,CA
31.835705,-99.007831,TXSJHAV,THOMAS HAVINS SA (TH/82),BROWNWOOD,TX
31.038898,-97.51293,TXSJWDM,LINDA WOODMANSJF,GATESVILLE,TX
31.409758,-97.721902,TXDCWOM,TDC/WOMENS,GATESVILLE,TX
32.722993,-117.165621,WCCSDCA,WACKENHUT CORRECTIONS CORPORATION OF AMERICA,SAN DIEGO,CA
45.223303,-123.202793,YAMCOOR,YAMHILL COUNTY CORRECTION,MCMINNVILLE,OR